{
"type": "FeatureCollection",
"name": "sanjose_east",
"crs": { "type": "name", "properties": { "name": "urn:ogc:def:crs:OGC:1.3:CRS84" } },
"features": [
{ "type": "Feature", "properties": { "name": "Andrew Hill Attendance Area" }, "geometry": { "type": "MultiPolygon", "coordinates": [ [ [ [ -121.868019, 37.28548 ], [ -121.864471, 37.287182 ], [ -121.86441, 37.288795 ], [ -121.868172, 37.290581 ], [ -121.868439, 37.290421 ], [ -121.869911, 37.291882 ], [ -121.868629, 37.291882 ], [ -121.867409, 37.292091 ], [ -121.866493, 37.291321 ], [ -121.866211, 37.291321 ], [ -121.865692, 37.291672 ], [ -121.865631, 37.291851 ], [ -121.865692, 37.292091 ], [ -121.86647, 37.292751 ], [ -121.86599, 37.29353 ], [ -121.865829, 37.293671 ], [ -121.858292, 37.291161 ], [ -121.854942, 37.2915 ], [ -121.851669, 37.293911 ], [ -121.852394, 37.294678 ], [ -121.841942, 37.30188 ], [ -121.84166, 37.301811 ], [ -121.837059, 37.304871 ], [ -121.833939, 37.303242 ], [ -121.82975, 37.300751 ], [ -121.825974, 37.297852 ], [ -121.823402, 37.299011 ], [ -121.82103, 37.300362 ], [ -121.81665, 37.303162 ], [ -121.813232, 37.299541 ], [ -121.811623, 37.297832 ], [ -121.81031, 37.295906 ], [ -121.809822, 37.29285 ], [ -121.809647, 37.289795 ], [ -121.809486, 37.286697 ], [ -121.809227, 37.28363 ], [ -121.808693, 37.282372 ], [ -121.808159, 37.281284 ], [ -121.807472, 37.280243 ], [ -121.806053, 37.278118 ], [ -121.808998, 37.278069 ], [ -121.80896, 37.272961 ], [ -121.811279, 37.272907 ], [ -121.822151, 37.272961 ], [ -121.826736, 37.274437 ], [ -121.827682, 37.273739 ], [ -121.828377, 37.272892 ], [ -121.828949, 37.27232 ], [ -121.821892, 37.267502 ], [ -121.822472, 37.266972 ], [ -121.823273, 37.266521 ], [ -121.824471, 37.266151 ], [ -121.82576, 37.265991 ], [ -121.846573, 37.265911 ], [ -121.849739, 37.272171 ], [ -121.849831, 37.27459 ], [ -121.859558, 37.274437 ], [ -121.863441, 37.274521 ], [ -121.863953, 37.27739 ], [ -121.86618, 37.282761 ], [ -121.868019, 37.28548 ] ] ] ] } },
{ "type": "Feature", "properties": { "name": "Evergreen Valley Attendance Area" }, "geometry": { "type": "MultiPolygon", "coordinates": [ [ [ [ -121.798302, 37.328732 ], [ -121.7724, 37.33379 ], [ -121.74498, 37.340271 ], [ -121.739784, 37.340614 ], [ -121.737289, 37.340904 ], [ -121.734222, 37.341282 ], [ -121.731773, 37.341572 ], [ -121.728943, 37.341946 ], [ -121.726929, 37.342255 ], [ -121.72596, 37.34227 ], [ -121.722702, 37.342319 ], [ -121.72242, 37.342178 ], [ -121.70945, 37.30246 ], [ -121.704811, 37.297951 ], [ -121.736153, 37.297352 ], [ -121.736877, 37.29937 ], [ -121.737968, 37.301842 ], [ -121.740097, 37.30164 ], [ -121.744217, 37.3022 ], [ -121.746101, 37.30201 ], [ -121.747612, 37.301689 ], [ -121.752312, 37.300522 ], [ -121.75473, 37.300201 ], [ -121.75563, 37.300171 ], [ -121.756111, 37.299831 ], [ -121.757431, 37.299591 ], [ -121.759392, 37.298531 ], [ -121.759811, 37.298191 ], [ -121.760162, 37.298019 ], [ -121.760551, 37.29797 ], [ -121.760941, 37.297791 ], [ -121.761681, 37.297741 ], [ -121.763901, 37.29776 ], [ -121.764748, 37.297829 ], [ -121.766167, 37.29826 ], [ -121.766731, 37.298481 ], [ -121.76767, 37.29911 ], [ -121.768402, 37.2995 ], [ -121.769371, 37.299831 ], [ -121.770348, 37.299709 ], [ -121.771301, 37.299278 ], [ -121.780273, 37.308392 ], [ -121.785423, 37.310162 ], [ -121.78875, 37.31242 ], [ -121.790482, 37.31311 ], [ -121.791641, 37.313961 ], [ -121.795311, 37.320061 ], [ -121.798302, 37.328732 ] ] ] ] } },
{ "type": "Feature", "properties": { "name": "Independence Attendance Area" }, "geometry": { "type": "MultiPolygon", "coordinates": [ [ [ [ -121.942924, 37.407051 ], [ -121.936852, 37.410801 ], [ -121.934372, 37.404785 ], [ -121.939407, 37.40226 ], [ -121.942924, 37.407051 ] ] ] ] } },
{ "type": "Feature", "properties": { "name": "Independence Attendance Area" }, "geometry": { "type": "MultiPolygon", "coordinates": [ [ [ [ -121.93763, 37.379452 ], [ -121.927643, 37.38591 ], [ -121.924553, 37.388119 ], [ -121.906013, 37.404041 ], [ -121.904839, 37.404461 ], [ -121.892242, 37.403412 ], [ -121.892662, 37.40752 ], [ -121.895332, 37.407711 ], [ -121.895111, 37.409061 ], [ -121.894501, 37.409901 ], [ -121.893311, 37.410591 ], [ -121.880249, 37.41441 ], [ -121.875031, 37.41592 ], [ -121.867516, 37.419193 ], [ -121.863777, 37.420837 ], [ -121.861015, 37.42205 ], [ -121.860329, 37.422604 ], [ -121.858841, 37.421776 ], [ -121.857994, 37.42141 ], [ -121.85717, 37.42099 ], [ -121.856758, 37.420567 ], [ -121.855606, 37.419033 ], [ -121.854919, 37.418018 ], [ -121.854164, 37.416996 ], [ -121.862206, 37.413067 ], [ -121.866219, 37.411118 ], [ -121.870247, 37.409138 ], [ -121.862785, 37.398869 ], [ -121.859138, 37.393688 ], [ -121.8554, 37.388531 ], [ -121.85009, 37.389542 ], [ -121.85006, 37.389462 ], [ -121.849831, 37.38945 ], [ -121.849342, 37.389221 ], [ -121.849152, 37.38905 ], [ -121.848412, 37.388931 ], [ -121.847412, 37.388962 ], [ -121.84642, 37.389332 ], [ -121.845459, 37.387939 ], [ -121.844322, 37.386581 ], [ -121.843842, 37.38652 ], [ -121.84375, 37.385811 ], [ -121.8423, 37.383801 ], [ -121.840279, 37.381256 ], [ -121.852043, 37.374001 ], [ -121.846001, 37.367691 ], [ -121.84095, 37.359501 ], [ -121.838631, 37.355591 ], [ -121.830681, 37.355381 ], [ -121.829323, 37.354382 ], [ -121.826912, 37.350876 ], [ -121.835007, 37.345375 ], [ -121.848526, 37.33577 ], [ -121.857109, 37.344948 ], [ -121.851936, 37.34906 ], [ -121.855492, 37.352791 ], [ -121.851151, 37.354931 ], [ -121.85421, 37.357761 ], [ -121.855225, 37.357777 ], [ -121.855804, 37.357834 ], [ -121.8564, 37.357735 ], [ -121.857445, 37.357155 ], [ -121.858932, 37.356201 ], [ -121.869408, 37.366772 ], [ -121.874474, 37.363445 ], [ -121.87661, 37.365452 ], [ -121.879822, 37.364491 ], [ -121.88269, 37.363155 ], [ -121.886002, 37.36272 ], [ -121.891579, 37.363251 ], [ -121.892181, 37.368111 ], [ -121.893707, 37.371922 ], [ -121.900803, 37.36718 ], [ -121.905609, 37.36845 ], [ -121.907082, 37.370491 ], [ -121.90863, 37.369221 ], [ -121.907501, 37.368771 ], [ -121.907951, 37.368832 ], [ -121.908211, 37.368771 ], [ -121.908211, 37.368622 ], [ -121.903809, 37.36507 ], [ -121.905792, 37.363811 ], [ -121.90773, 37.366192 ], [ -121.909912, 37.364922 ], [ -121.912292, 37.363838 ], [ -121.917366, 37.360821 ], [ -121.919601, 37.36412 ], [ -121.92128, 37.36565 ], [ -121.921631, 37.366051 ], [ -121.922623, 37.366531 ], [ -121.92421, 37.36684 ], [ -121.92588, 37.36797 ], [ -121.92823, 37.370972 ], [ -121.930992, 37.372391 ], [ -121.931931, 37.37278 ], [ -121.932701, 37.3736 ], [ -121.93309, 37.374111 ], [ -121.932991, 37.374722 ], [ -121.932739, 37.37534 ], [ -121.932671, 37.375931 ], [ -121.932983, 37.376591 ], [ -121.933701, 37.376961 ], [ -121.934532, 37.377281 ], [ -121.93679, 37.378811 ], [ -121.937134, 37.379162 ], [ -121.93734, 37.379261 ], [ -121.937431, 37.379261 ], [ -121.93763, 37.379452 ] ] ] ] } },
{ "type": "Feature", "properties": { "name": "James Lick Attendance Area" }, "geometry": { "type": "MultiPolygon", "coordinates": [ [ [ [ -121.852028, 37.373741 ], [ -121.840202, 37.381191 ], [ -121.84108, 37.38224 ], [ -121.83033, 37.386951 ], [ -121.832153, 37.389671 ], [ -121.825951, 37.392391 ], [ -121.824944, 37.39497 ], [ -121.82354, 37.394958 ], [ -121.821121, 37.393661 ], [ -121.816582, 37.393162 ], [ -121.811951, 37.394192 ], [ -121.811401, 37.394691 ], [ -121.809196, 37.397449 ], [ -121.80732, 37.397549 ], [ -121.802368, 37.397148 ], [ -121.793831, 37.40654 ], [ -121.750572, 37.406422 ], [ -121.744171, 37.404171 ], [ -121.73954, 37.406361 ], [ -121.72541, 37.400982 ], [ -121.639069, 37.339722 ], [ -121.672287, 37.319248 ], [ -121.721519, 37.3414 ], [ -121.722633, 37.342381 ], [ -121.726921, 37.342281 ], [ -121.732071, 37.34153 ], [ -121.737312, 37.340923 ], [ -121.739456, 37.340683 ], [ -121.739822, 37.34058 ], [ -121.740105, 37.340649 ], [ -121.740402, 37.340565 ], [ -121.741219, 37.34053 ], [ -121.743492, 37.340378 ], [ -121.74498, 37.340401 ], [ -121.758904, 37.353851 ], [ -121.767441, 37.357052 ], [ -121.770401, 37.357971 ], [ -121.776321, 37.357632 ], [ -121.781731, 37.358311 ], [ -121.787132, 37.364342 ], [ -121.794472, 37.370682 ], [ -121.79924, 37.3675 ], [ -121.80529, 37.369991 ], [ -121.808891, 37.368 ], [ -121.810181, 37.365952 ], [ -121.810783, 37.366192 ], [ -121.811012, 37.366081 ], [ -121.812401, 37.36525 ], [ -121.817001, 37.362122 ], [ -121.816063, 37.36105 ], [ -121.81736, 37.360111 ], [ -121.817429, 37.35973 ], [ -121.818573, 37.359051 ], [ -121.819, 37.359482 ], [ -121.820992, 37.35815 ], [ -121.812843, 37.349232 ], [ -121.81749, 37.346951 ], [ -121.81778, 37.34721 ], [ -121.8181, 37.347012 ], [ -121.817841, 37.34679 ], [ -121.822601, 37.344421 ], [ -121.826973, 37.350971 ], [ -121.829361, 37.354431 ], [ -121.830681, 37.355381 ], [ -121.838654, 37.355621 ], [ -121.846184, 37.36787 ], [ -121.852028, 37.373741 ] ] ] ] } },
{ "type": "Feature", "properties": { "name": "Mount Pleasant Attendance Area" }, "geometry": { "type": "MultiPolygon", "coordinates": [ [ [ [ -121.820923, 37.35815 ], [ -121.819031, 37.359501 ], [ -121.81855, 37.35902 ], [ -121.817528, 37.359711 ], [ -121.817467, 37.360008 ], [ -121.816063, 37.361031 ], [ -121.817032, 37.362091 ], [ -121.812401, 37.365211 ], [ -121.810791, 37.36618 ], [ -121.810181, 37.365921 ], [ -121.808891, 37.368031 ], [ -121.80529, 37.36998 ], [ -121.79924, 37.367481 ], [ -121.794502, 37.370651 ], [ -121.787109, 37.3643 ], [ -121.781693, 37.358311 ], [ -121.77623, 37.35762 ], [ -121.770432, 37.35796 ], [ -121.767441, 37.35704 ], [ -121.75882, 37.353901 ], [ -121.74482, 37.34034 ], [ -121.772369, 37.333752 ], [ -121.780571, 37.339432 ], [ -121.780724, 37.339352 ], [ -121.780853, 37.339405 ], [ -121.781281, 37.339439 ], [ -121.78154, 37.339432 ], [ -121.792381, 37.337391 ], [ -121.794289, 37.336781 ], [ -121.800621, 37.33556 ], [ -121.806061, 37.34129 ], [ -121.81752, 37.337639 ], [ -121.820259, 37.341019 ], [ -121.822632, 37.34444 ], [ -121.817841, 37.34679 ], [ -121.8181, 37.347031 ], [ -121.817772, 37.347221 ], [ -121.817482, 37.346951 ], [ -121.812843, 37.349232 ], [ -121.820923, 37.35815 ] ] ] ] } },
{ "type": "Feature", "properties": { "name": "Mt Pleasant - Evergreen Option Area" }, "geometry": { "type": "MultiPolygon", "coordinates": [ [ [ [ -121.800529, 37.335445 ], [ -121.793427, 37.336895 ], [ -121.792267, 37.337307 ], [ -121.785118, 37.338654 ], [ -121.781364, 37.33942 ], [ -121.780617, 37.339317 ], [ -121.772484, 37.333775 ], [ -121.782845, 37.331745 ], [ -121.789391, 37.330429 ], [ -121.798317, 37.32869 ], [ -121.800529, 37.335445 ] ] ] ] } },
{ "type": "Feature", "properties": { "name": "Oak Grove Attendance Area" }, "geometry": { "type": "MultiPolygon", "coordinates": [ [ [ [ -121.831039, 37.265942 ], [ -121.825241, 37.266022 ], [ -121.823921, 37.2663 ], [ -121.823051, 37.266602 ], [ -121.82193, 37.26746 ], [ -121.828957, 37.272259 ], [ -121.827919, 37.273376 ], [ -121.826782, 37.274437 ], [ -121.82209, 37.272968 ], [ -121.808968, 37.272919 ], [ -121.809021, 37.27808 ], [ -121.804169, 37.278149 ], [ -121.802841, 37.27948 ], [ -121.792068, 37.279652 ], [ -121.787262, 37.2701 ], [ -121.786781, 37.269371 ], [ -121.757294, 37.268101 ], [ -121.75647, 37.269081 ], [ -121.751541, 37.269112 ], [ -121.716003, 37.243191 ], [ -121.721024, 37.23904 ], [ -121.723839, 37.241261 ], [ -121.735031, 37.235081 ], [ -121.746719, 37.229321 ], [ -121.769417, 37.241791 ], [ -121.777901, 37.240971 ], [ -121.786842, 37.239441 ], [ -121.789162, 37.239441 ], [ -121.79126, 37.23962 ], [ -121.803909, 37.242851 ], [ -121.80632, 37.243141 ], [ -121.817612, 37.243271 ], [ -121.820442, 37.243401 ], [ -121.821892, 37.243671 ], [ -121.82296, 37.244061 ], [ -121.829933, 37.247341 ], [ -121.829933, 37.248322 ], [ -121.830093, 37.248901 ], [ -121.830803, 37.25042 ], [ -121.830872, 37.258801 ], [ -121.83094, 37.259312 ], [ -121.830872, 37.260712 ], [ -121.831039, 37.265942 ] ] ] ] } },
{ "type": "Feature", "properties": { "name": "Piedmont Hills Attendance Area" }, "geometry": { "type": "MultiPolygon", "coordinates": [ [ [ [ -121.870232, 37.409164 ], [ -121.862183, 37.413086 ], [ -121.858162, 37.41507 ], [ -121.854172, 37.416981 ], [ -121.856773, 37.420582 ], [ -121.857094, 37.42094 ], [ -121.857979, 37.421471 ], [ -121.837692, 37.425911 ], [ -121.83709, 37.425152 ], [ -121.847214, 37.420292 ], [ -121.848221, 37.41996 ], [ -121.848503, 37.4198 ], [ -121.84832, 37.418911 ], [ -121.847542, 37.418591 ], [ -121.84565, 37.419521 ], [ -121.84333, 37.41951 ], [ -121.843132, 37.41975 ], [ -121.84288, 37.420582 ], [ -121.841011, 37.421551 ], [ -121.839851, 37.421341 ], [ -121.834122, 37.422901 ], [ -121.83152, 37.42313 ], [ -121.818199, 37.42112 ], [ -121.792313, 37.413601 ], [ -121.791801, 37.41325 ], [ -121.790932, 37.413151 ], [ -121.790443, 37.413731 ], [ -121.78965, 37.413921 ], [ -121.788971, 37.414131 ], [ -121.78849, 37.413651 ], [ -121.787804, 37.413631 ], [ -121.786911, 37.413311 ], [ -121.785912, 37.412621 ], [ -121.78537, 37.413071 ], [ -121.784271, 37.412971 ], [ -121.783882, 37.412762 ], [ -121.7827, 37.412811 ], [ -121.781792, 37.412331 ], [ -121.780579, 37.412312 ], [ -121.78019, 37.41291 ], [ -121.765182, 37.410042 ], [ -121.760269, 37.409012 ], [ -121.75547, 37.409431 ], [ -121.75058, 37.406422 ], [ -121.793793, 37.406574 ], [ -121.80246, 37.397335 ], [ -121.80761, 37.397785 ], [ -121.809326, 37.397472 ], [ -121.810913, 37.395561 ], [ -121.811386, 37.394711 ], [ -121.812119, 37.394096 ], [ -121.816536, 37.393208 ], [ -121.821167, 37.393822 ], [ -121.823532, 37.39505 ], [ -121.824905, 37.39505 ], [ -121.825989, 37.392422 ], [ -121.832222, 37.38966 ], [ -121.830353, 37.386951 ], [ -121.841042, 37.382221 ], [ -121.843491, 37.38541 ], [ -121.843719, 37.385792 ], [ -121.843819, 37.386131 ], [ -121.843811, 37.386532 ], [ -121.84417, 37.386551 ], [ -121.844421, 37.386662 ], [ -121.84642, 37.389381 ], [ -121.847092, 37.38905 ], [ -121.8479, 37.388931 ], [ -121.848419, 37.38892 ], [ -121.84922, 37.389111 ], [ -121.849319, 37.389172 ], [ -121.84935, 37.38932 ], [ -121.849121, 37.389721 ], [ -121.8554, 37.388531 ], [ -121.862762, 37.398869 ], [ -121.866554, 37.404007 ], [ -121.867699, 37.40556 ], [ -121.870232, 37.409164 ] ] ] ] } },
{ "type": "Feature", "properties": { "name": "Santa Teresa Attendance Area" }, "geometry": { "type": "MultiPolygon", "coordinates": [ [ [ [ -121.750809, 37.2271 ], [ -121.757347, 37.232868 ], [ -121.758102, 37.23333 ], [ -121.758751, 37.233452 ], [ -121.760063, 37.233471 ], [ -121.760391, 37.233959 ], [ -121.760643, 37.23455 ], [ -121.760941, 37.23473 ], [ -121.762573, 37.234921 ], [ -121.764542, 37.235661 ], [ -121.764893, 37.23595 ], [ -121.765442, 37.239208 ], [ -121.769287, 37.235146 ], [ -121.773102, 37.230976 ], [ -121.775833, 37.228073 ], [ -121.776924, 37.226673 ], [ -121.782417, 37.220642 ], [ -121.78009, 37.212761 ], [ -121.786919, 37.212212 ], [ -121.789711, 37.21067 ], [ -121.797562, 37.21204 ], [ -121.8013, 37.216301 ], [ -121.802078, 37.216431 ], [ -121.80394, 37.217541 ], [ -121.811508, 37.217541 ], [ -121.812561, 37.218922 ], [ -121.812523, 37.2192 ], [ -121.813293, 37.2192 ], [ -121.814812, 37.220032 ], [ -121.817612, 37.21925 ], [ -121.817261, 37.22031 ], [ -121.817131, 37.221298 ], [ -121.828972, 37.221882 ], [ -121.836571, 37.224812 ], [ -121.837395, 37.224861 ], [ -121.844673, 37.227901 ], [ -121.847092, 37.228931 ], [ -121.844711, 37.2323 ], [ -121.844887, 37.240238 ], [ -121.84214, 37.245171 ], [ -121.841812, 37.250622 ], [ -121.84964, 37.2505 ], [ -121.849663, 37.252411 ], [ -121.848442, 37.255299 ], [ -121.84478, 37.262321 ], [ -121.846519, 37.265911 ], [ -121.831062, 37.26601 ], [ -121.830879, 37.25885 ], [ -121.830841, 37.250622 ], [ -121.830292, 37.249352 ], [ -121.829941, 37.248421 ], [ -121.829903, 37.24789 ], [ -121.829971, 37.247341 ], [ -121.822701, 37.243961 ], [ -121.821281, 37.24361 ], [ -121.819679, 37.24334 ], [ -121.80603, 37.243141 ], [ -121.80394, 37.242882 ], [ -121.79129, 37.23967 ], [ -121.790131, 37.239471 ], [ -121.78688, 37.239471 ], [ -121.777901, 37.240871 ], [ -121.771393, 37.241661 ], [ -121.76989, 37.241562 ], [ -121.768509, 37.241192 ], [ -121.765511, 37.239681 ], [ -121.747849, 37.229542 ], [ -121.750809, 37.2271 ] ] ] ] } },
{ "type": "Feature", "properties": { "name": "Silver Creek Attendance Area" }, "geometry": { "type": "MultiPolygon", "coordinates": [ [ [ [ -121.825821, 37.32222 ], [ -121.820183, 37.32597 ], [ -121.81768, 37.323601 ], [ -121.815552, 37.322392 ], [ -121.81485, 37.32233 ], [ -121.800484, 37.325642 ], [ -121.796989, 37.324951 ], [ -121.795341, 37.320091 ], [ -121.791611, 37.313961 ], [ -121.791, 37.313332 ], [ -121.78923, 37.312672 ], [ -121.788063, 37.31184 ], [ -121.785301, 37.310081 ], [ -121.780441, 37.30846 ], [ -121.77124, 37.299252 ], [ -121.765282, 37.291161 ], [ -121.765541, 37.28986 ], [ -121.765381, 37.288651 ], [ -121.763573, 37.28685 ], [ -121.76236, 37.284981 ], [ -121.759071, 37.28241 ], [ -121.75872, 37.281151 ], [ -121.75634, 37.279541 ], [ -121.75502, 37.279541 ], [ -121.749283, 37.277481 ], [ -121.74678, 37.274891 ], [ -121.74588, 37.273651 ], [ -121.745399, 37.273388 ], [ -121.743233, 37.272442 ], [ -121.741119, 37.271111 ], [ -121.738411, 37.26852 ], [ -121.73658, 37.267731 ], [ -121.735435, 37.267673 ], [ -121.734352, 37.267052 ], [ -121.733322, 37.26667 ], [ -121.732422, 37.265652 ], [ -121.730743, 37.26466 ], [ -121.72953, 37.264721 ], [ -121.728722, 37.264542 ], [ -121.728043, 37.264271 ], [ -121.726242, 37.263351 ], [ -121.72451, 37.26302 ], [ -121.72319, 37.26268 ], [ -121.72258, 37.262402 ], [ -121.72126, 37.26199 ], [ -121.719749, 37.261341 ], [ -121.71859, 37.26123 ], [ -121.717484, 37.260422 ], [ -121.71624, 37.260311 ], [ -121.715782, 37.260509 ], [ -121.715149, 37.260521 ], [ -121.714394, 37.260151 ], [ -121.713219, 37.26025 ], [ -121.710533, 37.259701 ], [ -121.70916, 37.259762 ], [ -121.708344, 37.25919 ], [ -121.704941, 37.25827 ], [ -121.703194, 37.25742 ], [ -121.699402, 37.25642 ], [ -121.697769, 37.255531 ], [ -121.71302, 37.240952 ], [ -121.75164, 37.269131 ], [ -121.7565, 37.269051 ], [ -121.757263, 37.268082 ], [ -121.78688, 37.269402 ], [ -121.792107, 37.27961 ], [ -121.802879, 37.279442 ], [ -121.804192, 37.27813 ], [ -121.806084, 37.278149 ], [ -121.807861, 37.280781 ], [ -121.809311, 37.283871 ], [ -121.810013, 37.294601 ], [ -121.81073, 37.296612 ], [ -121.816711, 37.303242 ], [ -121.824173, 37.310822 ], [ -121.821892, 37.31229 ], [ -121.821732, 37.312752 ], [ -121.81868, 37.3148 ], [ -121.825821, 37.32222 ] ] ] ] } },
{ "type": "Feature", "properties": { "name": "SC - EV Option Area" }, "geometry": { "type": "MultiPolygon", "coordinates": [ [ [ [ -121.77124, 37.299412 ], [ -121.769882, 37.29985 ], [ -121.768944, 37.29969 ], [ -121.767899, 37.299271 ], [ -121.76709, 37.298721 ], [ -121.766151, 37.29826 ], [ -121.764771, 37.297871 ], [ -121.763962, 37.297852 ], [ -121.762993, 37.297871 ], [ -121.762032, 37.297771 ], [ -121.760689, 37.297901 ], [ -121.759399, 37.29845 ], [ -121.757523, 37.299541 ], [ -121.75589, 37.2999 ], [ -121.754173, 37.300072 ], [ -121.74382, 37.302052 ], [ -121.738251, 37.30164 ], [ -121.73632, 37.297192 ], [ -121.711746, 37.29771 ], [ -121.704483, 37.297886 ], [ -121.703362, 37.27985 ], [ -121.697731, 37.25555 ], [ -121.69944, 37.2565 ], [ -121.702026, 37.257198 ], [ -121.703163, 37.257408 ], [ -121.704773, 37.258221 ], [ -121.70697, 37.258739 ], [ -121.707909, 37.259109 ], [ -121.708443, 37.259239 ], [ -121.70919, 37.25975 ], [ -121.709572, 37.2598 ], [ -121.71048, 37.259739 ], [ -121.713242, 37.260262 ], [ -121.71434, 37.260208 ], [ -121.715088, 37.260502 ], [ -121.715538, 37.26059 ], [ -121.716423, 37.260368 ], [ -121.717468, 37.26046 ], [ -121.718338, 37.261108 ], [ -121.718971, 37.26133 ], [ -121.719818, 37.26141 ], [ -121.721313, 37.26207 ], [ -121.722511, 37.262428 ], [ -121.723167, 37.26273 ], [ -121.72451, 37.263069 ], [ -121.726219, 37.26339 ], [ -121.728271, 37.264408 ], [ -121.729111, 37.264671 ], [ -121.729912, 37.264729 ], [ -121.730682, 37.264721 ], [ -121.73233, 37.265629 ], [ -121.733307, 37.266689 ], [ -121.734581, 37.267208 ], [ -121.735382, 37.2677 ], [ -121.736397, 37.26778 ], [ -121.736961, 37.26799 ], [ -121.738411, 37.268631 ], [ -121.741402, 37.27132 ], [ -121.742912, 37.27232 ], [ -121.745857, 37.273689 ], [ -121.747002, 37.275181 ], [ -121.74926, 37.277512 ], [ -121.751251, 37.278271 ], [ -121.75489, 37.279572 ], [ -121.756271, 37.279541 ], [ -121.758682, 37.28112 ], [ -121.75914, 37.282471 ], [ -121.76181, 37.284672 ], [ -121.762489, 37.285011 ], [ -121.763481, 37.28672 ], [ -121.76429, 37.28764 ], [ -121.764862, 37.28812 ], [ -121.76532, 37.288761 ], [ -121.765503, 37.289551 ], [ -121.765541, 37.290192 ], [ -121.765121, 37.291161 ], [ -121.77124, 37.299412 ] ] ] ] } },
{ "type": "Feature", "properties": { "name": "William C. Overfelt Attendance Area" }, "geometry": { "type": "MultiPolygon", "coordinates": [ [ [ [ -121.848419, 37.335831 ], [ -121.847031, 37.336781 ], [ -121.846153, 37.33786 ], [ -121.826981, 37.35088 ], [ -121.82003, 37.34063 ], [ -121.817299, 37.3377 ], [ -121.805801, 37.341381 ], [ -121.800873, 37.335869 ], [ -121.800621, 37.335522 ], [ -121.796951, 37.32486 ], [ -121.800301, 37.3256 ], [ -121.800621, 37.325581 ], [ -121.808441, 37.323891 ], [ -121.81472, 37.32235 ], [ -121.815361, 37.32233 ], [ -121.81752, 37.323471 ], [ -121.820267, 37.325993 ], [ -121.83152, 37.318432 ], [ -121.848419, 37.335831 ] ] ] ] } },
{ "type": "Feature", "properties": { "name": "Yerba Buena Attendance Area" }, "geometry": { "type": "MultiPolygon", "coordinates": [ [ [ [ -121.85923, 37.345699 ], [ -121.858261, 37.34613 ], [ -121.850502, 37.337971 ], [ -121.842522, 37.33004 ], [ -121.831482, 37.318489 ], [ -121.825912, 37.32238 ], [ -121.818672, 37.314781 ], [ -121.821503, 37.312881 ], [ -121.821693, 37.31279 ], [ -121.822006, 37.312222 ], [ -121.824181, 37.310841 ], [ -121.816704, 37.30312 ], [ -121.822212, 37.29961 ], [ -121.823128, 37.299068 ], [ -121.824051, 37.298721 ], [ -121.826012, 37.297871 ], [ -121.829651, 37.30072 ], [ -121.834251, 37.30341 ], [ -121.837051, 37.30481 ], [ -121.84198, 37.30188 ], [ -121.852371, 37.29475 ], [ -121.851662, 37.293961 ], [ -121.854942, 37.291451 ], [ -121.8582, 37.29108 ], [ -121.86132, 37.29211 ], [ -121.86599, 37.293541 ], [ -121.866493, 37.292751 ], [ -121.865692, 37.29208 ], [ -121.865631, 37.291851 ], [ -121.865662, 37.291672 ], [ -121.866211, 37.29134 ], [ -121.866501, 37.29134 ], [ -121.867432, 37.29211 ], [ -121.868629, 37.29187 ], [ -121.869904, 37.291882 ], [ -121.868462, 37.29044 ], [ -121.868141, 37.290581 ], [ -121.86441, 37.288891 ], [ -121.864464, 37.287182 ], [ -121.86808, 37.285461 ], [ -121.87043, 37.2887 ], [ -121.872993, 37.294601 ], [ -121.871292, 37.296711 ], [ -121.872871, 37.298141 ], [ -121.880753, 37.30785 ], [ -121.879601, 37.307911 ], [ -121.878464, 37.308182 ], [ -121.877647, 37.308449 ], [ -121.876892, 37.308861 ], [ -121.863861, 37.317631 ], [ -121.861702, 37.318981 ], [ -121.861351, 37.319401 ], [ -121.861221, 37.319832 ], [ -121.86087, 37.320412 ], [ -121.865891, 37.32563 ], [ -121.865761, 37.325691 ], [ -121.865791, 37.325802 ], [ -121.864792, 37.331661 ], [ -121.863693, 37.336739 ], [ -121.863228, 37.339451 ], [ -121.863251, 37.339668 ], [ -121.863892, 37.340309 ], [ -121.86129, 37.342049 ], [ -121.858582, 37.343761 ], [ -121.85881, 37.34399 ], [ -121.858101, 37.344471 ], [ -121.85923, 37.345699 ] ] ] ] } }
]
}
