{
"type": "FeatureCollection",
"name": "gilroy",
"crs": { "type": "name", "properties": { "name": "urn:ogc:def:crs:OGC:1.3:CRS84" } },
"features": [
{ "type": "Feature", "properties": { }, "geometry": { "type": "MultiLineString", "coordinates": [ [ [ -117.98118, 35.012608 ], [ -117.98877, 35.012608 ], [ -117.98928, 35.012608 ], [ -117.98938, 35.012608 ], [ -117.99347, 35.012608 ], [ -118.00166, 35.012608 ], [ -118.00665, 35.012608 ], [ -118.00986, 35.012608 ], [ -118.01266, 35.012608 ], [ -118.01395, 35.012608 ], [ -118.01805, 35.012608 ], [ -118.02214, 35.012608 ], [ -118.02624, 35.012608 ], [ -118.03034, 35.012608 ], [ -118.03372, 35.012608 ], [ -118.03443, 35.012608 ], [ -118.04262, 35.012608 ], [ -118.04672, 35.012608 ], [ -118.04672, 35.013027 ], [ -118.04672, 35.013724 ], [ -118.04672, 35.0208 ], [ -118.05171, 35.0208 ], [ -118.05491, 35.0208 ], [ -118.0631, 35.0208 ], [ -118.0631, 35.025652 ], [ -118.0631, 35.025956 ], [ -118.0631, 35.028992 ], [ -118.0631, 35.037184 ], [ -118.0631, 35.042073 ], [ -118.0631, 35.045376 ], [ -118.0631, 35.053568 ], [ -118.0631, 35.06176 ], [ -118.0631, 35.069952 ], [ -118.0631, 35.071345 ], [ -118.0631, 35.078144 ], [ -118.0631, 35.086336 ], [ -118.0631, 35.087437 ], [ -118.0631, 35.094528 ], [ -118.06279, 35.094528 ], [ -118.05901, 35.094528 ], [ -118.05901, 35.09641 ], [ -118.05901, 35.10272 ], [ -118.05901, 35.110912 ], [ -118.0631, 35.110912 ], [ -118.06589, 35.110912 ], [ -118.0672, 35.110912 ], [ -118.07539, 35.110912 ], [ -118.08358, 35.110912 ], [ -118.09275, 35.110912 ], [ -118.0937, 35.110912 ], [ -118.09587, 35.110912 ], [ -118.09597, 35.110845 ], [ -118.10816, 35.10272 ], [ -118.11051, 35.10272 ], [ -118.11226, 35.10272 ], [ -118.11635, 35.10272 ], [ -118.12045, 35.10272 ], [ -118.12077, 35.103366 ], [ -118.12454, 35.110912 ], [ -118.12762, 35.110912 ], [ -118.12864, 35.110912 ], [ -118.12892, 35.110912 ], [ -118.13274, 35.110912 ], [ -118.13266, 35.11106 ], [ -118.13229, 35.111803 ], [ -118.13216, 35.112058 ], [ -118.12883, 35.118719 ], [ -118.12864, 35.119104 ], [ -118.12853, 35.119104 ], [ -118.12454, 35.119104 ], [ -118.12454, 35.124162 ], [ -118.12454, 35.124717 ], [ -118.12454, 35.125443 ], [ -118.12454, 35.127296 ], [ -118.12255, 35.127296 ], [ -118.12217, 35.127296 ], [ -118.12088, 35.127296 ], [ -118.12045, 35.127296 ], [ -118.11956, 35.129063 ], [ -118.11953, 35.129137 ], [ -118.11865, 35.130899 ], [ -118.11818, 35.131834 ], [ -118.11728, 35.133626 ], [ -118.11635, 35.135488 ], [ -118.11587, 35.135488 ], [ -118.11531, 35.135488 ], [ -118.11226, 35.135488 ], [ -118.11226, 35.13906 ], [ -118.11226, 35.140209 ], [ -118.11226, 35.140872 ], [ -118.11226, 35.14368 ], [ -118.11014, 35.14368 ], [ -118.10953, 35.14368 ], [ -118.10406, 35.14368 ], [ -118.10406, 35.15069 ], [ -118.10406, 35.151329 ], [ -118.10406, 35.151872 ], [ -118.10363, 35.151872 ], [ -118.10313, 35.151872 ], [ -118.09997, 35.151872 ], [ -118.09997, 35.154145 ], [ -118.09997, 35.154614 ], [ -118.09997, 35.15582 ], [ -118.09997, 35.156384 ], [ -118.09997, 35.160064 ], [ -118.09698, 35.160064 ], [ -118.0963, 35.160064 ], [ -118.09591, 35.160064 ], [ -118.09587, 35.160064 ], [ -118.09178, 35.160064 ], [ -118.09178, 35.165384 ], [ -118.09178, 35.165868 ], [ -118.09178, 35.16679 ], [ -118.09178, 35.168256 ], [ -118.08881, 35.171219 ], [ -118.0869, 35.17313 ], [ -118.08358, 35.176448 ], [ -118.07949, 35.176448 ], [ -118.07539, 35.176448 ], [ -118.0631, 35.176448 ], [ -118.05901, 35.176448 ], [ -118.05491, 35.176448 ], [ -118.05244, 35.176448 ], [ -118.05198, 35.176448 ], [ -118.05082, 35.176448 ], [ -118.04262, 35.176448 ], [ -118.03908, 35.176448 ], [ -118.03853, 35.176448 ], [ -118.03443, 35.176448 ], [ -118.03034, 35.176448 ], [ -118.02214, 35.176448 ], [ -118.02121, 35.176448 ], [ -118.01805, 35.176448 ], [ -118.01395, 35.176448 ], [ -118.00576, 35.176448 ], [ -118.00166, 35.176448 ], [ -117.99757, 35.176448 ], [ -117.98938, 35.176448 ], [ -117.98579, 35.176448 ], [ -117.98528, 35.176448 ], [ -117.98118, 35.176448 ], [ -117.97709, 35.176448 ], [ -117.97686, 35.176448 ], [ -117.9689, 35.176448 ], [ -117.9648, 35.176448 ], [ -117.95661, 35.176448 ], [ -117.95251, 35.176448 ], [ -117.95251, 35.169616 ], [ -117.95251, 35.168256 ], [ -117.95028, 35.168256 ], [ -117.94842, 35.168256 ], [ -117.94432, 35.168256 ], [ -117.94382, 35.168256 ], [ -117.94022, 35.168256 ], [ -117.93613, 35.168256 ], [ -117.93203, 35.168256 ], [ -117.92794, 35.168256 ], [ -117.92384, 35.168256 ], [ -117.91974, 35.168256 ], [ -117.91565, 35.168256 ], [ -117.91501, 35.168256 ], [ -117.91267, 35.168256 ], [ -117.90746, 35.168256 ], [ -117.90622, 35.168256 ], [ -117.89926, 35.168256 ], [ -117.89926, 35.169657 ], [ -117.89926, 35.176448 ], [ -117.89745, 35.176448 ], [ -117.89517, 35.176448 ], [ -117.89107, 35.176448 ], [ -117.88864, 35.176448 ], [ -117.88698, 35.176448 ], [ -117.88442, 35.176448 ], [ -117.88419, 35.176448 ], [ -117.88288, 35.176448 ], [ -117.88288, 35.17797 ], [ -117.88288, 35.178948 ], [ -117.88288, 35.184529 ], [ -117.88288, 35.18464 ], [ -117.88288, 35.192832 ], [ -117.87986, 35.192832 ], [ -117.87878, 35.192832 ], [ -117.87469, 35.192832 ], [ -117.87059, 35.192832 ], [ -117.86878, 35.192832 ], [ -117.8665, 35.192832 ], [ -117.86476, 35.196309 ], [ -117.86329, 35.199249 ], [ -117.86247, 35.200883 ], [ -117.8624, 35.201024 ], [ -117.86245, 35.201127 ], [ -117.8665, 35.209216 ], [ -117.86238, 35.209216 ], [ -117.85011, 35.209216 ], [ -117.84602, 35.209216 ], [ -117.84602, 35.213853 ], [ -117.84602, 35.217408 ], [ -117.84602, 35.2256 ], [ -117.84602, 35.233792 ], [ -117.84602, 35.241984 ], [ -117.84471, 35.241984 ], [ -117.84307, 35.241984 ], [ -117.83782, 35.241984 ], [ -117.83373, 35.241984 ], [ -117.82963, 35.241984 ], [ -117.79686, 35.241984 ], [ -117.79277, 35.241984 ], [ -117.79153, 35.241984 ], [ -117.78867, 35.241984 ], [ -117.78458, 35.241984 ], [ -117.78252, 35.241984 ], [ -117.78229, 35.241984 ], [ -117.78048, 35.241984 ], [ -117.77787, 35.241984 ], [ -117.77638, 35.241984 ], [ -117.77638, 35.244404 ], [ -117.77638, 35.245464 ], [ -117.77638, 35.250176 ], [ -117.77358, 35.250176 ], [ -117.77229, 35.250176 ], [ -117.7686, 35.250176 ], [ -117.7641, 35.250176 ], [ -117.76, 35.250176 ], [ -117.7559, 35.250176 ], [ -117.7559, 35.257819 ], [ -117.7559, 35.258368 ], [ -117.75499, 35.258368 ], [ -117.74771, 35.258368 ], [ -117.73952, 35.26656 ], [ -117.73542, 35.26656 ], [ -117.73432, 35.26656 ], [ -117.73133, 35.26656 ], [ -117.72723, 35.26656 ], [ -117.72314, 35.26656 ], [ -117.71904, 35.26656 ], [ -117.71061, 35.26656 ], [ -117.70675, 35.26656 ], [ -117.70503, 35.26656 ], [ -117.69978, 35.26656 ], [ -117.69446, 35.26656 ], [ -117.69446, 35.269548 ], [ -117.69446, 35.271404 ], [ -117.69446, 35.272832 ], [ -117.69446, 35.273336 ], [ -117.69446, 35.274752 ], [ -117.69402, 35.274752 ], [ -117.69037, 35.274752 ], [ -117.69037, 35.273385 ], [ -117.69037, 35.270767 ], [ -117.69037, 35.267265 ], [ -117.69037, 35.26656 ], [ -117.69007, 35.267148 ], [ -117.68849, 35.270323 ], [ -117.68814, 35.271024 ], [ -117.68694, 35.273426 ], [ -117.68627, 35.274752 ], [ -117.68627, 35.273424 ], [ -117.68627, 35.26978 ], [ -117.68627, 35.26656 ], [ -117.68305, 35.26656 ], [ -117.67632, 35.26656 ], [ -117.66947, 35.26656 ], [ -117.66579, 35.26656 ], [ -117.6617, 35.26656 ], [ -117.6617, 35.270832 ], [ -117.6617, 35.27366 ], [ -117.6617, 35.274752 ], [ -117.65825, 35.274752 ], [ -117.6576, 35.274752 ], [ -117.6576, 35.273706 ], [ -117.6576, 35.271933 ], [ -117.6576, 35.26821 ], [ -117.6576, 35.26656 ], [ -117.6535, 35.26656 ], [ -117.64941, 35.26656 ], [ -117.64531, 35.26656 ], [ -117.64122, 35.26656 ], [ -117.63826, 35.26656 ], [ -117.63712, 35.26656 ], [ -117.63302, 35.26656 ], [ -117.63302, 35.258368 ], [ -117.63302, 35.248988 ], [ -117.63302, 35.246759 ], [ -117.63302, 35.241984 ], [ -117.63302, 35.222788 ], [ -117.63302, 35.217408 ], [ -117.63302, 35.217354 ], [ -117.63302, 35.209216 ], [ -117.63302, 35.201024 ], [ -117.63302, 35.18464 ], [ -117.63302, 35.177893 ], [ -117.63302, 35.176448 ], [ -117.63302, 35.174662 ], [ -117.63302, 35.170635 ], [ -117.63302, 35.168256 ], [ -117.63302, 35.16308 ], [ -117.63302, 35.160064 ], [ -117.63302, 35.156003 ], [ -117.63302, 35.151872 ], [ -117.63712, 35.151872 ], [ -117.64941, 35.151872 ], [ -117.6535, 35.151872 ], [ -117.66579, 35.151872 ], [ -117.66989, 35.151872 ], [ -117.67398, 35.151872 ], [ -117.67808, 35.151872 ], [ -117.68218, 35.151872 ], [ -117.68495, 35.151872 ], [ -117.68627, 35.151872 ], [ -117.68627, 35.14368 ], [ -117.68627, 35.142124 ], [ -117.68627, 35.135488 ], [ -117.69037, 35.135488 ], [ -117.69446, 35.135488 ], [ -117.69856, 35.135488 ], [ -117.70266, 35.135488 ], [ -117.70675, 35.135488 ], [ -117.71085, 35.135488 ], [ -117.71494, 35.135488 ], [ -117.71904, 35.135488 ], [ -117.72314, 35.135488 ], [ -117.72314, 35.151872 ], [ -117.71982, 35.151872 ], [ -117.71904, 35.151872 ], [ -117.71085, 35.151872 ], [ -117.70675, 35.151872 ], [ -117.70567, 35.156183 ], [ -117.70266, 35.168256 ], [ -117.71494, 35.168256 ], [ -117.73795, 35.168256 ], [ -117.73952, 35.168256 ], [ -117.73952, 35.163122 ], [ -117.73952, 35.160064 ], [ -117.73952, 35.155819 ], [ -117.73952, 35.151872 ], [ -117.73952, 35.141169 ], [ -117.73952, 35.135488 ], [ -117.74362, 35.135488 ], [ -117.74771, 35.135488 ], [ -117.75181, 35.135488 ], [ -117.7557, 35.135488 ], [ -117.7559, 35.135488 ], [ -117.7559, 35.126553 ], [ -117.7559, 35.124069 ], [ -117.7559, 35.119104 ], [ -117.76, 35.119104 ], [ -117.7641, 35.119104 ], [ -117.76819, 35.119104 ], [ -117.77638, 35.119104 ], [ -117.77638, 35.127296 ], [ -117.78048, 35.127296 ], [ -117.78458, 35.127296 ], [ -117.78867, 35.127296 ], [ -117.79045, 35.127296 ], [ -117.79277, 35.127296 ], [ -117.79277, 35.133681 ], [ -117.79277, 35.135488 ], [ -117.79277, 35.14368 ], [ -117.79277, 35.151872 ], [ -117.79686, 35.151872 ], [ -117.80096, 35.151872 ], [ -117.8084, 35.151872 ], [ -117.80915, 35.151872 ], [ -117.80915, 35.151389 ], [ -117.80915, 35.143947 ], [ -117.80915, 35.14368 ], [ -117.80915, 35.140883 ], [ -117.80915, 35.135488 ], [ -117.81734, 35.135488 ], [ -117.82144, 35.135488 ], [ -117.82554, 35.135488 ], [ -117.82584, 35.135488 ], [ -117.8273, 35.135488 ], [ -117.82824, 35.135488 ], [ -117.82963, 35.135488 ], [ -117.82963, 35.134682 ], [ -117.82963, 35.133257 ], [ -117.82963, 35.130229 ], [ -117.82963, 35.127296 ], [ -117.82963, 35.126387 ], [ -117.82963, 35.119104 ], [ -117.83373, 35.119104 ], [ -117.83782, 35.119104 ], [ -117.84192, 35.119104 ], [ -117.84391, 35.119104 ], [ -117.84602, 35.119104 ], [ -117.84602, 35.123716 ], [ -117.84602, 35.127296 ], [ -117.84602, 35.135488 ], [ -117.85011, 35.135488 ], [ -117.85421, 35.135488 ], [ -117.8583, 35.135488 ], [ -117.86191, 35.135488 ], [ -117.8624, 35.135488 ], [ -117.87059, 35.135488 ], [ -117.87469, 35.135488 ], [ -117.87878, 35.135488 ], [ -117.87969, 35.135488 ], [ -117.88288, 35.135488 ], [ -117.88698, 35.135488 ], [ -117.89107, 35.135488 ], [ -117.89517, 35.135488 ], [ -117.89714, 35.135488 ], [ -117.89926, 35.135488 ], [ -117.90162, 35.135488 ], [ -117.90336, 35.135488 ], [ -117.90746, 35.135488 ], [ -117.91155, 35.135488 ], [ -117.91465, 35.135488 ], [ -117.91565, 35.135488 ], [ -117.91565, 35.127296 ], [ -117.91565, 35.126252 ], [ -117.91565, 35.119104 ], [ -117.91565, 35.111509 ], [ -117.91565, 35.110912 ], [ -117.92319, 35.110912 ], [ -117.92384, 35.110912 ], [ -117.92794, 35.110912 ], [ -117.92869, 35.110912 ], [ -117.93188, 35.110912 ], [ -117.93203, 35.110912 ], [ -117.93203, 35.109471 ], [ -117.93203, 35.105909 ], [ -117.93203, 35.103066 ], [ -117.93203, 35.10272 ], [ -117.93203, 35.102118 ], [ -117.93203, 35.098765 ], [ -117.93203, 35.097914 ], [ -117.93203, 35.096883 ], [ -117.93203, 35.094528 ], [ -117.93525, 35.094528 ], [ -117.93613, 35.094528 ], [ -117.93613, 35.087619 ], [ -117.93613, 35.086336 ], [ -117.94022, 35.086336 ], [ -117.94432, 35.086336 ], [ -117.94842, 35.086336 ], [ -117.95319, 35.086336 ], [ -117.95661, 35.086336 ], [ -117.95661, 35.085083 ], [ -117.95661, 35.082649 ], [ -117.95661, 35.080239 ], [ -117.95661, 35.078144 ], [ -117.95661, 35.07301 ], [ -117.95661, 35.069952 ], [ -117.95304, 35.069952 ], [ -117.95251, 35.069952 ], [ -117.94862, 35.069952 ], [ -117.94432, 35.069952 ], [ -117.94418, 35.069952 ], [ -117.94022, 35.069952 ], [ -117.93973, 35.069952 ], [ -117.93613, 35.069952 ], [ -117.93613, 35.069115 ], [ -117.93613, 35.067281 ], [ -117.93613, 35.065437 ], [ -117.93613, 35.063611 ], [ -117.93613, 35.061781 ], [ -117.93613, 35.06176 ], [ -117.93613, 35.059941 ], [ -117.93613, 35.058114 ], [ -117.93613, 35.053568 ], [ -117.94022, 35.053568 ], [ -117.94432, 35.053568 ], [ -117.95251, 35.053568 ], [ -117.95278, 35.053568 ], [ -117.95661, 35.053568 ], [ -117.95661, 35.045376 ], [ -117.95661, 35.043401 ], [ -117.95661, 35.037184 ], [ -117.962, 35.037184 ], [ -117.9648, 35.037184 ], [ -117.9663, 35.037184 ], [ -117.9689, 35.037184 ], [ -117.97058, 35.037184 ], [ -117.97299, 35.037184 ], [ -117.97299, 35.028992 ], [ -117.97299, 35.021299 ], [ -117.97299, 35.0208 ], [ -117.97056, 35.0208 ], [ -117.9648, 35.0208 ], [ -117.9607, 35.0208 ], [ -117.95661, 35.0208 ], [ -117.95251, 35.0208 ], [ -117.95251, 35.014844 ], [ -117.95251, 35.014482 ], [ -117.95251, 35.014415 ], [ -117.95251, 35.012608 ], [ -117.9648, 35.012608 ], [ -117.9689, 35.012608 ], [ -117.97004, 35.012608 ], [ -117.97057, 35.012608 ], [ -117.97299, 35.012608 ], [ -117.97709, 35.012608 ], [ -117.98118, 35.012608 ] ] ] } }
]
}
