
{"type":"FeatureCollection", "features": [
{"type": "Feature", "geometry":
  {"type":"MultiPolygon","coordinates":[[[[-122.26024,37.534598],[-122.25994,37.534603],[-122.25995,37.534767],[-122.25997,37.534953],[-122.25998,37.535138],[-122.25999,37.535324],[-122.26,37.53551],[-122.26001,37.535695],[-122.26003,37.535881],[-122.26004,37.536067],[-122.26015,37.537079],[-122.26,37.539074],[-122.2595,37.539956],[-122.25884,37.540473],[-122.25811,37.540838],[-122.25778,37.540893],[-122.25713,37.541001],[-122.25634,37.540963],[-122.25558,37.540927],[-122.25527,37.54082],[-122.25496,37.540713],[-122.25465,37.540605],[-122.25434,37.540497],[-122.25425,37.540463],[-122.25403,37.540388],[-122.25372,37.540279],[-122.25342,37.54017],[-122.25311,37.54006],[-122.2528,37.539949],[-122.25186,37.539844],[-122.25129,37.540098],[-122.25126,37.540112],[-122.25128,37.540223],[-122.25087,37.540307],[-122.25021,37.541047],[-122.25023,37.541736],[-122.25044,37.54207],[-122.25136,37.543372],[-122.2514,37.54341],[-122.25143,37.543448],[-122.25147,37.543487],[-122.2515,37.543526],[-122.25153,37.543565],[-122.25156,37.543604],[-122.2516,37.543644],[-122.25163,37.543684],[-122.25166,37.543724],[-122.25169,37.543764],[-122.25172,37.543805],[-122.25175,37.543846],[-122.25178,37.543887],[-122.25181,37.543928],[-122.25183,37.54397],[-122.25186,37.544012],[-122.25189,37.544054],[-122.25191,37.544097],[-122.25194,37.544139],[-122.25196,37.544182],[-122.25199,37.544225],[-122.25201,37.544268],[-122.25204,37.544312],[-122.25206,37.544355],[-122.25208,37.544399],[-122.2521,37.544443],[-122.25212,37.544487],[-122.25214,37.544532],[-122.25216,37.544576],[-122.25218,37.544621],[-122.2522,37.544666],[-122.25222,37.544711],[-122.25223,37.544756],[-122.25225,37.544786],[-122.25225,37.544801],[-122.25227,37.544847],[-122.25228,37.544892],[-122.2523,37.544938],[-122.25231,37.544984],[-122.25232,37.54503],[-122.25234,37.545076],[-122.25235,37.545122],[-122.25236,37.545168],[-122.25237,37.545215],[-122.25238,37.545261],[-122.25239,37.545307],[-122.2524,37.545352],[-122.25241,37.545397],[-122.25241,37.545443],[-122.25242,37.545488],[-122.25243,37.545534],[-122.25243,37.54558],[-122.25244,37.545625],[-122.25244,37.545671],[-122.25245,37.545717],[-122.25245,37.545763],[-122.25245,37.545808],[-122.25246,37.545854],[-122.25246,37.5459],[-122.25246,37.545946],[-122.25246,37.545992],[-122.25246,37.546038],[-122.25246,37.546084],[-122.25246,37.546131],[-122.25245,37.546178],[-122.25245,37.546225],[-122.25245,37.546272],[-122.25244,37.546319],[-122.25244,37.546366],[-122.25243,37.546413],[-122.25243,37.54646],[-122.25242,37.546507],[-122.25241,37.546554],[-122.2524,37.546601],[-122.2524,37.546648],[-122.25239,37.546694],[-122.25238,37.546741],[-122.25237,37.546787],[-122.25235,37.546834],[-122.25234,37.54688],[-122.25233,37.546926],[-122.25232,37.546972],[-122.2523,37.547018],[-122.25229,37.547064],[-122.25227,37.54711],[-122.25226,37.547155],[-122.25224,37.547201],[-122.25223,37.547246],[-122.25221,37.547291],[-122.25219,37.547336],[-122.25217,37.547381],[-122.25215,37.547426],[-122.25213,37.54747],[-122.25211,37.547514],[-122.25209,37.547559],[-122.25207,37.547603],[-122.25205,37.547646],[-122.25203,37.54769],[-122.252,37.547733],[-122.25198,37.547777],[-122.25195,37.54782],[-122.25193,37.547862],[-122.2519,37.547905],[-122.25188,37.547947],[-122.25185,37.54799],[-122.25182,37.548031],[-122.2518,37.548073],[-122.25177,37.548115],[-122.25174,37.548156],[-122.25171,37.548197],[-122.25168,37.548237],[-122.25165,37.548278],[-122.25162,37.548318],[-122.25159,37.548358],[-122.25155,37.548397],[-122.25152,37.548437],[-122.25149,37.548476],[-122.25145,37.548515],[-122.25142,37.548553],[-122.25138,37.548591],[-122.24991,37.549664],[-122.2446,37.553541],[-122.2446,37.55358],[-122.24461,37.55384],[-122.24557,37.554916],[-122.24548,37.555091],[-122.24531,37.555459],[-122.24528,37.555535],[-122.24526,37.555609],[-122.24523,37.555684],[-122.24521,37.555758],[-122.24519,37.555833],[-122.24517,37.555908],[-122.24515,37.555984],[-122.24514,37.55606],[-122.24513,37.556136],[-122.24511,37.556212],[-122.2451,37.556288],[-122.24509,37.556365],[-122.24508,37.556441],[-122.24508,37.556518],[-122.24508,37.556594],[-122.24507,37.556671],[-122.24507,37.556748],[-122.24507,37.556825],[-122.24507,37.556902],[-122.24508,37.556979],[-122.24509,37.557055],[-122.24509,37.557132],[-122.2451,37.557208],[-122.24511,37.557284],[-122.24513,37.557361],[-122.24514,37.557437],[-122.24514,37.55745],[-122.24514,37.557456],[-122.24515,37.557462],[-122.24515,37.557469],[-122.24515,37.557475],[-122.24515,37.557482],[-122.24515,37.557488],[-122.24516,37.557495],[-122.24516,37.557501],[-122.24516,37.557507],[-122.24517,37.557513],[-122.24517,37.557519],[-122.24517,37.557526],[-122.24518,37.557531],[-122.24518,37.557538],[-122.24518,37.557544],[-122.24519,37.557549],[-122.24519,37.557555],[-122.24519,37.557561],[-122.2452,37.557567],[-122.2452,37.557573],[-122.24521,37.557578],[-122.24521,37.557584],[-122.24522,37.55759],[-122.24522,37.557595],[-122.24523,37.5576],[-122.24523,37.557605],[-122.24524,37.557611],[-122.24524,37.557616],[-122.24525,37.557621],[-122.24525,37.557626],[-122.24526,37.557631],[-122.24526,37.557636],[-122.24527,37.557641],[-122.24527,37.557646],[-122.24528,37.55765],[-122.24528,37.557655],[-122.24529,37.557659],[-122.2453,37.557663],[-122.2453,37.557668],[-122.24531,37.557672],[-122.24532,37.557676],[-122.24532,37.55768],[-122.24533,37.557684],[-122.24534,37.557688],[-122.24534,37.557692],[-122.24535,37.557695],[-122.24536,37.557699],[-122.24537,37.557703],[-122.24537,37.557706],[-122.24538,37.557709],[-122.24539,37.557712],[-122.24542,37.557727],[-122.24545,37.557741],[-122.24548,37.557755],[-122.24551,37.55777],[-122.24554,37.557785],[-122.24557,37.5578],[-122.2456,37.557816],[-122.24563,37.557832],[-122.24565,37.557848],[-122.24568,37.557866],[-122.24571,37.557883],[-122.24574,37.557901],[-122.24576,37.557919],[-122.24579,37.557937],[-122.24582,37.557956],[-122.24584,37.557975],[-122.24587,37.557995],[-122.24589,37.558015],[-122.24591,37.558035],[-122.24594,37.558056],[-122.24596,37.558077],[-122.24598,37.558098],[-122.24601,37.558119],[-122.24603,37.558141],[-122.24605,37.558163],[-122.24607,37.558186],[-122.24609,37.558208],[-122.24611,37.558231],[-122.24613,37.558255],[-122.24615,37.558278],[-122.24617,37.558302],[-122.24618,37.558326],[-122.2462,37.55835],[-122.24622,37.558375],[-122.24623,37.5584],[-122.24625,37.558424],[-122.24626,37.55845],[-122.24628,37.558475],[-122.24629,37.558501],[-122.24631,37.558527],[-122.24632,37.558552],[-122.24635,37.558618],[-122.24638,37.558671],[-122.24641,37.558723],[-122.24644,37.558776],[-122.24647,37.558827],[-122.2465,37.558879],[-122.24654,37.55893],[-122.24657,37.55898],[-122.24661,37.55903],[-122.24664,37.559079],[-122.24668,37.559128],[-122.24672,37.559177],[-122.24676,37.559225],[-122.2468,37.559265],[-122.2468,37.559272],[-122.24684,37.559319],[-122.24689,37.559365],[-122.24689,37.559373],[-122.24693,37.55941],[-122.24698,37.559455],[-122.24702,37.559499],[-122.24707,37.559543],[-122.24712,37.559586],[-122.24712,37.559592],[-122.24713,37.5596],[-122.24714,37.559609],[-122.24715,37.559617],[-122.24716,37.559626],[-122.24716,37.559635],[-122.24717,37.559644],[-122.24717,37.559653],[-122.24718,37.559663],[-122.24719,37.559672],[-122.24719,37.559682],[-122.24719,37.559692],[-122.2472,37.559702],[-122.2472,37.559712],[-122.2472,37.559722],[-122.24721,37.559732],[-122.24721,37.559743],[-122.24721,37.559753],[-122.24721,37.559764],[-122.24721,37.559774],[-122.24721,37.559784],[-122.24721,37.559795],[-122.24721,37.559805],[-122.24721,37.559816],[-122.24721,37.559841],[-122.24721,37.559856],[-122.24721,37.559871],[-122.24721,37.559887],[-122.24721,37.559902],[-122.24721,37.559917],[-122.24721,37.559932],[-122.24721,37.559947],[-122.24721,37.559962],[-122.24721,37.559977],[-122.24721,37.559993],[-122.24721,37.560008],[-122.24722,37.560023],[-122.24722,37.560038],[-122.24722,37.560053],[-122.24723,37.560068],[-122.24723,37.560083],[-122.24724,37.560098],[-122.24724,37.560112],[-122.24724,37.560127],[-122.24725,37.560142],[-122.24725,37.560156],[-122.24726,37.560171],[-122.24734,37.56035],[-122.24739,37.560471],[-122.24745,37.56059],[-122.24751,37.56071],[-122.24758,37.560827],[-122.24764,37.560945],[-122.24771,37.561061],[-122.24778,37.561177],[-122.24786,37.561291],[-122.24793,37.561404],[-122.24801,37.561517],[-122.24809,37.561628],[-122.24817,37.561738],[-122.24826,37.561847],[-122.24835,37.561954],[-122.24844,37.562061],[-122.24845,37.56207],[-122.24845,37.562076],[-122.24846,37.562081],[-122.24846,37.562086],[-122.24846,37.562091],[-122.24846,37.562097],[-122.24847,37.562102],[-122.24847,37.562108],[-122.24848,37.562113],[-122.24848,37.562118],[-122.24848,37.562124],[-122.24849,37.56213],[-122.24849,37.562135],[-122.24849,37.562141],[-122.24849,37.562147],[-122.2485,37.562152],[-122.2485,37.562158],[-122.2485,37.562164],[-122.2485,37.56217],[-122.2485,37.562176],[-122.2485,37.562182],[-122.24851,37.562188],[-122.24851,37.562194],[-122.24851,37.5622],[-122.24851,37.562206],[-122.24851,37.562212],[-122.24851,37.562218],[-122.24851,37.562224],[-122.24851,37.56223],[-122.24851,37.562236],[-122.24851,37.562242],[-122.24851,37.562248],[-122.24852,37.562254],[-122.24852,37.56226],[-122.24852,37.562267],[-122.24852,37.562273],[-122.24852,37.562279],[-122.24851,37.562285],[-122.24851,37.562291],[-122.24851,37.562325],[-122.24851,37.562347],[-122.24851,37.562369],[-122.24851,37.562391],[-122.24851,37.562413],[-122.24851,37.562435],[-122.24851,37.562457],[-122.24851,37.562478],[-122.24851,37.5625],[-122.24851,37.562522],[-122.24852,37.562544],[-122.24852,37.562566],[-122.24852,37.562587],[-122.24853,37.562609],[-122.24853,37.56263],[-122.24854,37.562652],[-122.24854,37.562673],[-122.24878,37.563554],[-122.2488,37.563588],[-122.24881,37.563613],[-122.24881,37.563639],[-122.24882,37.563665],[-122.24883,37.563691],[-122.24884,37.563717],[-122.24884,37.563744],[-122.24885,37.56377],[-122.24886,37.563796],[-122.24886,37.563823],[-122.24886,37.563849],[-122.24887,37.563876],[-122.24887,37.563903],[-122.24887,37.563929],[-122.24887,37.563956],[-122.24888,37.563983],[-122.24888,37.56401],[-122.24888,37.564036],[-122.24888,37.564063],[-122.24888,37.56409],[-122.24887,37.564106],[-122.24887,37.564116],[-122.24887,37.564123],[-122.24887,37.564129],[-122.24887,37.564136],[-122.24888,37.564142],[-122.24888,37.564148],[-122.24888,37.564154],[-122.24889,37.56416],[-122.24889,37.564166],[-122.24889,37.564171],[-122.2489,37.564177],[-122.2489,37.564182],[-122.24891,37.564187],[-122.24891,37.564191],[-122.24892,37.564195],[-122.24892,37.564199],[-122.24893,37.564202],[-122.24894,37.564205],[-122.24895,37.564208],[-122.24899,37.564222],[-122.24904,37.564235],[-122.24908,37.564247],[-122.24913,37.564258],[-122.24917,37.564269],[-122.24922,37.564279],[-122.24926,37.564289],[-122.2493,37.564298],[-122.24935,37.564306],[-122.2494,37.564314],[-122.24944,37.564321],[-122.24949,37.564327],[-122.24953,37.564333],[-122.24958,37.564338],[-122.24962,37.564343],[-122.24967,37.564347],[-122.24972,37.56435],[-122.24973,37.564352],[-122.24974,37.564353],[-122.24975,37.564355],[-122.24976,37.564358],[-122.24976,37.564361],[-122.24977,37.564364],[-122.24978,37.564368],[-122.24979,37.564372],[-122.24979,37.564377],[-122.2498,37.564381],[-122.2498,37.564387],[-122.24981,37.564392],[-122.24981,37.564398],[-122.24982,37.564404],[-122.24982,37.56441],[-122.24982,37.564417],[-122.24983,37.564424],[-122.24983,37.56443],[-122.24983,37.564437],[-122.24983,37.564444],[-122.24983,37.564451],[-122.24983,37.564458],[-122.24983,37.564464],[-122.24983,37.564471],[-122.24983,37.564478],[-122.24982,37.564484],[-122.24982,37.564491],[-122.24982,37.564497],[-122.24981,37.564502],[-122.24981,37.56451],[-122.2498,37.564517],[-122.2498,37.564523],[-122.24979,37.56453],[-122.24979,37.564537],[-122.24979,37.564545],[-122.24979,37.564552],[-122.24978,37.564559],[-122.24978,37.564567],[-122.24978,37.564574],[-122.24978,37.564582],[-122.24978,37.564589],[-122.24978,37.564597],[-122.24978,37.564604],[-122.24979,37.564611],[-122.24979,37.564619],[-122.24979,37.564626],[-122.2498,37.564633],[-122.2498,37.56464],[-122.2498,37.564646],[-122.24986,37.564743],[-122.24989,37.564796],[-122.24992,37.56485],[-122.24993,37.564857],[-122.24993,37.564862],[-122.24994,37.564867],[-122.24994,37.564872],[-122.24995,37.564877],[-122.24996,37.564881],[-122.24996,37.564886],[-122.24997,37.564891],[-122.24997,37.564895],[-122.24998,37.5649],[-122.24998,37.564904],[-122.24999,37.564908],[-122.24999,37.564912],[-122.25,37.564916],[-122.25001,37.56492],[-122.25001,37.564924],[-122.25002,37.564928],[-122.25003,37.564932],[-122.25003,37.564935],[-122.25004,37.564939],[-122.25005,37.564942],[-122.25005,37.564946],[-122.25006,37.564949],[-122.25007,37.564952],[-122.25007,37.564955],[-122.25008,37.564958],[-122.25009,37.564961],[-122.25009,37.564964],[-122.2501,37.564966],[-122.25011,37.56497],[-122.25012,37.564973],[-122.25012,37.564977],[-122.25013,37.564981],[-122.25014,37.564986],[-122.25015,37.56499],[-122.25015,37.564995],[-122.25016,37.565],[-122.25017,37.565005],[-122.25017,37.56501],[-122.25018,37.565015],[-122.25019,37.565021],[-122.25019,37.565027],[-122.2502,37.565033],[-122.2502,37.565039],[-122.25021,37.565045],[-122.25021,37.565051],[-122.25021,37.565058],[-122.25022,37.565065],[-122.25056,37.565654],[-122.25091,37.566242],[-122.2509,37.566249],[-122.2509,37.56626],[-122.25091,37.566266],[-122.25091,37.566277],[-122.25091,37.566283],[-122.25091,37.566289],[-122.25091,37.566295],[-122.25091,37.5663],[-122.25091,37.566306],[-122.25092,37.566311],[-122.25092,37.566316],[-122.25092,37.566327],[-122.25093,37.566332],[-122.25093,37.566337],[-122.25094,37.566342],[-122.25094,37.566347],[-122.25095,37.566351],[-122.25095,37.566358],[-122.25096,37.566361],[-122.25097,37.566368],[-122.25097,37.56637],[-122.25098,37.566372],[-122.251,37.566376],[-122.251,37.566379],[-122.25101,37.566383],[-122.25102,37.566386],[-122.25102,37.566391],[-122.25103,37.566395],[-122.25104,37.5664],[-122.25104,37.566406],[-122.25113,37.566495],[-122.25123,37.566584],[-122.25123,37.566593],[-122.25123,37.566598],[-122.25123,37.566604],[-122.25124,37.566609],[-122.25124,37.56662],[-122.25124,37.566626],[-122.25124,37.566632],[-122.25124,37.566639],[-122.25124,37.566646],[-122.25124,37.566652],[-122.25124,37.566658],[-122.25124,37.566665],[-122.25125,37.566671],[-122.25125,37.566677],[-122.25125,37.566683],[-122.25125,37.566689],[-122.25126,37.566695],[-122.25126,37.566701],[-122.25126,37.566707],[-122.25127,37.566713],[-122.25127,37.566718],[-122.25128,37.566724],[-122.25128,37.566729],[-122.25128,37.566734],[-122.25129,37.566739],[-122.25129,37.566745],[-122.2513,37.566749],[-122.2513,37.566754],[-122.25131,37.566759],[-122.25132,37.566763],[-122.25132,37.566767],[-122.25133,37.566771],[-122.25134,37.566775],[-122.25134,37.566779],[-122.25135,37.566782],[-122.25136,37.566788],[-122.25137,37.566794],[-122.25138,37.566799],[-122.25139,37.566804],[-122.25139,37.56681],[-122.2514,37.566816],[-122.25141,37.566822],[-122.25142,37.566829],[-122.25142,37.566835],[-122.25143,37.566842],[-122.25144,37.566849],[-122.25144,37.566856],[-122.25145,37.566863],[-122.25145,37.566871],[-122.25146,37.566878],[-122.25155,37.567024],[-122.25164,37.56717],[-122.25165,37.567185],[-122.25165,37.567195],[-122.25165,37.567206],[-122.25166,37.567217],[-122.25166,37.567228],[-122.25167,37.567239],[-122.25167,37.567249],[-122.25167,37.56726],[-122.25168,37.567272],[-122.25168,37.567283],[-122.25168,37.567294],[-122.25168,37.567305],[-122.25168,37.567316],[-122.25168,37.567327],[-122.25169,37.567339],[-122.25169,37.56735],[-122.25169,37.567364],[-122.25169,37.567372],[-122.25169,37.56738],[-122.25169,37.567388],[-122.25169,37.567395],[-122.25169,37.567403],[-122.2517,37.567411],[-122.2517,37.567419],[-122.2517,37.567427],[-122.2517,37.567434],[-122.25171,37.567442],[-122.25171,37.567449],[-122.25171,37.567457],[-122.25171,37.567464],[-122.25172,37.567472],[-122.25172,37.567479],[-122.25172,37.567487],[-122.25173,37.567494],[-122.25173,37.567501],[-122.25173,37.567508],[-122.25174,37.567516],[-122.25174,37.567522],[-122.25175,37.56753],[-122.25175,37.567537],[-122.25176,37.567543],[-122.25176,37.56755],[-122.25177,37.567557],[-122.25177,37.567564],[-122.25178,37.56757],[-122.25178,37.567577],[-122.25179,37.567584],[-122.25179,37.56759],[-122.2518,37.567596],[-122.25181,37.567602],[-122.25181,37.567609],[-122.25182,37.567615],[-122.25182,37.56762],[-122.25183,37.567627],[-122.25184,37.567632],[-122.25184,37.567638],[-122.25185,37.567643],[-122.25186,37.567649],[-122.25186,37.567654],[-122.25187,37.56766],[-122.25188,37.567665],[-122.25189,37.56767],[-122.25189,37.567671],[-122.2519,37.567675],[-122.2519,37.56768],[-122.25191,37.567685],[-122.25192,37.567689],[-122.25193,37.567694],[-122.25194,37.567698],[-122.25194,37.567703],[-122.25195,37.567707],[-122.25196,37.567711],[-122.25197,37.567715],[-122.25198,37.567719],[-122.25199,37.567723],[-122.25199,37.567726],[-122.252,37.56773],[-122.25201,37.567733],[-122.25202,37.567736],[-122.25203,37.56774],[-122.25204,37.567743],[-122.25205,37.567745],[-122.25206,37.567748],[-122.25207,37.567751],[-122.25208,37.567753],[-122.25209,37.567756],[-122.2521,37.567758],[-122.25211,37.56776],[-122.25212,37.567762],[-122.25213,37.567764],[-122.25213,37.567765],[-122.25214,37.567767],[-122.25216,37.567768],[-122.25216,37.56777],[-122.25217,37.567771],[-122.25218,37.567772],[-122.25219,37.567773],[-122.2522,37.567773],[-122.25221,37.567774],[-122.25222,37.567774],[-122.25223,37.567775],[-122.25224,37.567775],[-122.25225,37.567775],[-122.25227,37.567775],[-122.25228,37.567775],[-122.25228,37.567776],[-122.25229,37.567776],[-122.2523,37.567777],[-122.25231,37.567778],[-122.25231,37.567779],[-122.25232,37.56778],[-122.25233,37.567782],[-122.25233,37.567784],[-122.25234,37.567786],[-122.25235,37.56779],[-122.25236,37.567793],[-122.25237,37.567798],[-122.25238,37.567804],[-122.2524,37.567811],[-122.2524,37.567815],[-122.25241,37.567819],[-122.25241,37.567822],[-122.25242,37.567827],[-122.25243,37.567835],[-122.25243,37.56784],[-122.25243,37.567844],[-122.25244,37.567849],[-122.25244,37.567854],[-122.25244,37.567859],[-122.25245,37.567864],[-122.25245,37.567869],[-122.25246,37.567874],[-122.25246,37.56788],[-122.25246,37.567885],[-122.25246,37.56789],[-122.25247,37.567896],[-122.25247,37.567902],[-122.25247,37.567913],[-122.25247,37.567924],[-122.25247,37.56793],[-122.25247,37.567931],[-122.25247,37.567936],[-122.25247,37.567945],[-122.25247,37.567954],[-122.25247,37.567963],[-122.25248,37.567972],[-122.25248,37.56798],[-122.25248,37.567989],[-122.25248,37.567998],[-122.25249,37.568006],[-122.25249,37.568015],[-122.25249,37.568023],[-122.2525,37.568031],[-122.2525,37.56804],[-122.25251,37.568048],[-122.25251,37.568056],[-122.25252,37.568063],[-122.25252,37.56807],[-122.25253,37.568078],[-122.25254,37.568085],[-122.25254,37.568092],[-122.25255,37.568099],[-122.25256,37.568106],[-122.25257,37.568112],[-122.25257,37.568115],[-122.25257,37.568118],[-122.25258,37.568124],[-122.25259,37.56813],[-122.2526,37.568135],[-122.25261,37.56814],[-122.25262,37.568145],[-122.25263,37.56815],[-122.25264,37.568154],[-122.25265,37.568159],[-122.25266,37.568163],[-122.25267,37.568166],[-122.25268,37.568169],[-122.25269,37.568172],[-122.2527,37.568175],[-122.25271,37.568178],[-122.25272,37.568179],[-122.25273,37.568181],[-122.25274,37.568183],[-122.25275,37.568184],[-122.25276,37.568185],[-122.2528,37.568188],[-122.25282,37.568189],[-122.25284,37.568191],[-122.25285,37.568194],[-122.25287,37.568196],[-122.25289,37.568199],[-122.25291,37.568202],[-122.25293,37.568206],[-122.25295,37.568209],[-122.25297,37.568213],[-122.25298,37.568217],[-122.253,37.568222],[-122.25302,37.568226],[-122.25304,37.568231],[-122.25305,37.568236],[-122.25307,37.568242],[-122.25309,37.568247],[-122.25311,37.568253],[-122.25312,37.568259],[-122.25314,37.568266],[-122.25316,37.568272],[-122.25318,37.568279],[-122.25319,37.568286],[-122.25321,37.568293],[-122.25323,37.568301],[-122.25324,37.568309],[-122.25369,37.568535],[-122.254,37.568696],[-122.2543,37.568861],[-122.2546,37.56903],[-122.25722,37.570543],[-122.25983,37.572063],[-122.25983,37.572072],[-122.25984,37.572079],[-122.25984,37.572087],[-122.25984,37.572094],[-122.25985,37.572101],[-122.25985,37.572108],[-122.25985,37.572115],[-122.25986,37.572122],[-122.25986,37.572129],[-122.25987,37.572135],[-122.25987,37.572142],[-122.25988,37.572149],[-122.25988,37.572155],[-122.25989,37.572161],[-122.25989,37.572168],[-122.2599,37.572174],[-122.2599,37.57218],[-122.25991,37.572187],[-122.25992,37.572193],[-122.25992,37.572199],[-122.25993,37.572205],[-122.25993,37.572211],[-122.25994,37.572216],[-122.25995,37.572222],[-122.25995,37.572228],[-122.25996,37.572233],[-122.25997,37.572239],[-122.25997,37.572244],[-122.25998,37.572249],[-122.25999,37.572254],[-122.25999,37.572259],[-122.26,37.572264],[-122.26001,37.572269],[-122.26001,37.572274],[-122.26002,37.572278],[-122.26003,37.572283],[-122.26004,37.572287],[-122.26005,37.572292],[-122.26005,37.572296],[-122.26006,37.5723],[-122.26007,37.572304],[-122.26008,37.572308],[-122.26009,37.572311],[-122.2601,37.572315],[-122.26011,37.572318],[-122.26011,37.572322],[-122.26012,37.572325],[-122.26013,37.572328],[-122.26014,37.572331],[-122.26015,37.572334],[-122.26016,37.572337],[-122.26017,37.572339],[-122.26018,37.572342],[-122.26019,37.572344],[-122.26021,37.572351],[-122.26022,37.572355],[-122.26024,37.572358],[-122.26025,37.572362],[-122.26026,37.572367],[-122.26027,37.572371],[-122.26028,37.572376],[-122.2603,37.572381],[-122.26031,37.572386],[-122.26032,37.572391],[-122.26033,37.572396],[-122.26035,37.572401],[-122.26036,37.572407],[-122.26037,37.572413],[-122.26038,37.572419],[-122.26039,37.572425],[-122.2604,37.572431],[-122.26109,37.572827],[-122.26178,37.573229],[-122.26182,37.573278],[-122.26184,37.573304],[-122.26186,37.57333],[-122.26188,37.573356],[-122.2619,37.573381],[-122.26193,37.573406],[-122.26195,37.573431],[-122.26197,37.573455],[-122.26202,37.573508],[-122.26206,37.573542],[-122.2621,37.573576],[-122.26214,37.573608],[-122.26217,37.57364],[-122.26221,37.573672],[-122.26224,37.573694],[-122.26225,37.573703],[-122.26229,37.573734],[-122.26233,37.573764],[-122.26234,37.573768],[-122.26237,37.573788],[-122.26238,37.573794],[-122.26239,37.573801],[-122.26239,37.573806],[-122.2624,37.573811],[-122.26241,37.573816],[-122.26242,37.573821],[-122.26243,37.573826],[-122.26243,37.573831],[-122.26244,37.573835],[-122.26245,37.573839],[-122.26246,37.573843],[-122.26247,37.573847],[-122.26248,37.573851],[-122.26249,37.573855],[-122.2625,37.573859],[-122.26251,37.573862],[-122.26251,37.573866],[-122.26252,37.573869],[-122.26253,37.573872],[-122.26254,37.573875],[-122.26255,37.573878],[-122.26256,37.573881],[-122.26257,37.573884],[-122.26258,37.573886],[-122.26259,37.573889],[-122.2626,37.573891],[-122.26261,37.573893],[-122.26262,37.573895],[-122.26263,37.573897],[-122.26264,37.573899],[-122.26265,37.5739],[-122.26266,37.573901],[-122.26267,37.573903],[-122.26268,37.573904],[-122.26269,37.573905],[-122.2627,37.573906],[-122.26271,37.573906],[-122.26272,37.573907],[-122.26273,37.573907],[-122.26274,37.573908],[-122.26275,37.573908],[-122.26276,37.573908],[-122.26277,37.573908],[-122.26278,37.573908],[-122.26279,37.573907],[-122.2628,37.573907],[-122.26281,37.573906],[-122.26282,37.573905],[-122.26283,37.573904],[-122.26284,37.573903],[-122.26285,37.573902],[-122.26286,37.573901],[-122.26287,37.573899],[-122.26288,37.573897],[-122.26289,37.573896],[-122.2629,37.573894],[-122.26291,37.573892],[-122.26292,37.57389],[-122.26293,37.573887],[-122.26294,37.573885],[-122.26295,37.573882],[-122.26296,37.573879],[-122.26297,37.573876],[-122.26298,37.573874],[-122.26299,37.57387],[-122.263,37.573867],[-122.26301,37.573864],[-122.26301,37.57386],[-122.26302,37.573857],[-122.26303,37.573853],[-122.26304,37.573849],[-122.26305,37.573845],[-122.26306,37.573841],[-122.26307,37.573836],[-122.26308,37.573832],[-122.26314,37.5738],[-122.26318,37.573782],[-122.26322,37.573764],[-122.26325,37.573747],[-122.26329,37.573731],[-122.26333,37.573715],[-122.26337,37.573699],[-122.26341,37.573685],[-122.26345,37.57367],[-122.26349,37.573656],[-122.26353,37.573643],[-122.26357,37.573631],[-122.26362,37.573619],[-122.26366,37.573607],[-122.2637,37.573596],[-122.26374,37.573586],[-122.26378,37.573576],[-122.26382,37.573567],[-122.26387,37.573559],[-122.26391,37.573551],[-122.26395,37.573544],[-122.26399,37.573538],[-122.264,37.573537],[-122.26404,37.573531],[-122.26408,37.573525],[-122.26413,37.57352],[-122.26417,37.573516],[-122.26421,37.573512],[-122.26426,37.573509],[-122.2643,37.573507],[-122.26435,37.573505],[-122.26439,37.573503],[-122.26444,37.573503],[-122.26448,37.573503],[-122.26452,37.573503],[-122.26457,37.573505],[-122.26461,37.573506],[-122.26463,37.57351],[-122.26463,37.573511],[-122.26464,37.573513],[-122.26465,37.573514],[-122.26466,37.573515],[-122.26466,37.573517],[-122.26467,37.573517],[-122.26468,37.573518],[-122.26469,37.573519],[-122.26469,37.57352],[-122.2647,37.573521],[-122.26471,37.573521],[-122.26472,37.573522],[-122.26474,37.573522],[-122.26476,37.573522],[-122.26477,37.573522],[-122.26478,37.573521],[-122.26479,37.573521],[-122.2648,37.57352],[-122.2648,37.573519],[-122.26481,37.573518],[-122.26482,37.573518],[-122.26483,37.573517],[-122.26483,37.573515],[-122.26484,37.573514],[-122.26485,37.573512],[-122.26485,37.573511],[-122.26486,37.573509],[-122.26487,37.573508],[-122.26488,37.573506],[-122.26489,37.573504],[-122.26489,37.573502],[-122.2649,37.5735],[-122.26491,37.573498],[-122.26492,37.573495],[-122.26492,37.573493],[-122.26493,37.57349],[-122.26494,37.573488],[-122.26494,37.573485],[-122.26495,37.573482],[-122.26496,37.573479],[-122.26496,37.573476],[-122.26497,37.573473],[-122.26498,37.57347],[-122.26498,37.573467],[-122.26499,37.573463],[-122.265,37.573457],[-122.26501,37.573453],[-122.26502,37.573449],[-122.26502,37.573445],[-122.26503,37.573441],[-122.26503,37.573437],[-122.26504,37.573433],[-122.26505,37.573429],[-122.26505,37.573425],[-122.26506,37.573421],[-122.26506,37.573416],[-122.26507,37.573412],[-122.26507,37.573407],[-122.26508,37.573403],[-122.26528,37.573273],[-122.2654,37.573197],[-122.26551,37.573118],[-122.26562,37.573038],[-122.26573,37.572957],[-122.26584,37.572874],[-122.26589,37.572837],[-122.26593,37.572805],[-122.26597,37.572773],[-122.26602,37.572742],[-122.26606,37.572711],[-122.26611,37.572681],[-122.26615,37.572652],[-122.2662,37.572623],[-122.26625,37.572595],[-122.2663,37.572568],[-122.26635,37.572541],[-122.2664,37.572515],[-122.26645,37.57249],[-122.26649,37.572465],[-122.26654,37.572441],[-122.2666,37.572418],[-122.26665,37.572395],[-122.2667,37.572373],[-122.26675,37.572352],[-122.26681,37.572332],[-122.26686,37.572313],[-122.26691,37.572294],[-122.26697,37.572276],[-122.26845,37.571788],[-122.26993,37.571287],[-122.27001,37.571262],[-122.27006,37.571246],[-122.27011,37.57123],[-122.27015,37.571213],[-122.2702,37.571195],[-122.27025,37.571177],[-122.27029,37.571157],[-122.27034,37.571138],[-122.27039,37.571118],[-122.27043,37.571097],[-122.27048,37.571075],[-122.27052,37.571053],[-122.27057,37.57103],[-122.27061,37.571006],[-122.27071,37.570949],[-122.27082,37.570894],[-122.27093,37.57084],[-122.27116,37.570773],[-122.27151,37.570646],[-122.27183,37.57053],[-122.27182,37.570506],[-122.27179,37.570429],[-122.2719,37.570392],[-122.27194,37.570476],[-122.27195,37.570492],[-122.27224,37.570403],[-122.27276,37.570244],[-122.27288,37.570193],[-122.27296,37.570184],[-122.27302,37.570177],[-122.27308,37.570171],[-122.27314,37.570165],[-122.2732,37.570161],[-122.27326,37.570158],[-122.27333,37.570155],[-122.27334,37.570155],[-122.27335,37.570155],[-122.27336,37.570155],[-122.27337,37.570155],[-122.27338,37.570156],[-122.27339,37.570156],[-122.27339,37.570157],[-122.2734,37.570157],[-122.27341,37.570158],[-122.27342,37.570159],[-122.27343,37.57016],[-122.27343,37.570161],[-122.27344,37.570163],[-122.27345,37.570164],[-122.27346,37.570166],[-122.27347,37.570167],[-122.27347,37.570169],[-122.27348,37.570171],[-122.27349,37.570173],[-122.27349,37.570175],[-122.2735,37.570177],[-122.27351,37.570179],[-122.27352,37.570181],[-122.27353,37.570184],[-122.27353,37.570186],[-122.27354,37.570189],[-122.27355,37.570192],[-122.27356,37.570195],[-122.27356,37.570198],[-122.27357,37.570201],[-122.27358,37.570204],[-122.27358,37.570207],[-122.27359,37.570211],[-122.2736,37.570214],[-122.27361,37.570218],[-122.27361,37.570221],[-122.27362,37.570225],[-122.27362,37.570229],[-122.27363,37.570233],[-122.27364,37.570237],[-122.27364,37.570241],[-122.27365,37.570245],[-122.27366,37.570249],[-122.27366,37.570253],[-122.27367,37.570258],[-122.27367,37.570263],[-122.27368,37.570267],[-122.27368,37.570272],[-122.27369,37.570276],[-122.2737,37.570281],[-122.2737,37.570286],[-122.27371,37.570291],[-122.27371,37.570296],[-122.27372,37.570301],[-122.27372,37.570304],[-122.27372,37.570306],[-122.27372,37.570312],[-122.27373,37.570317],[-122.27373,37.570322],[-122.27374,37.570328],[-122.27374,37.570333],[-122.27375,37.570339],[-122.27375,37.570344],[-122.27375,37.57035],[-122.27376,37.570356],[-122.27376,37.570361],[-122.27377,37.570374],[-122.27378,37.570383],[-122.27378,37.570391],[-122.27379,37.5704],[-122.2738,37.570408],[-122.27381,37.570416],[-122.27381,37.570424],[-122.27382,37.570432],[-122.27383,37.570439],[-122.27384,37.570447],[-122.27385,37.570454],[-122.27386,37.57046],[-122.27387,37.570467],[-122.27388,37.570473],[-122.27389,37.570479],[-122.2739,37.570484],[-122.27391,37.570489],[-122.27393,37.570494],[-122.27394,37.570499],[-122.27395,37.570503],[-122.27396,37.570507],[-122.27397,37.57051],[-122.27398,37.570514],[-122.274,37.570517],[-122.27401,37.570519],[-122.27402,37.570521],[-122.27404,37.570525],[-122.27406,37.570527],[-122.27407,37.570531],[-122.27408,37.570534],[-122.27409,37.570538],[-122.27411,37.570542],[-122.27412,37.570546],[-122.27413,37.570551],[-122.27414,37.570556],[-122.27415,37.570562],[-122.27416,37.570567],[-122.27417,37.570573],[-122.27418,37.57058],[-122.27419,37.570586],[-122.2742,37.570593],[-122.27421,37.570601],[-122.27422,37.570608],[-122.27423,37.570616],[-122.27424,37.570623],[-122.27425,37.570632],[-122.27425,37.57064],[-122.27426,37.570649],[-122.27446,37.570878],[-122.27459,37.57102],[-122.27461,37.571034],[-122.27462,37.571044],[-122.27464,37.571053],[-122.27465,37.571063],[-122.27467,37.571071],[-122.27468,37.57108],[-122.2747,37.571089],[-122.27471,37.571097],[-122.27473,37.571105],[-122.27474,37.571113],[-122.27475,37.571121],[-122.27477,37.571128],[-122.27479,37.571136],[-122.2748,37.571143],[-122.27482,37.57115],[-122.27483,37.571156],[-122.27485,37.571163],[-122.27487,37.571169],[-122.27488,37.571175],[-122.2749,37.571181],[-122.27492,37.571186],[-122.27493,37.571192],[-122.27495,37.571196],[-122.27497,37.571201],[-122.27499,37.571206],[-122.275,37.57121],[-122.27502,37.571214],[-122.27504,37.571218],[-122.27507,37.571225],[-122.27509,37.57123],[-122.27512,37.571237],[-122.27514,37.571243],[-122.27517,37.57125],[-122.27519,37.571258],[-122.27522,37.571265],[-122.27524,37.571273],[-122.27527,37.571282],[-122.27529,37.57129],[-122.27531,37.571299],[-122.27534,37.571309],[-122.27536,37.571318],[-122.27538,37.571328],[-122.27541,37.571339],[-122.27543,37.571349],[-122.27545,37.57136],[-122.27547,37.571372],[-122.2755,37.571383],[-122.2755,37.571387],[-122.27551,37.571393],[-122.27553,37.571399],[-122.27553,37.571402],[-122.27554,37.571404],[-122.27555,37.571409],[-122.27556,37.571412],[-122.27557,37.571414],[-122.27557,37.571416],[-122.27558,37.571418],[-122.27559,37.57142],[-122.27559,37.571422],[-122.2756,37.571424],[-122.27561,37.571426],[-122.27562,37.571427],[-122.27562,37.571429],[-122.27563,37.571431],[-122.27564,37.571432],[-122.27564,37.571433],[-122.27565,37.571434],[-122.27566,37.571435],[-122.27567,37.571436],[-122.27567,37.571437],[-122.27568,37.571438],[-122.27569,37.571438],[-122.27569,37.571439],[-122.2757,37.57144],[-122.27571,37.57144],[-122.27572,37.57144],[-122.27573,37.57144],[-122.27574,37.57144],[-122.27575,37.57144],[-122.27576,37.571439],[-122.27577,37.571439],[-122.27577,37.571438],[-122.27578,37.571438],[-122.27579,37.571437],[-122.2758,37.571436],[-122.2758,37.571435],[-122.27581,37.571434],[-122.27582,37.571433],[-122.27583,37.571431],[-122.27583,37.57143],[-122.27584,37.571429],[-122.27585,37.571427],[-122.27585,37.571425],[-122.27586,37.571424],[-122.27587,37.571422],[-122.27587,37.57142],[-122.27588,37.571418],[-122.27589,37.571413],[-122.2759,37.571411],[-122.27591,37.571409],[-122.27591,37.571406],[-122.27594,37.571397],[-122.27596,37.571391],[-122.27598,37.571385],[-122.27599,37.571379],[-122.27601,37.571373],[-122.27603,37.571368],[-122.27605,37.571363],[-122.27606,37.571358],[-122.27608,37.571353],[-122.2761,37.571349],[-122.27612,37.571345],[-122.27614,37.571341],[-122.27616,37.571338],[-122.27618,37.571334],[-122.2762,37.571331],[-122.27621,37.571329],[-122.27623,37.571326],[-122.27625,37.571324],[-122.27627,37.571322],[-122.27629,37.57132],[-122.27631,37.571319],[-122.27633,37.571318],[-122.27635,37.571317],[-122.27637,37.571316],[-122.27639,37.571316],[-122.27641,37.571316],[-122.27643,37.571316],[-122.27644,37.571317],[-122.27646,37.571317],[-122.27648,37.571318],[-122.2765,37.57132],[-122.27652,37.571321],[-122.27654,37.571323],[-122.27743,37.57142],[-122.27809,37.571504],[-122.2782,37.57152],[-122.27841,37.57155],[-122.27871,37.571596],[-122.279,37.571646],[-122.27901,37.571648],[-122.27902,37.571651],[-122.27903,37.571654],[-122.27904,37.571657],[-122.27905,37.57166],[-122.27907,37.571664],[-122.27908,37.571668],[-122.27909,37.571673],[-122.2791,37.571677],[-122.27911,37.571682],[-122.27912,37.571688],[-122.27913,37.571693],[-122.27913,37.571699],[-122.27914,37.571705],[-122.27915,37.571711],[-122.27916,37.571718],[-122.27917,37.571724],[-122.27918,37.571731],[-122.27919,37.571738],[-122.27919,37.571746],[-122.2792,37.571753],[-122.27921,37.571761],[-122.27921,37.571769],[-122.27922,37.571777],[-122.27922,37.571786],[-122.27923,37.571794],[-122.27923,37.571803],[-122.27924,37.571811],[-122.27924,37.57182],[-122.27925,37.571829],[-122.27925,37.571838],[-122.27925,37.571847],[-122.27925,37.571856],[-122.27926,37.571865],[-122.27926,37.571875],[-122.27926,37.571884],[-122.27926,37.571893],[-122.27926,37.571903],[-122.27926,37.571912],[-122.27925,37.572506],[-122.27924,37.573099],[-122.27924,37.573107],[-122.27924,37.573114],[-122.27924,37.573121],[-122.27924,37.573129],[-122.27924,37.573136],[-122.27924,37.573143],[-122.27924,37.57315],[-122.27924,37.573157],[-122.27924,37.573165],[-122.27924,37.573172],[-122.27924,37.573179],[-122.27923,37.573186],[-122.27923,37.573193],[-122.27923,37.573201],[-122.27923,37.573208],[-122.27923,37.573215],[-122.27923,37.573222],[-122.27923,37.573223],[-122.27922,37.573229],[-122.27922,37.573236],[-122.27922,37.573243],[-122.27922,37.57325],[-122.27921,37.573257],[-122.27921,37.573264],[-122.27921,37.573272],[-122.2792,37.573282],[-122.2792,37.573292],[-122.2792,37.573302],[-122.2792,37.573312],[-122.27919,37.573323],[-122.27919,37.573333],[-122.27919,37.573343],[-122.27919,37.573354],[-122.27919,37.573364],[-122.27919,37.573374],[-122.27919,37.573385],[-122.27919,37.573395],[-122.27919,37.573405],[-122.2792,37.573416],[-122.2792,37.573426],[-122.2792,37.573436],[-122.27921,37.573446],[-122.27921,37.573456],[-122.27921,37.573465],[-122.27922,37.573475],[-122.27923,37.573485],[-122.27923,37.573494],[-122.27924,37.573503],[-122.27924,37.573512],[-122.27925,37.573521],[-122.27925,37.573524],[-122.27926,37.57353],[-122.27926,37.573538],[-122.27927,37.573546],[-122.27928,37.573554],[-122.27929,37.573562],[-122.2793,37.57357],[-122.27931,37.573577],[-122.27932,37.573584],[-122.27933,37.57359],[-122.27934,37.573597],[-122.27935,37.573603],[-122.27936,37.573609],[-122.27937,37.573614],[-122.27938,37.57362],[-122.27939,37.573625],[-122.2794,37.573629],[-122.27986,37.573791],[-122.28011,37.573876],[-122.28036,37.573958],[-122.28062,37.574036],[-122.28088,37.574111],[-122.28114,37.574182],[-122.2814,37.57425],[-122.28166,37.574313],[-122.28193,37.574373],[-122.28219,37.57443],[-122.28246,37.574482],[-122.28273,37.574532],[-122.283,37.574577],[-122.28327,37.574618],[-122.28328,37.574623],[-122.28329,37.574628],[-122.2833,37.574633],[-122.28331,37.574639],[-122.28332,37.574644],[-122.28333,37.574649],[-122.28334,37.574655],[-122.28335,37.574661],[-122.28336,37.574667],[-122.28337,37.574673],[-122.28338,37.574679],[-122.28339,37.574685],[-122.2834,37.574692],[-122.28341,37.574698],[-122.28342,37.574705],[-122.28343,37.574712],[-122.28344,37.574719],[-122.28345,37.574726],[-122.28345,37.574733],[-122.28346,37.57474],[-122.28347,37.574748],[-122.28348,37.574755],[-122.28349,37.574763],[-122.28349,37.574771],[-122.2835,37.574779],[-122.28351,37.574787],[-122.28353,37.57481],[-122.28355,37.574829],[-122.28357,37.574848],[-122.28359,37.574867],[-122.28361,37.574885],[-122.28363,37.574904],[-122.28365,37.574922],[-122.28367,37.574939],[-122.28369,37.574957],[-122.28371,37.574974],[-122.28373,37.574991],[-122.28376,37.575007],[-122.28376,37.575011],[-122.28377,37.575016],[-122.28378,37.575022],[-122.28378,37.575028],[-122.28379,37.575033],[-122.28379,37.575039],[-122.2838,37.575045],[-122.2838,37.575051],[-122.28381,37.575058],[-122.28381,37.575064],[-122.28382,37.575071],[-122.28382,37.575078],[-122.28382,37.575084],[-122.28383,37.575091],[-122.28383,37.575098],[-122.28383,37.575105],[-122.28384,37.575113],[-122.28384,37.57512],[-122.28384,37.575127],[-122.28384,37.575128],[-122.28384,37.575135],[-122.28384,37.575142],[-122.28384,37.575149],[-122.28384,37.575156],[-122.28384,37.575164],[-122.28384,37.575172],[-122.28384,37.575179],[-122.28384,37.575186],[-122.28384,37.575199],[-122.28384,37.575208],[-122.28384,37.575217],[-122.28384,37.575225],[-122.28384,37.575234],[-122.28384,37.575242],[-122.28384,37.575251],[-122.28385,37.575259],[-122.28385,37.575267],[-122.28385,37.575276],[-122.28386,37.575284],[-122.28386,37.575292],[-122.28386,37.5753],[-122.28387,37.575308],[-122.28387,37.575316],[-122.28387,37.575323],[-122.28388,37.575331],[-122.28389,37.575338],[-122.28389,37.575345],[-122.2839,37.575352],[-122.2839,37.575359],[-122.28391,37.575366],[-122.28392,37.575373],[-122.28392,37.575379],[-122.28393,37.575385],[-122.28394,37.575391],[-122.28395,37.575397],[-122.28396,37.575402],[-122.28396,37.575407],[-122.28397,37.575412],[-122.28398,37.575417],[-122.28399,37.575421],[-122.284,37.575426],[-122.28401,37.575429],[-122.28402,37.575436],[-122.28403,37.575439],[-122.28403,37.575443],[-122.28404,37.575446],[-122.28404,37.57545],[-122.28405,37.575454],[-122.28406,37.575458],[-122.28406,37.575461],[-122.28407,37.575466],[-122.28407,37.57547],[-122.28408,37.575474],[-122.28408,37.575478],[-122.28409,37.575483],[-122.28409,37.575487],[-122.2841,37.575496],[-122.28411,37.575501],[-122.28411,37.575505],[-122.28412,37.57551],[-122.28412,37.575515],[-122.28413,37.57552],[-122.28413,37.575525],[-122.28413,37.57553],[-122.28414,37.575535],[-122.28414,37.57554],[-122.28415,37.575545],[-122.28415,37.57555],[-122.28415,37.575556],[-122.28416,37.575561],[-122.28416,37.575566],[-122.28416,37.575574],[-122.28417,37.575581],[-122.28418,37.575587],[-122.28418,37.575594],[-122.28418,37.575601],[-122.28419,37.575608],[-122.28419,37.575614],[-122.2842,37.57562],[-122.28421,37.575627],[-122.28421,37.575633],[-122.28422,37.575639],[-122.28422,37.575645],[-122.28423,37.575651],[-122.28423,37.575657],[-122.28424,37.575659],[-122.28424,37.575663],[-122.28425,37.575669],[-122.28426,37.575675],[-122.28426,37.57568],[-122.28427,37.575686],[-122.28427,37.575691],[-122.28428,37.575696],[-122.28429,37.575701],[-122.2843,37.575707],[-122.2843,37.575712],[-122.28431,37.575716],[-122.28432,37.575721],[-122.28433,37.575726],[-122.28433,37.57573],[-122.28434,37.575735],[-122.28435,37.575739],[-122.28436,37.575743],[-122.28437,37.575747],[-122.28437,37.575751],[-122.28438,37.575755],[-122.28439,37.575759],[-122.28442,37.575771],[-122.28444,37.575779],[-122.28446,37.575786],[-122.28448,37.575793],[-122.2845,37.5758],[-122.28451,37.575807],[-122.28454,37.575813],[-122.28455,37.575819],[-122.28457,37.575825],[-122.28459,37.57583],[-122.28462,37.575835],[-122.28463,37.57584],[-122.28466,37.575845],[-122.28468,37.575849],[-122.2847,37.575853],[-122.28472,37.575856],[-122.28474,37.57586],[-122.28476,37.575863],[-122.28478,37.575866],[-122.2848,37.575868],[-122.28482,37.575871],[-122.28484,37.575873],[-122.28486,37.575875],[-122.28489,37.575876],[-122.28491,37.575877],[-122.28493,37.575878],[-122.28495,37.575879],[-122.28497,37.575879],[-122.28499,37.575879],[-122.28501,37.575878],[-122.28503,37.575878],[-122.28505,37.575877],[-122.28508,37.575876],[-122.2851,37.575874],[-122.28512,37.575872],[-122.28514,37.57587],[-122.28516,37.575867],[-122.28518,37.575865],[-122.2852,37.575862],[-122.28522,37.575859],[-122.28524,37.575855],[-122.28526,37.575851],[-122.28528,37.575847],[-122.2853,37.575843],[-122.28533,37.575838],[-122.28535,37.575833],[-122.28537,37.575828],[-122.28539,37.575822],[-122.28541,37.575816],[-122.28543,37.57581],[-122.28544,37.575804],[-122.28546,37.575797],[-122.28548,37.57579],[-122.2855,37.575783],[-122.28556,37.575762],[-122.2856,37.575747],[-122.28564,37.575733],[-122.28569,37.57572],[-122.28573,37.575707],[-122.28577,37.575695],[-122.28581,37.575683],[-122.28586,37.575672],[-122.2859,37.575662],[-122.28594,37.575652],[-122.28599,37.575642],[-122.28603,37.575634],[-122.28608,37.575626],[-122.28612,37.575618],[-122.28617,37.575612],[-122.28621,37.575606],[-122.28625,37.575601],[-122.28626,37.5756],[-122.2863,37.575595],[-122.28635,37.575591],[-122.28637,37.575589],[-122.28639,37.575587],[-122.28644,37.575584],[-122.28648,37.575582],[-122.28653,37.57558],[-122.28657,37.575579],[-122.28662,37.575578],[-122.28666,37.575579],[-122.28671,37.575579],[-122.28675,37.575581],[-122.2868,37.575583],[-122.28684,37.575585],[-122.28689,37.575588],[-122.28694,37.575593],[-122.28698,37.575597],[-122.287,37.5756],[-122.28702,37.575602],[-122.28703,37.575604],[-122.28704,37.575606],[-122.28706,37.575608],[-122.28707,37.575611],[-122.28708,37.575614],[-122.28709,37.575617],[-122.28711,37.57562],[-122.28712,37.575623],[-122.28713,37.575626],[-122.28714,37.57563],[-122.28715,37.575633],[-122.28717,37.575637],[-122.28718,37.575641],[-122.28719,37.575645],[-122.2872,37.57565],[-122.28721,37.575654],[-122.28723,37.575659],[-122.28724,37.575664],[-122.28725,37.575669],[-122.28726,37.575674],[-122.28727,37.57568],[-122.28728,37.575685],[-122.28729,37.575691],[-122.2873,37.575696],[-122.28731,37.5757],[-122.28732,37.575705],[-122.28733,37.575709],[-122.28734,37.575713],[-122.28735,37.575717],[-122.28736,37.575721],[-122.28737,37.575725],[-122.28738,37.575728],[-122.28739,37.575732],[-122.2874,37.575735],[-122.28741,37.575739],[-122.28742,37.575742],[-122.28743,37.575744],[-122.28744,37.575747],[-122.28745,37.57575],[-122.28746,37.575753],[-122.28747,37.575755],[-122.28748,37.575757],[-122.28749,37.575759],[-122.2875,37.575761],[-122.28756,37.575772],[-122.28759,37.575778],[-122.28761,37.575785],[-122.28764,37.575792],[-122.28767,37.575799],[-122.2877,37.575807],[-122.28773,37.575815],[-122.28773,37.575817],[-122.28775,37.57582],[-122.28775,37.575822],[-122.28776,37.575825],[-122.28777,37.575827],[-122.28778,37.575829],[-122.28779,37.575831],[-122.2878,37.575833],[-122.28781,37.575834],[-122.28782,37.575835],[-122.28783,37.575837],[-122.28784,37.575838],[-122.28785,37.575839],[-122.28786,37.57584],[-122.28787,37.575841],[-122.28788,37.575841],[-122.28788,37.575842],[-122.28788,37.574663],[-122.28788,37.5741],[-122.28788,37.574052],[-122.28789,37.571987],[-122.28789,37.571884],[-122.28789,37.570753],[-122.28789,37.570583],[-122.28789,37.570191],[-122.2865,37.570183],[-122.28473,37.570174],[-122.28448,37.570175],[-122.28432,37.570175],[-122.28431,37.56824],[-122.28431,37.568233],[-122.2843,37.566103],[-122.2843,37.565603],[-122.2843,37.565503],[-122.28429,37.564478],[-122.28429,37.564399],[-122.28428,37.564399],[-122.28427,37.564399],[-122.2827,37.564406],[-122.28171,37.56441],[-122.27944,37.56442],[-122.27944,37.563857],[-122.27944,37.563706],[-122.27944,37.563648],[-122.27944,37.563543],[-122.27943,37.56232],[-122.27943,37.56214],[-122.27943,37.561963],[-122.27943,37.561957],[-122.27943,37.561424],[-122.27943,37.561299],[-122.27942,37.55996],[-122.27942,37.559959],[-122.27941,37.559671],[-122.27941,37.559633],[-122.27941,37.559495],[-122.27941,37.559032],[-122.27941,37.558884],[-122.27941,37.55888],[-122.2794,37.557988],[-122.27938,37.556101],[-122.27938,37.5561],[-122.27963,37.556063],[-122.27978,37.556042],[-122.27981,37.556036],[-122.27985,37.556029],[-122.27989,37.556021],[-122.27993,37.556014],[-122.27997,37.556005],[-122.28001,37.555996],[-122.28005,37.555987],[-122.28009,37.555977],[-122.28013,37.555967],[-122.28016,37.555957],[-122.28019,37.555949],[-122.2802,37.555946],[-122.28024,37.555935],[-122.28027,37.555923],[-122.28029,37.555918],[-122.28031,37.555911],[-122.28035,37.555898],[-122.28038,37.555885],[-122.28042,37.555871],[-122.28045,37.555857],[-122.28049,37.555843],[-122.28052,37.555828],[-122.28056,37.555814],[-122.28059,37.5558],[-122.28062,37.555785],[-122.28065,37.55577],[-122.28068,37.555755],[-122.28117,37.555489],[-122.28123,37.555454],[-122.28153,37.555294],[-122.28157,37.555273],[-122.28186,37.555113],[-122.28189,37.555099],[-122.28214,37.554961],[-122.28238,37.554828],[-122.28239,37.55482],[-122.28248,37.554767],[-122.28276,37.554625],[-122.28277,37.554622],[-122.28263,37.55445],[-122.28363,37.554448],[-122.28391,37.554448],[-122.28391,37.554394],[-122.28391,37.554371],[-122.28391,37.554207],[-122.28391,37.554193],[-122.28391,37.554131],[-122.28391,37.554089],[-122.28388,37.554097],[-122.28386,37.554105],[-122.28384,37.554112],[-122.28382,37.554119],[-122.2838,37.554125],[-122.28378,37.554131],[-122.28376,37.554136],[-122.28374,37.554141],[-122.28372,37.554146],[-122.2837,37.554148],[-122.28369,37.554149],[-122.28367,37.554153],[-122.28365,37.554156],[-122.28363,37.554158],[-122.2836,37.55416],[-122.28358,37.554161],[-122.28356,37.554162],[-122.28354,37.554162],[-122.28351,37.554162],[-122.28349,37.554161],[-122.28347,37.55416],[-122.28345,37.554158],[-122.28342,37.554156],[-122.2825,37.553903],[-122.28248,37.553893],[-122.28245,37.553883],[-122.28243,37.553872],[-122.28241,37.553861],[-122.28239,37.55385],[-122.28237,37.553838],[-122.28235,37.553826],[-122.28233,37.553813],[-122.28231,37.5538],[-122.28229,37.553787],[-122.28227,37.553773],[-122.28226,37.553759],[-122.28224,37.553745],[-122.28222,37.55373],[-122.28221,37.553715],[-122.28219,37.5537],[-122.28217,37.553684],[-122.28216,37.553668],[-122.28214,37.553652],[-122.28213,37.553635],[-122.28211,37.553619],[-122.2821,37.553601],[-122.28209,37.553584],[-122.28208,37.553567],[-122.28206,37.553549],[-122.28205,37.553531],[-122.28204,37.553512],[-122.28203,37.553494],[-122.28202,37.553475],[-122.28201,37.553457],[-122.282,37.553438],[-122.282,37.553418],[-122.28199,37.553399],[-122.28198,37.55338],[-122.28198,37.553362],[-122.28198,37.55336],[-122.28197,37.55334],[-122.28197,37.553321],[-122.28196,37.553301],[-122.28195,37.553273],[-122.28193,37.553245],[-122.28192,37.553217],[-122.2819,37.553189],[-122.28189,37.55316],[-122.28188,37.553131],[-122.28187,37.553121],[-122.28186,37.553102],[-122.28185,37.553073],[-122.28184,37.553044],[-122.28184,37.553038],[-122.28183,37.553015],[-122.28182,37.552986],[-122.28181,37.552956],[-122.28181,37.552926],[-122.2818,37.552897],[-122.28179,37.552867],[-122.28178,37.552837],[-122.28178,37.552807],[-122.28177,37.552777],[-122.28177,37.552746],[-122.28176,37.552716],[-122.28176,37.552686],[-122.28175,37.552659],[-122.28175,37.552632],[-122.28174,37.552605],[-122.28173,37.552578],[-122.28173,37.552551],[-122.28173,37.552523],[-122.28172,37.552496],[-122.28172,37.552469],[-122.28172,37.552441],[-122.28172,37.552414],[-122.28172,37.552387],[-122.28172,37.552359],[-122.28172,37.552332],[-122.28172,37.552304],[-122.28172,37.552277],[-122.28172,37.55225],[-122.28172,37.552222],[-122.28173,37.552195],[-122.28173,37.552168],[-122.28174,37.552141],[-122.28174,37.552114],[-122.28175,37.552087],[-122.28176,37.55206],[-122.28176,37.552033],[-122.28177,37.552006],[-122.28178,37.55198],[-122.28179,37.551953],[-122.2818,37.551927],[-122.28181,37.551901],[-122.28182,37.551875],[-122.28183,37.551849],[-122.28184,37.551823],[-122.28186,37.551798],[-122.28187,37.551772],[-122.28188,37.551747],[-122.2819,37.551722],[-122.28191,37.551698],[-122.28193,37.551673],[-122.28194,37.551649],[-122.28196,37.551625],[-122.28198,37.551601],[-122.282,37.551578],[-122.28202,37.551555],[-122.28203,37.551532],[-122.28205,37.551509],[-122.28207,37.551486],[-122.28209,37.551464],[-122.28211,37.551442],[-122.28213,37.551421],[-122.28216,37.5514],[-122.28218,37.551379],[-122.2822,37.551358],[-122.28222,37.551338],[-122.28225,37.551318],[-122.28227,37.551299],[-122.2823,37.551279],[-122.28232,37.55126],[-122.28235,37.551242],[-122.28237,37.551224],[-122.2824,37.551206],[-122.28243,37.551189],[-122.28245,37.551172],[-122.28248,37.551155],[-122.28251,37.551139],[-122.28254,37.551123],[-122.28257,37.551108],[-122.28259,37.551093],[-122.28262,37.551079],[-122.28265,37.551065],[-122.28268,37.551052],[-122.28271,37.551039],[-122.28274,37.551026],[-122.28277,37.551014],[-122.2828,37.551002],[-122.28283,37.550991],[-122.28286,37.55098],[-122.28289,37.550969],[-122.28293,37.550959],[-122.28296,37.55095],[-122.28299,37.550941],[-122.28302,37.550932],[-122.28304,37.550927],[-122.28305,37.550924],[-122.28309,37.550916],[-122.28312,37.550909],[-122.28315,37.550902],[-122.28319,37.550896],[-122.28322,37.55089],[-122.28325,37.550885],[-122.28328,37.55088],[-122.28332,37.550875],[-122.28335,37.550871],[-122.28338,37.550868],[-122.28342,37.550865],[-122.28345,37.550862],[-122.28349,37.55086],[-122.28352,37.550859],[-122.28354,37.550862],[-122.28356,37.550865],[-122.28359,37.550868],[-122.28361,37.55087],[-122.28363,37.550871],[-122.28366,37.550872],[-122.28368,37.550873],[-122.2837,37.550873],[-122.28373,37.550872],[-122.28375,37.550871],[-122.28377,37.55087],[-122.2838,37.550868],[-122.28382,37.550865],[-122.28384,37.550862],[-122.28386,37.550859],[-122.28389,37.550855],[-122.28391,37.55085],[-122.28393,37.550845],[-122.28395,37.55084],[-122.28397,37.550834],[-122.284,37.550827],[-122.28402,37.55082],[-122.28403,37.550817],[-122.28404,37.550813],[-122.28406,37.550805],[-122.28408,37.550797],[-122.2841,37.550788],[-122.28412,37.550779],[-122.28414,37.550769],[-122.28416,37.550759],[-122.28418,37.550749],[-122.2842,37.550738],[-122.28422,37.550726],[-122.28423,37.550715],[-122.28425,37.550703],[-122.28427,37.55069],[-122.28428,37.550677],[-122.2843,37.550664],[-122.28432,37.550651],[-122.28433,37.550637],[-122.28435,37.550623],[-122.28436,37.550608],[-122.28437,37.550593],[-122.28439,37.550578],[-122.2844,37.550563],[-122.28441,37.550547],[-122.28442,37.550531],[-122.28444,37.550515],[-122.28445,37.550498],[-122.28446,37.550482],[-122.28446,37.550465],[-122.28447,37.550448],[-122.28448,37.550431],[-122.28449,37.550413],[-122.2845,37.550396],[-122.2845,37.550378],[-122.28451,37.55036],[-122.28451,37.550342],[-122.28452,37.550324],[-122.28452,37.550306],[-122.28453,37.550288],[-122.28453,37.550278],[-122.28453,37.550269],[-122.28453,37.550251],[-122.28453,37.550233],[-122.28453,37.550214],[-122.28453,37.550196],[-122.28453,37.550177],[-122.28453,37.550159],[-122.28453,37.550141],[-122.28452,37.550104],[-122.28452,37.550094],[-122.28451,37.550047],[-122.2845,37.550001],[-122.28449,37.549954],[-122.28448,37.549908],[-122.28448,37.549874],[-122.28447,37.549862],[-122.28446,37.549816],[-122.28445,37.54977],[-122.28444,37.549724],[-122.28442,37.549678],[-122.28441,37.549632],[-122.28439,37.549586],[-122.28438,37.549541],[-122.28436,37.549496],[-122.28435,37.54945],[-122.28433,37.549405],[-122.28431,37.54936],[-122.28429,37.549316],[-122.28427,37.549271],[-122.28425,37.549227],[-122.28423,37.549182],[-122.28421,37.549138],[-122.28419,37.549094],[-122.28417,37.549051],[-122.28415,37.549007],[-122.28412,37.548964],[-122.2841,37.548921],[-122.28408,37.548878],[-122.28405,37.548835],[-122.28402,37.548793],[-122.284,37.54875],[-122.28397,37.548708],[-122.28395,37.548667],[-122.28392,37.548625],[-122.28389,37.548584],[-122.28386,37.548543],[-122.28383,37.548502],[-122.2838,37.548461],[-122.28377,37.548421],[-122.28374,37.548381],[-122.28367,37.548364],[-122.28353,37.548338],[-122.28332,37.548301],[-122.2833,37.548304],[-122.28309,37.548338],[-122.28181,37.548541],[-122.28127,37.548627],[-122.28068,37.548619],[-122.28051,37.548617],[-122.28047,37.548609],[-122.28031,37.548578],[-122.28029,37.548571],[-122.28027,37.548564],[-122.28025,37.548556],[-122.28024,37.548548],[-122.28022,37.54854],[-122.2802,37.548531],[-122.28019,37.548522],[-122.28017,37.548513],[-122.28015,37.548503],[-122.28014,37.548492],[-122.28012,37.548482],[-122.28011,37.548471],[-122.2801,37.548459],[-122.28008,37.548448],[-122.28007,37.548436],[-122.28006,37.548423],[-122.28005,37.54841],[-122.28003,37.548397],[-122.28002,37.548384],[-122.28001,37.54837],[-122.28,37.548356],[-122.27999,37.548342],[-122.27998,37.548327],[-122.27997,37.548313],[-122.27997,37.548298],[-122.27996,37.548283],[-122.27995,37.548268],[-122.27994,37.548252],[-122.27994,37.548237],[-122.27993,37.548221],[-122.27993,37.548205],[-122.27993,37.54819],[-122.27992,37.548174],[-122.27992,37.548158],[-122.27992,37.548141],[-122.27988,37.547634],[-122.27988,37.547601],[-122.27988,37.547568],[-122.27988,37.547543],[-122.27988,37.547536],[-122.27988,37.547503],[-122.27987,37.547471],[-122.27987,37.547438],[-122.27987,37.547405],[-122.27986,37.547373],[-122.27986,37.547341],[-122.27985,37.547308],[-122.27985,37.547276],[-122.27984,37.547244],[-122.27983,37.547212],[-122.27983,37.54718],[-122.27982,37.547149],[-122.27981,37.547117],[-122.2798,37.547085],[-122.27979,37.547054],[-122.27978,37.547023],[-122.27977,37.546991],[-122.27975,37.54696],[-122.27974,37.546929],[-122.27973,37.546899],[-122.27971,37.546868],[-122.2797,37.546838],[-122.27969,37.546807],[-122.27967,37.546777],[-122.27966,37.546748],[-122.27964,37.546718],[-122.27962,37.546692],[-122.27962,37.546688],[-122.2796,37.546659],[-122.27959,37.546633],[-122.27893,37.545679],[-122.27888,37.545614],[-122.27868,37.545319],[-122.27866,37.545299],[-122.27866,37.545297],[-122.27865,37.545275],[-122.27863,37.545253],[-122.27861,37.545232],[-122.27859,37.54521],[-122.27858,37.54519],[-122.27856,37.545169],[-122.27854,37.545149],[-122.27852,37.545129],[-122.2785,37.545109],[-122.27848,37.54509],[-122.27846,37.545071],[-122.27843,37.545052],[-122.27841,37.545033],[-122.27839,37.545015],[-122.27837,37.544997],[-122.27834,37.54498],[-122.27832,37.544963],[-122.2783,37.544946],[-122.27827,37.54493],[-122.27825,37.544914],[-122.27822,37.544898],[-122.27819,37.544883],[-122.27817,37.544868],[-122.27814,37.544854],[-122.27812,37.54484],[-122.27809,37.544826],[-122.27806,37.544813],[-122.27803,37.544801],[-122.27801,37.544788],[-122.27798,37.544776],[-122.27795,37.544765],[-122.27769,37.544608],[-122.27749,37.544492],[-122.27722,37.544217],[-122.27709,37.544051],[-122.27704,37.543906],[-122.27698,37.543758],[-122.27697,37.543732],[-122.27693,37.543614],[-122.27687,37.543467],[-122.27684,37.543319],[-122.27685,37.543165],[-122.27686,37.543014],[-122.27687,37.542863],[-122.27688,37.542707],[-122.27687,37.542559],[-122.27686,37.542518],[-122.27685,37.542368],[-122.27685,37.542361],[-122.27684,37.542212],[-122.27682,37.542063],[-122.27681,37.541913],[-122.27681,37.541911],[-122.27679,37.541761],[-122.27677,37.541614],[-122.27674,37.541467],[-122.2767,37.541312],[-122.27666,37.541168],[-122.27666,37.54116],[-122.27663,37.54102],[-122.27659,37.540868],[-122.27655,37.540721],[-122.27652,37.540572],[-122.27652,37.540563],[-122.27651,37.540539],[-122.27649,37.540425],[-122.27649,37.540415],[-122.27649,37.54038],[-122.27648,37.540374],[-122.27648,37.540349],[-122.27646,37.540237],[-122.27646,37.540221],[-122.27644,37.540079],[-122.27646,37.539944],[-122.27654,37.539794],[-122.27654,37.53979],[-122.27661,37.539656],[-122.27665,37.539519],[-122.2767,37.539379],[-122.2767,37.539373],[-122.27675,37.539237],[-122.27676,37.539224],[-122.27681,37.539092],[-122.27681,37.539091],[-122.27689,37.538958],[-122.27697,37.53882],[-122.27697,37.538816],[-122.27704,37.538686],[-122.27705,37.538683],[-122.27712,37.538547],[-122.2772,37.538411],[-122.2772,37.538409],[-122.27728,37.538275],[-122.27728,37.538271],[-122.2773,37.538234],[-122.27741,37.538115],[-122.27753,37.537998],[-122.27754,37.537991],[-122.27765,37.537883],[-122.27765,37.537878],[-122.27778,37.53777],[-122.27779,37.537762],[-122.27791,37.537666],[-122.27792,37.537656],[-122.27803,37.537557],[-122.27805,37.537543],[-122.27818,37.53743],[-122.27818,37.537426],[-122.27836,37.537259],[-122.27852,37.537056],[-122.27866,37.536852],[-122.27866,37.536844],[-122.27874,37.536599],[-122.27875,37.536557],[-122.27874,37.536526],[-122.27874,37.536495],[-122.27874,37.536463],[-122.27873,37.536432],[-122.27873,37.536401],[-122.27872,37.53637],[-122.27871,37.53634],[-122.2787,37.536309],[-122.27869,37.536279],[-122.27868,37.536249],[-122.27866,37.53622],[-122.27865,37.536191],[-122.27863,37.536162],[-122.27861,37.536134],[-122.27859,37.536106],[-122.27857,37.536079],[-122.27856,37.536067],[-122.27855,37.536053],[-122.27854,37.536039],[-122.27853,37.536025],[-122.27851,37.536002],[-122.27718,37.534564],[-122.27718,37.534563],[-122.27714,37.534523],[-122.2767,37.534048],[-122.27666,37.534013],[-122.27659,37.53393],[-122.27654,37.53393],[-122.27637,37.53393],[-122.27472,37.533934],[-122.27337,37.533938],[-122.27162,37.533942],[-122.27011,37.533946],[-122.26987,37.533946],[-122.26974,37.533947],[-122.26965,37.533947],[-122.26951,37.533947],[-122.26942,37.533947],[-122.26937,37.533948],[-122.26931,37.533948],[-122.26921,37.533948],[-122.26913,37.533948],[-122.26907,37.533948],[-122.26902,37.533948],[-122.26891,37.533949],[-122.26878,37.533949],[-122.26869,37.533949],[-122.26857,37.53395],[-122.26847,37.53395],[-122.26842,37.53395],[-122.26836,37.53395],[-122.26826,37.53395],[-122.26816,37.533951],[-122.26807,37.533951],[-122.26795,37.533951],[-122.26785,37.533951],[-122.26779,37.533951],[-122.26772,37.533952],[-122.26761,37.533952],[-122.26751,37.533952],[-122.26745,37.533952],[-122.26735,37.533952],[-122.26721,37.533953],[-122.26691,37.533954],[-122.26635,37.533955],[-122.26611,37.533956],[-122.26503,37.533958],[-122.26463,37.533975],[-122.26442,37.533984],[-122.26386,37.533682],[-122.26295,37.533308],[-122.26197,37.533119],[-122.26116,37.533318],[-122.26097,37.533469],[-122.26086,37.533624],[-122.26062,37.533969],[-122.26058,37.534022],[-122.26058,37.534023],[-122.26055,37.534082],[-122.26054,37.534105],[-122.26045,37.534302],[-122.26046,37.534595],[-122.26024,37.534598]]],[[[-122.27942,37.559959],[-122.27942,37.560166],[-122.27943,37.561299],[-122.27942,37.55996],[-122.27942,37.559959]]]]}
}
]}
