{
"type": "FeatureCollection",
"name": "gilroy",
"crs": { "type": "name", "properties": { "name": "urn:ogc:def:crs:OGC:1.3:CRS84" } },
"features": [
{ "type": "Feature", "properties": { }, "geometry": { "type": "MultiLineString", "coordinates": [ [ [ -121.54963, 36.974784 ], [ -121.55024, 36.975136 ], [ -121.55072, 36.975488 ], [ -121.55104, 36.97568 ], [ -121.55155, 36.976064 ], [ -121.55181, 36.976288 ], [ -121.55194, 36.976352 ], [ -121.55203, 36.976384 ], [ -121.55216, 36.976416 ], [ -121.55238, 36.976416 ], [ -121.5528, 36.976288 ], [ -121.5529, 36.976256 ], [ -121.55318, 36.976224 ], [ -121.55418, 36.976064 ], [ -121.55437, 36.976064 ], [ -121.55446, 36.976032 ], [ -121.55533, 36.97616 ], [ -121.55539, 36.97616 ], [ -121.55542, 36.97616 ], [ -121.55546, 36.97616 ], [ -121.55549, 36.976192 ], [ -121.55562, 36.976256 ], [ -121.55568, 36.976288 ], [ -121.55572, 36.976288 ], [ -121.55574, 36.976288 ], [ -121.55575, 36.976309 ], [ -121.55578, 36.976352 ], [ -121.55584, 36.976512 ], [ -121.55584, 36.976544 ], [ -121.55613, 36.977216 ], [ -121.55635, 36.977632 ], [ -121.55651, 36.978016 ], [ -121.55757, 36.980192 ], [ -121.55798, 36.980928 ], [ -121.55824, 36.981472 ], [ -121.5583, 36.981632 ], [ -121.5584, 36.981881 ], [ -121.5584, 36.981888 ], [ -121.55846, 36.981863 ], [ -121.55862, 36.981792 ], [ -121.55888, 36.982496 ], [ -121.55891, 36.98256 ], [ -121.55907, 36.98304 ], [ -121.55917, 36.98352 ], [ -121.55923, 36.984096 ], [ -121.5593, 36.984672 ], [ -121.55933, 36.9848 ], [ -121.55936, 36.98512 ], [ -121.55946, 36.985408 ], [ -121.55952, 36.985632 ], [ -121.55962, 36.985856 ], [ -121.55971, 36.986112 ], [ -121.55978, 36.98624 ], [ -121.56, 36.986816 ], [ -121.56016, 36.987232 ], [ -121.56026, 36.987424 ], [ -121.56035, 36.987552 ], [ -121.56058, 36.987904 ], [ -121.5609, 36.98832 ], [ -121.56109, 36.988544 ], [ -121.56115, 36.98864 ], [ -121.56125, 36.988832 ], [ -121.56128, 36.98896 ], [ -121.56125, 36.989056 ], [ -121.56122, 36.98912 ], [ -121.56118, 36.98914 ], [ -121.56115, 36.989152 ], [ -121.56096, 36.989184 ], [ -121.56097, 36.989204 ], [ -121.56115, 36.989664 ], [ -121.56134, 36.990144 ], [ -121.56141, 36.990304 ], [ -121.56147, 36.990427 ], [ -121.56147, 36.990432 ], [ -121.56199, 36.990291 ], [ -121.56467, 36.989568 ], [ -121.56835, 36.989631 ], [ -121.56838, 36.989632 ], [ -121.56838, 36.989664 ], [ -121.56845, 36.989824 ], [ -121.56848, 36.989856 ], [ -121.56851, 36.989952 ], [ -121.56854, 36.989984 ], [ -121.56864, 36.99024 ], [ -121.56867, 36.990336 ], [ -121.5687, 36.990368 ], [ -121.56874, 36.990432 ], [ -121.56877, 36.990464 ], [ -121.56893, 36.990688 ], [ -121.56902, 36.990784 ], [ -121.56909, 36.990816 ], [ -121.56912, 36.990848 ], [ -121.56916, 36.990909 ], [ -121.56925, 36.99104 ], [ -121.56941, 36.991232 ], [ -121.56954, 36.991424 ], [ -121.56976, 36.991616 ], [ -121.57002, 36.991808 ], [ -121.57021, 36.991936 ], [ -121.57034, 36.992 ], [ -121.57053, 36.992 ], [ -121.57091, 36.992 ], [ -121.57126, 36.991968 ], [ -121.57146, 36.991968 ], [ -121.57162, 36.991936 ], [ -121.57171, 36.991936 ], [ -121.57181, 36.991904 ], [ -121.57203, 36.99184 ], [ -121.57226, 36.991776 ], [ -121.57238, 36.991725 ], [ -121.57242, 36.991712 ], [ -121.57264, 36.991616 ], [ -121.57281, 36.99156 ], [ -121.57282, 36.991558 ], [ -121.57283, 36.991552 ], [ -121.57295, 36.991494 ], [ -121.57328, 36.991328 ], [ -121.57334, 36.991264 ], [ -121.57341, 36.9912 ], [ -121.57344, 36.991136 ], [ -121.57344, 36.991134 ], [ -121.57347, 36.991072 ], [ -121.57347, 36.99104 ], [ -121.57347, 36.990978 ], [ -121.57347, 36.990976 ], [ -121.57347, 36.990784 ], [ -121.57347, 36.99056 ], [ -121.57347, 36.989952 ], [ -121.57347, 36.989344 ], [ -121.57347, 36.988939 ], [ -121.57347, 36.988928 ], [ -121.57347, 36.988832 ], [ -121.57347, 36.988576 ], [ -121.57347, 36.98848 ], [ -121.57347, 36.988352 ], [ -121.57347, 36.988032 ], [ -121.57344, 36.98792 ], [ -121.57344, 36.987904 ], [ -121.57344, 36.987788 ], [ -121.57344, 36.987776 ], [ -121.57344, 36.987392 ], [ -121.57344, 36.98726 ], [ -121.57344, 36.987232 ], [ -121.57344, 36.987072 ], [ -121.57344, 36.986592 ], [ -121.57344, 36.986432 ], [ -121.57344, 36.986272 ], [ -121.57344, 36.98624 ], [ -121.57344, 36.986016 ], [ -121.57344, 36.985856 ], [ -121.57344, 36.985696 ], [ -121.57344, 36.9856 ], [ -121.57344, 36.98536 ], [ -121.57344, 36.985344 ], [ -121.57344, 36.985312 ], [ -121.57344, 36.98523 ], [ -121.57344, 36.985216 ], [ -121.57344, 36.985088 ], [ -121.57344, 36.984672 ], [ -121.57344, 36.98455 ], [ -121.57344, 36.984544 ], [ -121.57344, 36.984192 ], [ -121.57344, 36.983904 ], [ -121.57341, 36.98336 ], [ -121.57341, 36.983136 ], [ -121.57341, 36.983104 ], [ -121.57344, 36.98281 ], [ -121.57344, 36.982784 ], [ -121.57341, 36.982763 ], [ -121.5729, 36.9824 ], [ -121.57248, 36.982048 ], [ -121.57219, 36.981792 ], [ -121.57206, 36.981696 ], [ -121.57152, 36.98112 ], [ -121.57123, 36.980768 ], [ -121.57098, 36.980416 ], [ -121.57066, 36.979936 ], [ -121.57046, 36.979648 ], [ -121.57002, 36.979008 ], [ -121.56941, 36.978048 ], [ -121.56852, 36.976743 ], [ -121.56851, 36.976736 ], [ -121.56854, 36.97664 ], [ -121.5686, 36.976498 ], [ -121.56864, 36.976384 ], [ -121.56866, 36.97631 ], [ -121.56867, 36.976288 ], [ -121.56874, 36.976288 ], [ -121.56895, 36.976319 ], [ -121.56896, 36.97632 ], [ -121.56897, 36.976316 ], [ -121.56902, 36.976288 ], [ -121.56909, 36.976384 ], [ -121.56912, 36.976448 ], [ -121.56925, 36.976672 ], [ -121.57008, 36.976512 ], [ -121.57085, 36.976544 ], [ -121.57171, 36.976768 ], [ -121.5729, 36.976928 ], [ -121.5745, 36.977664 ], [ -121.57447, 36.97769 ], [ -121.57408, 36.978048 ], [ -121.57409, 36.978056 ], [ -121.57417, 36.978109 ], [ -121.57418, 36.978112 ], [ -121.5742, 36.978092 ], [ -121.57421, 36.97808 ], [ -121.57472, 36.978432 ], [ -121.57486, 36.978297 ], [ -121.57488, 36.978272 ], [ -121.57488, 36.978267 ], [ -121.57494, 36.978208 ], [ -121.57498, 36.978176 ], [ -121.57498, 36.978169 ], [ -121.57504, 36.978112 ], [ -121.57508, 36.978078 ], [ -121.57519, 36.977994 ], [ -121.5752, 36.977984 ], [ -121.57532, 36.977892 ], [ -121.57533, 36.977888 ], [ -121.57635, 36.977856 ], [ -121.57741, 36.978432 ], [ -121.57821, 36.97888 ], [ -121.57846, 36.979104 ], [ -121.57853, 36.97904 ], [ -121.57891, 36.979264 ], [ -121.57928, 36.979479 ], [ -121.5793, 36.979488 ], [ -121.58, 36.978592 ], [ -121.58045, 36.978176 ], [ -121.5807, 36.978042 ], [ -121.58092, 36.977925 ], [ -121.58093, 36.97792 ], [ -121.58122, 36.977568 ], [ -121.58153, 36.977363 ], [ -121.58234, 36.976832 ], [ -121.58341, 36.976139 ], [ -121.58341, 36.976137 ], [ -121.58342, 36.976128 ], [ -121.58346, 36.976088 ], [ -121.58365, 36.975872 ], [ -121.584094375, 36.975556 ], [ -121.58423, 36.975401 ], [ -121.5849, 36.974656 ], [ -121.58529, 36.973954 ], [ -121.58537, 36.973803 ], [ -121.585377790143099, 36.973795977742427 ], [ -121.58538, 36.973792 ], [ -121.58608, 36.973152 ], [ -121.58645, 36.972733 ], [ -121.58677, 36.972363 ], [ -121.58678, 36.972352 ], [ -121.59091, 36.974592 ], [ -121.59738, 36.978112 ], [ -121.6056, 36.982528 ], [ -121.61661, 36.988576 ], [ -121.61661, 36.988577 ], [ -121.6241, 36.992736 ], [ -121.62419, 36.992735 ], [ -121.63981, 36.992544 ], [ -121.63965, 36.993376 ], [ -121.64118, 36.995712 ], [ -121.64355, 36.998272 ], [ -121.6421, 36.998899 ], [ -121.64074, 36.999488 ], [ -121.63936, 37.00016 ], [ -121.63936, 37.000165 ], [ -121.638830622760125, 37.002049062274985 ], [ -121.63875, 37.002346 ], [ -121.63867, 37.002574 ], [ -121.6385, 37.00304 ], [ -121.63795, 37.003616 ], [ -121.63702, 37.003834 ], [ -121.63699, 37.00384 ], [ -121.63684, 37.003948 ], [ -121.63664, 37.004096 ], [ -121.63517, 37.004096 ], [ -121.63274, 37.004096 ], [ -121.63264, 37.004192 ], [ -121.63258, 37.004332 ], [ -121.63258, 37.004352 ], [ -121.63254, 37.004576 ], [ -121.63235, 37.005024 ], [ -121.63227, 37.005128 ], [ -121.63226, 37.005152 ], [ -121.63225, 37.005178 ], [ -121.63225, 37.00518 ], [ -121.63222, 37.00532 ], [ -121.63222, 37.00544 ], [ -121.63216, 37.0056 ], [ -121.632, 37.005984 ], [ -121.63174, 37.006656 ], [ -121.63171, 37.00672 ], [ -121.63136, 37.007648 ], [ -121.63123, 37.007968 ], [ -121.63123, 37.008 ], [ -121.6312, 37.008064 ], [ -121.63118, 37.00807 ], [ -121.63101, 37.008128 ], [ -121.63059, 37.008288 ], [ -121.62931, 37.007936 ], [ -121.62931, 37.007943 ], [ -121.62906, 37.008448 ], [ -121.6297, 37.009888 ], [ -121.62992, 37.01056 ], [ -121.62992, 37.011712 ], [ -121.62992, 37.011936 ], [ -121.63002, 37.012 ], [ -121.63034, 37.012128 ], [ -121.63098, 37.012448 ], [ -121.63132, 37.012606 ], [ -121.63133, 37.012608 ], [ -121.63139, 37.01264 ], [ -121.63149, 37.012672 ], [ -121.63165, 37.012736 ], [ -121.63165, 37.01274 ], [ -121.63164, 37.01276 ], [ -121.63158, 37.012896 ], [ -121.63146, 37.013056 ], [ -121.63143, 37.01309 ], [ -121.63139, 37.013152 ], [ -121.63117, 37.01344 ], [ -121.63085, 37.013536 ], [ -121.6305, 37.013536 ], [ -121.6303, 37.01344 ], [ -121.63014, 37.013408 ], [ -121.62992, 37.013408 ], [ -121.62978, 37.013493 ], [ -121.62976, 37.013505 ], [ -121.62947, 37.013568 ], [ -121.62918, 37.013568 ], [ -121.62906, 37.013376 ], [ -121.62877, 37.013376 ], [ -121.62864, 37.01328 ], [ -121.62813, 37.012928 ], [ -121.62694, 37.01216 ], [ -121.62662, 37.01216 ], [ -121.62663, 37.012171 ], [ -121.62666, 37.012256 ], [ -121.62669, 37.012384 ], [ -121.62672, 37.01264 ], [ -121.62675, 37.013024 ], [ -121.62685, 37.013728 ], [ -121.62698, 37.014176 ], [ -121.62701, 37.014272 ], [ -121.62733, 37.014688 ], [ -121.62742, 37.014848 ], [ -121.62787, 37.015232 ], [ -121.62819, 37.015584 ], [ -121.62829, 37.01568 ], [ -121.62838, 37.015968 ], [ -121.62842, 37.01616 ], [ -121.62845, 37.01616 ], [ -121.62845, 37.016576 ], [ -121.62842, 37.017216 ], [ -121.62842, 37.017248 ], [ -121.62841, 37.017255 ], [ -121.62832, 37.017312 ], [ -121.62829, 37.017368 ], [ -121.62829, 37.017376 ], [ -121.62826, 37.01744 ], [ -121.62826, 37.017664 ], [ -121.628220307692303, 37.017854523076927 ], [ -121.62822, 37.01786 ], [ -121.62822, 37.01818 ], [ -121.62822, 37.018752 ], [ -121.62822, 37.019104 ], [ -121.62822, 37.01952 ], [ -121.62822, 37.019584 ], [ -121.62829, 37.02032 ], [ -121.62816, 37.02064 ], [ -121.6265, 37.020672 ], [ -121.62638, 37.020672 ], [ -121.62634, 37.020672 ], [ -121.62625, 37.02073 ], [ -121.62624, 37.020736 ], [ -121.62623, 37.020736 ], [ -121.62621, 37.020736 ], [ -121.62608, 37.020768 ], [ -121.62598, 37.0208 ], [ -121.62541, 37.020832 ], [ -121.62515, 37.020864 ], [ -121.62499, 37.020864 ], [ -121.62442, 37.020736 ], [ -121.62432, 37.020704 ], [ -121.62419, 37.02071 ], [ -121.62365, 37.020736 ], [ -121.62365, 37.020747 ], [ -121.62371, 37.021728 ], [ -121.62371, 37.022816 ], [ -121.62387, 37.027712 ], [ -121.62385, 37.027713 ], [ -121.61821, 37.027872 ], [ -121.61642, 37.027904 ], [ -121.61642, 37.027926 ], [ -121.61645, 37.028448 ], [ -121.61645, 37.02928 ], [ -121.61658, 37.03504 ], [ -121.61658, 37.035072 ], [ -121.61656, 37.035072 ], [ -121.61632, 37.035072 ], [ -121.61616, 37.035072 ], [ -121.61613, 37.035072 ], [ -121.6161, 37.035072 ], [ -121.61608, 37.035072 ], [ -121.6151, 37.035072 ], [ -121.61248, 37.035072 ], [ -121.61152, 37.035072 ], [ -121.6081, 37.035104 ], [ -121.60614, 37.035136 ], [ -121.60615, 37.035148 ], [ -121.60618, 37.03536 ], [ -121.60616, 37.03536 ], [ -121.60464, 37.035392 ], [ -121.60458, 37.035392 ], [ -121.60458, 37.035396 ], [ -121.60477, 37.038048 ], [ -121.6048, 37.038368 ], [ -121.6048, 37.03888 ], [ -121.60483, 37.039392 ], [ -121.60486, 37.03984 ], [ -121.60485, 37.039835 ], [ -121.60435, 37.03968 ], [ -121.60419, 37.039616 ], [ -121.60374, 37.039488 ], [ -121.60371, 37.039488 ], [ -121.60365, 37.039456 ], [ -121.60355, 37.039424 ], [ -121.60237, 37.039072 ], [ -121.60208, 37.039008 ], [ -121.60207, 37.039004 ], [ -121.60144, 37.038816 ], [ -121.59882, 37.038048 ], [ -121.59808, 37.037824 ], [ -121.59763, 37.037696 ], [ -121.59757, 37.03728 ], [ -121.59754, 37.037024 ], [ -121.59744, 37.036544 ], [ -121.59741, 37.036032 ], [ -121.59741, 37.035936 ], [ -121.59741, 37.03551 ], [ -121.59741, 37.035488 ], [ -121.59741, 37.035392 ], [ -121.59744, 37.035136 ], [ -121.59744, 37.035072 ], [ -121.59747, 37.034112 ], [ -121.59763, 37.03304 ], [ -121.59763, 37.033024 ], [ -121.5977, 37.032512 ], [ -121.59766, 37.03232 ], [ -121.59775, 37.031498 ], [ -121.59776, 37.03136 ], [ -121.59777, 37.031286 ], [ -121.59789, 37.030432 ], [ -121.59789, 37.030336 ], [ -121.59798, 37.029344 ], [ -121.59802, 37.028832 ], [ -121.59801, 37.028832 ], [ -121.59654, 37.028832 ], [ -121.59652, 37.028832 ], [ -121.59533, 37.028832 ], [ -121.59446, 37.0288 ], [ -121.59443, 37.027776 ], [ -121.59328, 37.027776 ], [ -121.59328, 37.027648 ], [ -121.59328, 37.027584 ], [ -121.59328, 37.027488 ], [ -121.59326, 37.027488 ], [ -121.59315, 37.027488 ], [ -121.59219, 37.027488 ], [ -121.59162, 37.02752 ], [ -121.59162, 37.027328 ], [ -121.59162, 37.02721 ], [ -121.59162, 37.0272 ], [ -121.59162, 37.027136 ], [ -121.59162, 37.026944 ], [ -121.59162, 37.026912 ], [ -121.59162, 37.026784 ], [ -121.5916, 37.026784 ], [ -121.59098, 37.026784 ], [ -121.59034, 37.026784 ], [ -121.59031, 37.025599 ], [ -121.5903, 37.025568 ], [ -121.59161, 37.025568 ], [ -121.59162, 37.025568 ], [ -121.59162, 37.025472 ], [ -121.59162, 37.02547 ], [ -121.59162, 37.02544 ], [ -121.59162, 37.025312 ], [ -121.59162, 37.025088 ], [ -121.59162, 37.025056 ], [ -121.59162, 37.02496 ], [ -121.59162, 37.024704 ], [ -121.5916, 37.024704 ], [ -121.58778, 37.024792 ], [ -121.58746, 37.0248 ], [ -121.58752, 37.0272 ], [ -121.58751, 37.0272 ], [ -121.5873, 37.0272 ], [ -121.58714, 37.0272 ], [ -121.58707, 37.0272 ], [ -121.58672, 37.0272 ], [ -121.58671, 37.027229 ], [ -121.58669, 37.027296 ], [ -121.58669, 37.0273 ], [ -121.58669, 37.027456 ], [ -121.58669, 37.027488 ], [ -121.58672, 37.027552 ], [ -121.58672, 37.027616 ], [ -121.58675, 37.027808 ], [ -121.58675, 37.02781 ], [ -121.58682, 37.027968 ], [ -121.58682, 37.028 ], [ -121.58704, 37.028576 ], [ -121.5872, 37.028928 ], [ -121.58733, 37.02928 ], [ -121.58749, 37.029728 ], [ -121.58755, 37.02992 ], [ -121.58771, 37.03024 ], [ -121.58771, 37.030272 ], [ -121.58784, 37.030496 ], [ -121.58794, 37.030816 ], [ -121.58835, 37.031872 ], [ -121.58848, 37.032192 ], [ -121.58851, 37.032224 ], [ -121.58854, 37.032256 ], [ -121.58861, 37.032288 ], [ -121.5887, 37.032288 ], [ -121.58874, 37.032288 ], [ -121.58912, 37.032288 ], [ -121.59008, 37.032288 ], [ -121.59034, 37.032288 ], [ -121.59053, 37.032288 ], [ -121.59053, 37.0323 ], [ -121.59053, 37.032896 ], [ -121.59062, 37.033728 ], [ -121.59075, 37.034496 ], [ -121.59072, 37.034499 ], [ -121.58947, 37.034624 ], [ -121.58945, 37.034625 ], [ -121.58893, 37.034656 ], [ -121.58893, 37.034528 ], [ -121.58747, 37.034718 ], [ -121.58746, 37.03472 ], [ -121.58744, 37.034723 ], [ -121.58738, 37.034731 ], [ -121.58653, 37.034848 ], [ -121.58651, 37.03485 ], [ -121.5831, 37.03536 ], [ -121.58311, 37.035368 ], [ -121.5833, 37.035712 ], [ -121.58342, 37.035968 ], [ -121.58365, 37.036416 ], [ -121.58374, 37.03664 ], [ -121.58403, 37.037152 ], [ -121.58432, 37.03776 ], [ -121.58445, 37.037952 ], [ -121.58458, 37.038208 ], [ -121.58515, 37.03808 ], [ -121.58532, 37.038051 ], [ -121.58533, 37.03805 ], [ -121.58534, 37.038048 ], [ -121.58554, 37.038006 ], [ -121.58694, 37.037696 ], [ -121.58755, 37.037568 ], [ -121.58755, 37.037573 ], [ -121.58781, 37.038176 ], [ -121.58806, 37.038688 ], [ -121.58819, 37.038944 ], [ -121.58912, 37.040768 ], [ -121.58908, 37.040776 ], [ -121.58778, 37.041077 ], [ -121.58746, 37.041152 ], [ -121.58697, 37.041252 ], [ -121.58669, 37.041312 ], [ -121.58621, 37.041408 ], [ -121.58621, 37.041421 ], [ -121.58624, 37.041472 ], [ -121.58634, 37.041696 ], [ -121.58669, 37.042368 ], [ -121.58678, 37.04256 ], [ -121.5872, 37.043328 ], [ -121.58723, 37.043392 ], [ -121.58736, 37.04368 ], [ -121.58845, 37.045824 ], [ -121.58883, 37.046528 ], [ -121.58992, 37.046304 ], [ -121.59146, 37.045984 ], [ -121.59414, 37.045408 ], [ -121.59415, 37.045407 ], [ -121.5944, 37.045344 ], [ -121.59533, 37.045152 ], [ -121.59616, 37.044992 ], [ -121.59645, 37.045568 ], [ -121.59686, 37.046336 ], [ -121.59696, 37.04656 ], [ -121.59695, 37.046563 ], [ -121.59526, 37.046912 ], [ -121.59402, 37.047168 ], [ -121.59322, 37.047328 ], [ -121.5905, 37.047904 ], [ -121.58963, 37.048096 ], [ -121.58962, 37.048102 ], [ -121.58961, 37.048108 ], [ -121.58957, 37.048128 ], [ -121.58955, 37.048128 ], [ -121.58954, 37.048128 ], [ -121.58938, 37.048192 ], [ -121.58931, 37.048224 ], [ -121.58887, 37.047316 ], [ -121.58886, 37.047296 ], [ -121.58883, 37.047264 ], [ -121.58733, 37.044352 ], [ -121.58685, 37.043392 ], [ -121.58666, 37.043008 ], [ -121.58608, 37.041888 ], [ -121.58589, 37.041536 ], [ -121.58589, 37.041535 ], [ -121.58528, 37.040416 ], [ -121.58518, 37.04016 ], [ -121.58454, 37.038912 ], [ -121.58374, 37.037376 ], [ -121.58307, 37.036064 ], [ -121.5824, 37.034688 ], [ -121.58221, 37.034336 ], [ -121.58214, 37.03424 ], [ -121.58166, 37.033344 ], [ -121.58166, 37.033312 ], [ -121.5815, 37.032992 ], [ -121.58148, 37.033001 ], [ -121.57811, 37.034175 ], [ -121.57728, 37.034464 ], [ -121.57728, 37.034462 ], [ -121.5768, 37.033536 ], [ -121.57574, 37.03392 ], [ -121.57571, 37.03393 ], [ -121.57472, 37.034272 ], [ -121.57473, 37.034294 ], [ -121.57478, 37.0344 ], [ -121.57546, 37.035712 ], [ -121.57597, 37.036704 ], [ -121.57603, 37.036768 ], [ -121.57604, 37.036785 ], [ -121.57651, 37.037824 ], [ -121.57693, 37.038592 ], [ -121.57747, 37.039712 ], [ -121.57757, 37.03968 ], [ -121.57776, 37.040128 ], [ -121.57792, 37.04048 ], [ -121.5776, 37.04096 ], [ -121.5775, 37.04112 ], [ -121.57741, 37.04128 ], [ -121.57725, 37.041536 ], [ -121.5776, 37.042432 ], [ -121.57773, 37.042752 ], [ -121.57811, 37.043584 ], [ -121.57809, 37.043602 ], [ -121.57808, 37.043616 ], [ -121.57795, 37.043648 ], [ -121.57794, 37.043652 ], [ -121.57757, 37.043744 ], [ -121.57755, 37.043747 ], [ -121.57741, 37.043776 ], [ -121.57738, 37.043808 ], [ -121.57728, 37.04352 ], [ -121.57658, 37.041952 ], [ -121.57635, 37.041664 ], [ -121.57629, 37.041408 ], [ -121.57626, 37.041344 ], [ -121.57613, 37.041056 ], [ -121.57603, 37.040864 ], [ -121.57581, 37.040288 ], [ -121.57571, 37.040128 ], [ -121.57568, 37.040032 ], [ -121.57485, 37.038432 ], [ -121.57469, 37.03808 ], [ -121.57431, 37.037355 ], [ -121.5743, 37.037344 ], [ -121.57427, 37.037354 ], [ -121.57389, 37.037472 ], [ -121.57347, 37.0376 ], [ -121.57264, 37.037888 ], [ -121.57238, 37.037952 ], [ -121.57226, 37.038016 ], [ -121.57219, 37.038016 ], [ -121.57206, 37.03808 ], [ -121.57203, 37.03808 ], [ -121.57204, 37.038093 ], [ -121.57216, 37.038272 ], [ -121.57235, 37.038624 ], [ -121.57248, 37.038848 ], [ -121.57251, 37.038912 ], [ -121.57222, 37.039001 ], [ -121.57136, 37.039264 ], [ -121.57089, 37.038472 ], [ -121.57088, 37.038464 ], [ -121.56807, 37.033703 ], [ -121.56806, 37.033696 ], [ -121.56714, 37.032141 ], [ -121.56714, 37.032128 ], [ -121.56867, 37.031552 ], [ -121.56964, 37.031177 ], [ -121.56966, 37.031168 ], [ -121.56963, 37.031104 ], [ -121.56925, 37.030464 ], [ -121.56886, 37.029792 ], [ -121.56851, 37.029216 ], [ -121.56849, 37.029225 ], [ -121.56837, 37.029268 ], [ -121.56598, 37.030144 ], [ -121.56406, 37.026912 ], [ -121.56269, 37.024576 ], [ -121.56267, 37.024582 ], [ -121.56184, 37.024899 ], [ -121.5583, 37.02624 ], [ -121.55831, 37.026255 ], [ -121.55955, 37.028416 ], [ -121.55804, 37.02897 ], [ -121.55587, 37.02976 ], [ -121.55434, 37.02714 ], [ -121.55434, 37.027136 ], [ -121.55424, 37.026955 ], [ -121.55424, 37.026944 ], [ -121.55718, 37.025856 ], [ -121.55821, 37.025472 ], [ -121.55904, 37.025152 ], [ -121.56203, 37.023976 ], [ -121.56205, 37.023968 ], [ -121.56013, 37.021435 ], [ -121.55965, 37.020801 ], [ -121.5552, 37.014912 ], [ -121.55457, 37.014313 ], [ -121.55456, 37.014304 ], [ -121.55745, 37.012846 ], [ -121.55747, 37.012832 ], [ -121.5569, 37.011833 ], [ -121.55683, 37.011712 ], [ -121.55667, 37.01152 ], [ -121.55632, 37.01104 ], [ -121.55629, 37.011052 ], [ -121.55578, 37.011264 ], [ -121.5555, 37.010956 ], [ -121.55549, 37.010944 ], [ -121.55523, 37.011072 ], [ -121.55514, 37.011136 ], [ -121.55511, 37.011151 ], [ -121.55488, 37.011264 ], [ -121.55443, 37.011488 ], [ -121.55304, 37.009687 ], [ -121.55302, 37.009664 ], [ -121.55283, 37.009696 ], [ -121.55264, 37.009696 ], [ -121.55258, 37.009696 ], [ -121.55245, 37.009664 ], [ -121.55229, 37.009664 ], [ -121.55194, 37.009664 ], [ -121.54819, 37.008576 ], [ -121.54685, 37.008192 ], [ -121.54598, 37.007968 ], [ -121.54394, 37.007392 ], [ -121.54339, 37.007232 ], [ -121.54253, 37.006976 ], [ -121.54182, 37.006784 ], [ -121.5415, 37.006464 ], [ -121.54106, 37.006176 ], [ -121.54032, 37.005728 ], [ -121.54013, 37.005536 ], [ -121.53994, 37.005312 ], [ -121.53968, 37.005056 ], [ -121.53942, 37.004832 ], [ -121.53904, 37.004576 ], [ -121.53827, 37.004064 ], [ -121.53798, 37.003712 ], [ -121.53783, 37.003397 ], [ -121.53782, 37.003392 ], [ -121.53791, 37.003328 ], [ -121.53795, 37.003296 ], [ -121.53793, 37.003198 ], [ -121.53792, 37.003168 ], [ -121.53757, 37.003168 ], [ -121.53702, 37.003168 ], [ -121.53645, 37.003104 ], [ -121.5359, 37.003008 ], [ -121.53533, 37.002912 ], [ -121.53485, 37.002816 ], [ -121.53453, 37.00272 ], [ -121.53455, 37.002623 ], [ -121.53456, 37.002604 ], [ -121.53456, 37.002592 ], [ -121.53459, 37.002336 ], [ -121.53459, 37.002112 ], [ -121.53466, 37.00192 ], [ -121.53469, 37.001861 ], [ -121.53475, 37.00176 ], [ -121.53485, 37.001652 ], [ -121.53507, 37.001408 ], [ -121.53526, 37.001184 ], [ -121.53546, 37.00096 ], [ -121.53562, 37.0008 ], [ -121.53571, 37.000576 ], [ -121.53571, 37.000448 ], [ -121.53574, 37.000416 ], [ -121.53571, 37.000192 ], [ -121.53568, 37.00016 ], [ -121.53565, 37.0 ], [ -121.53555, 36.999936 ], [ -121.53552, 36.999904 ], [ -121.53546, 36.999872 ], [ -121.53558, 36.999648 ], [ -121.53514, 36.99831 ], [ -121.53514, 36.998304 ], [ -121.53888, 36.998589 ], [ -121.53891, 36.998592 ], [ -121.5376, 36.995648 ], [ -121.5365, 36.993782 ], [ -121.53645, 36.993696 ], [ -121.5367, 36.993888 ], [ -121.5367, 36.99392 ], [ -121.53699, 36.994112 ], [ -121.53718, 36.99424 ], [ -121.53722, 36.994272 ], [ -121.53738, 36.994368 ], [ -121.53741, 36.9944 ], [ -121.53744, 36.9944 ], [ -121.5376, 36.994528 ], [ -121.53763, 36.994528 ], [ -121.53782, 36.994688 ], [ -121.53827, 36.995072 ], [ -121.53834, 36.995136 ], [ -121.5384, 36.995232 ], [ -121.53853, 36.995328 ], [ -121.53856, 36.995392 ], [ -121.53859, 36.995392 ], [ -121.53888, 36.99568 ], [ -121.53888, 36.995712 ], [ -121.53901, 36.995808 ], [ -121.5391, 36.995936 ], [ -121.53917, 36.996 ], [ -121.5392, 36.996032 ], [ -121.53923, 36.996096 ], [ -121.53933, 36.996224 ], [ -121.53939, 36.996256 ], [ -121.53952, 36.996384 ], [ -121.53958, 36.996448 ], [ -121.53962, 36.99648 ], [ -121.53974, 36.99664 ], [ -121.53978, 36.996672 ], [ -121.53981, 36.996704 ], [ -121.53984, 36.996768 ], [ -121.5399, 36.996832 ], [ -121.5399, 36.996864 ], [ -121.53994, 36.996896 ], [ -121.54, 36.996957 ], [ -121.54, 36.99696 ], [ -121.54336, 36.995264 ], [ -121.54367, 36.995105 ], [ -121.54506, 36.9944 ], [ -121.54518, 36.99456 ], [ -121.54618, 36.994061 ], [ -121.54626, 36.994022 ], [ -121.54627, 36.994016 ], [ -121.54621, 36.99392 ], [ -121.54608, 36.993728 ], [ -121.54592, 36.993568 ], [ -121.54589, 36.993536 ], [ -121.54574, 36.993334 ], [ -121.54573, 36.993312 ], [ -121.5489, 36.991744 ], [ -121.55081, 36.9908 ], [ -121.55098, 36.99072 ], [ -121.55099, 36.990713 ], [ -121.55106, 36.990661 ], [ -121.55107, 36.990656 ], [ -121.55104, 36.990624 ], [ -121.55101, 36.99056 ], [ -121.55091, 36.990432 ], [ -121.55088, 36.990368 ], [ -121.55078, 36.990272 ], [ -121.55072, 36.990208 ], [ -121.55056, 36.990016 ], [ -121.55037, 36.989728 ], [ -121.55024, 36.98957 ], [ -121.55024, 36.989568 ], [ -121.54992, 36.989152 ], [ -121.54963, 36.988768 ], [ -121.54938, 36.988448 ], [ -121.54922, 36.988256 ], [ -121.54912, 36.988096 ], [ -121.54902, 36.987968 ], [ -121.5487, 36.987584 ], [ -121.54858, 36.987424 ], [ -121.54829, 36.987072 ], [ -121.54803, 36.986784 ], [ -121.54746, 36.985984 ], [ -121.54707, 36.985504 ], [ -121.54678, 36.985152 ], [ -121.54666, 36.984995 ], [ -121.54666, 36.984992 ], [ -121.54582, 36.985184 ], [ -121.54518, 36.985408 ], [ -121.54422, 36.985664 ], [ -121.54346, 36.985856 ], [ -121.54336, 36.985888 ], [ -121.54256, 36.986112 ], [ -121.54237, 36.986176 ], [ -121.54218, 36.986208 ], [ -121.54195, 36.986272 ], [ -121.54166, 36.986336 ], [ -121.54109, 36.986464 ], [ -121.54099, 36.986496 ], [ -121.54088, 36.98654 ], [ -121.54083, 36.98656 ], [ -121.54081, 36.98656 ], [ -121.5407, 36.98656 ], [ -121.54064, 36.986528 ], [ -121.54048, 36.9864 ], [ -121.54038, 36.986272 ], [ -121.54026, 36.986208 ], [ -121.54013, 36.986208 ], [ -121.5401, 36.986234 ], [ -121.5401, 36.98624 ], [ -121.54, 36.986288 ], [ -121.53997, 36.986304 ], [ -121.53967, 36.986454 ], [ -121.53814, 36.987232 ], [ -121.53744, 36.98752 ], [ -121.53744, 36.987552 ], [ -121.53743, 36.98756 ], [ -121.53742, 36.987568 ], [ -121.53741, 36.987584 ], [ -121.53693, 36.98784 ], [ -121.53638, 36.988128 ], [ -121.53488, 36.988864 ], [ -121.5343, 36.98912 ], [ -121.53328, 36.9896 ], [ -121.53295, 36.989781 ], [ -121.53293, 36.989792 ], [ -121.5329, 36.989792 ], [ -121.53263, 36.98996 ], [ -121.53254, 36.990016 ], [ -121.53238, 36.9901 ], [ -121.53197, 36.990304 ], [ -121.5319, 36.990336 ], [ -121.53181, 36.9904 ], [ -121.53176, 36.99043 ], [ -121.53171, 36.990464 ], [ -121.53169, 36.990473 ], [ -121.53169, 36.990476 ], [ -121.53152, 36.99056 ], [ -121.53133, 36.990688 ], [ -121.53124, 36.990756 ], [ -121.5312, 36.990784 ], [ -121.53312, 36.994176 ], [ -121.53311, 36.994181 ], [ -121.53121, 36.994798 ], [ -121.53037, 36.995072 ], [ -121.53036, 36.995064 ], [ -121.53005, 36.994528 ], [ -121.52989, 36.994496 ], [ -121.52973, 36.9944 ], [ -121.52947, 36.994112 ], [ -121.52918, 36.993728 ], [ -121.52893, 36.99344 ], [ -121.52848, 36.993248 ], [ -121.52848, 36.993184 ], [ -121.52845, 36.992992 ], [ -121.52806, 36.9928 ], [ -121.52784, 36.992576 ], [ -121.52458, 36.988804 ], [ -121.52458, 36.9888 ], [ -121.52595, 36.987962 ], [ -121.52736, 36.987104 ], [ -121.52701, 36.98688 ], [ -121.52669, 36.986688 ], [ -121.52662, 36.986624 ], [ -121.52653, 36.98656 ], [ -121.52634, 36.986464 ], [ -121.52627, 36.9864 ], [ -121.52563, 36.985952 ], [ -121.52528, 36.985728 ], [ -121.52499, 36.985504 ], [ -121.5248, 36.985376 ], [ -121.52442, 36.985056 ], [ -121.52406, 36.984672 ], [ -121.52394, 36.984544 ], [ -121.52384, 36.984416 ], [ -121.52342, 36.983904 ], [ -121.52326, 36.983744 ], [ -121.52314, 36.983616 ], [ -121.52298, 36.983424 ], [ -121.52282, 36.983232 ], [ -121.52278, 36.983168 ], [ -121.52275, 36.983136 ], [ -121.52275, 36.983104 ], [ -121.52262, 36.983008 ], [ -121.52259, 36.982944 ], [ -121.5224, 36.98272 ], [ -121.52227, 36.982592 ], [ -121.52218, 36.982464 ], [ -121.52163, 36.981856 ], [ -121.5216, 36.981824 ], [ -121.52144, 36.981632 ], [ -121.52131, 36.981472 ], [ -121.52125, 36.981408 ], [ -121.52118, 36.981344 ], [ -121.52109, 36.981248 ], [ -121.52102, 36.981152 ], [ -121.52093, 36.981024 ], [ -121.5209, 36.981024 ], [ -121.52083, 36.98096 ], [ -121.5208, 36.980928 ], [ -121.52074, 36.980832 ], [ -121.52064, 36.980736 ], [ -121.52048, 36.980544 ], [ -121.52038, 36.980416 ], [ -121.51997, 36.98 ], [ -121.51958, 36.97952 ], [ -121.51955, 36.979488 ], [ -121.51942, 36.979392 ], [ -121.5193, 36.979232 ], [ -121.5191, 36.97904 ], [ -121.51904, 36.978944 ], [ -121.51885, 36.978752 ], [ -121.51878, 36.978688 ], [ -121.51869, 36.978624 ], [ -121.51901, 36.978432 ], [ -121.52211, 36.976704 ], [ -121.52282, 36.97632 ], [ -121.52317, 36.976128 ], [ -121.52432, 36.977408 ], [ -121.52499, 36.978299 ], [ -121.52499, 36.978304 ], [ -121.52521, 36.978099 ], [ -121.5257, 36.977632 ], [ -121.52851, 36.975072 ], [ -121.52989, 36.976288 ], [ -121.5319, 36.978048 ], [ -121.53056, 36.97904 ], [ -121.53334, 36.982176 ], [ -121.53347, 36.982336 ], [ -121.53709, 36.980352 ], [ -121.53837, 36.979623 ], [ -121.53892, 36.979312 ], [ -121.53894, 36.979296 ], [ -121.53933, 36.979296 ], [ -121.53943, 36.979227 ], [ -121.54346, 36.97648 ], [ -121.54374, 36.976224 ], [ -121.54386, 36.976224 ], [ -121.54387, 36.976224 ], [ -121.54388, 36.976223 ], [ -121.54403, 36.976192 ], [ -121.5441, 36.97616 ], [ -121.54422, 36.976096 ], [ -121.54432, 36.976032 ], [ -121.54506, 36.97552 ], [ -121.54723, 36.974016 ], [ -121.54766, 36.973702 ], [ -121.54793, 36.973507 ], [ -121.54794, 36.973504 ], [ -121.54816, 36.973792 ], [ -121.54832, 36.973984 ], [ -121.54848, 36.974112 ], [ -121.54864, 36.97424 ], [ -121.54906, 36.974464 ], [ -121.54909, 36.974496 ], [ -121.54963, 36.974784 ] ] ] } }
]
}
