{
"type": "FeatureCollection",
"name": "healdsburg",
"crs": { "type": "name", "properties": { "name": "urn:ogc:def:crs:OGC:1.3:CRS84" } },
"features": [
{ "type": "Feature", "properties": { }, "geometry": { "type": "MultiLineString", "coordinates": [ [ [ -122.86144, 38.581578 ], [ -122.86264, 38.581407 ], [ -122.86309, 38.581344 ], [ -122.86339, 38.581248 ], [ -122.8637, 38.581216 ], [ -122.8637, 38.58128 ], [ -122.86402, 38.581312 ], [ -122.86402, 38.581376 ], [ -122.86432, 38.581504 ], [ -122.8657, 38.581472 ], [ -122.86571, 38.581524 ], [ -122.86598, 38.582656 ], [ -122.86606, 38.582816 ], [ -122.86606, 38.582841 ], [ -122.86606, 38.582848 ], [ -122.86586, 38.582872 ], [ -122.86552, 38.582912 ], [ -122.86579, 38.58432 ], [ -122.86179, 38.584896 ], [ -122.86171, 38.584928 ], [ -122.86166, 38.58496 ], [ -122.86166, 38.584961 ], [ -122.86165, 38.584973 ], [ -122.86163, 38.584992 ], [ -122.86162, 38.584978 ], [ -122.86136, 38.584608 ], [ -122.86099, 38.583296 ], [ -122.86083, 38.58272 ], [ -122.8608, 38.582016 ], [ -122.86088, 38.581963 ], [ -122.8609, 38.581949 ], [ -122.86109, 38.581824 ], [ -122.86128, 38.5816 ], [ -122.86144, 38.581578 ] ], [ [ -122.85405, 38.624 ], [ -122.85392, 38.623887 ], [ -122.85391, 38.623883 ], [ -122.853900599173542, 38.62387083264462 ], [ -122.85371, 38.623712 ], [ -122.8533, 38.623392 ], [ -122.85326, 38.623353 ], [ -122.85318, 38.623264 ], [ -122.85312, 38.623328 ], [ -122.85306, 38.62336 ], [ -122.85301, 38.62336 ], [ -122.85296, 38.62336 ], [ -122.85291, 38.62336 ], [ -122.85286, 38.623392 ], [ -122.8528, 38.623392 ], [ -122.85275, 38.623392 ], [ -122.8527, 38.623392 ], [ -122.85264, 38.62336 ], [ -122.85259, 38.62336 ], [ -122.85251, 38.62336 ], [ -122.85246, 38.623328 ], [ -122.85242, 38.623328 ], [ -122.85238, 38.623296 ], [ -122.85234, 38.623264 ], [ -122.85229, 38.623232 ], [ -122.85226, 38.623232 ], [ -122.85222, 38.6232 ], [ -122.85218, 38.623136 ], [ -122.8521, 38.623072 ], [ -122.8519, 38.62288 ], [ -122.85179, 38.622784 ], [ -122.85166, 38.62272 ], [ -122.85138, 38.622688 ], [ -122.85134, 38.622688 ], [ -122.85131, 38.62272 ], [ -122.85128, 38.62272 ], [ -122.85126, 38.622752 ], [ -122.85123, 38.622752 ], [ -122.85106, 38.62288 ], [ -122.85101, 38.622912 ], [ -122.85096, 38.622976 ], [ -122.85091, 38.623008 ], [ -122.85088, 38.62304 ], [ -122.85085, 38.623072 ], [ -122.85082, 38.623104 ], [ -122.85074, 38.623168 ], [ -122.85072, 38.623168 ], [ -122.8507, 38.623168 ], [ -122.85069, 38.6232 ], [ -122.85066, 38.6232 ], [ -122.85064, 38.6232 ], [ -122.85062, 38.6232 ], [ -122.85059, 38.6232 ], [ -122.85058, 38.6232 ], [ -122.85056, 38.6232 ], [ -122.85038, 38.6232 ], [ -122.85034, 38.6232 ], [ -122.85029, 38.6232 ], [ -122.85024, 38.6232 ], [ -122.85019, 38.623168 ], [ -122.85018, 38.623249 ], [ -122.85016, 38.623328 ], [ -122.85005, 38.62384 ], [ -122.84986, 38.623823 ], [ -122.8497, 38.623808 ], [ -122.8495, 38.623808 ], [ -122.84933, 38.623424 ], [ -122.84932, 38.623424 ], [ -122.84931, 38.623424 ], [ -122.84928, 38.623392 ], [ -122.84925, 38.623371 ], [ -122.84915, 38.623296 ], [ -122.84912, 38.623296 ], [ -122.8491, 38.623328 ], [ -122.84909, 38.623328 ], [ -122.84906, 38.623328 ], [ -122.84904, 38.62336 ], [ -122.84902, 38.623392 ], [ -122.84901, 38.623392 ], [ -122.84896, 38.623456 ], [ -122.84893, 38.623488 ], [ -122.8489, 38.62352 ], [ -122.84886, 38.623584 ], [ -122.84882, 38.623616 ], [ -122.84877, 38.623648 ], [ -122.84874, 38.623648 ], [ -122.84872, 38.623648 ], [ -122.8487, 38.62368 ], [ -122.84869, 38.62368 ], [ -122.84867, 38.623712 ], [ -122.84864, 38.623744 ], [ -122.84864, 38.623776 ], [ -122.84864, 38.623808 ], [ -122.84864, 38.62384 ], [ -122.84866, 38.623872 ], [ -122.84869, 38.623936 ], [ -122.8487, 38.623968 ], [ -122.84875, 38.623968 ], [ -122.8488, 38.624 ], [ -122.84885, 38.624 ], [ -122.8489, 38.624 ], [ -122.84894, 38.624 ], [ -122.84907, 38.624 ], [ -122.84912, 38.624 ], [ -122.84915, 38.624 ], [ -122.84917, 38.624 ], [ -122.84918, 38.624032 ], [ -122.8492, 38.624032 ], [ -122.84922, 38.624064 ], [ -122.84922, 38.624096 ], [ -122.8492, 38.624096 ], [ -122.8492, 38.624128 ], [ -122.84918, 38.624128 ], [ -122.84915, 38.624128 ], [ -122.84914, 38.62416 ], [ -122.84904, 38.62416 ], [ -122.84894, 38.624128 ], [ -122.84886, 38.624128 ], [ -122.84882, 38.624128 ], [ -122.84874, 38.624096 ], [ -122.84866, 38.624096 ], [ -122.84858, 38.624096 ], [ -122.8485, 38.624096 ], [ -122.84843, 38.624128 ], [ -122.84824, 38.624174 ], [ -122.84816, 38.624192 ], [ -122.84808, 38.624192 ], [ -122.848, 38.624192 ], [ -122.84797, 38.62416 ], [ -122.8479, 38.62416 ], [ -122.84782, 38.624128 ], [ -122.84774, 38.624128 ], [ -122.84768, 38.624128 ], [ -122.84765, 38.624096 ], [ -122.84762, 38.624096 ], [ -122.84758, 38.624096 ], [ -122.84757, 38.624064 ], [ -122.84755, 38.624064 ], [ -122.84752, 38.624032 ], [ -122.84749, 38.624 ], [ -122.84746, 38.624 ], [ -122.84741, 38.623936 ], [ -122.84739, 38.623923 ], [ -122.84736, 38.623904 ], [ -122.8473, 38.62384 ], [ -122.8473, 38.62336 ], [ -122.84726, 38.62208 ], [ -122.84726, 38.62192 ], [ -122.84726, 38.620576 ], [ -122.84713, 38.620576 ], [ -122.84616, 38.620576 ], [ -122.84616, 38.620563 ], [ -122.84617, 38.620174 ], [ -122.84618, 38.620064 ], [ -122.84619, 38.619648 ], [ -122.8462, 38.619469 ], [ -122.84621, 38.619264 ], [ -122.84622, 38.61911 ], [ -122.84622, 38.618976 ], [ -122.84622, 38.618848 ], [ -122.84624, 38.618848 ], [ -122.84626, 38.618848 ], [ -122.84627, 38.6184 ], [ -122.84627, 38.618347 ], [ -122.84629, 38.618208 ], [ -122.84629, 38.618068 ], [ -122.84629, 38.61792 ], [ -122.8463, 38.617824 ], [ -122.84632, 38.6176 ], [ -122.84634, 38.617376 ], [ -122.8464, 38.616512 ], [ -122.8464, 38.616384 ], [ -122.8464, 38.616352 ], [ -122.8464, 38.616178 ], [ -122.8464, 38.616 ], [ -122.84642, 38.615808 ], [ -122.84643, 38.615264 ], [ -122.84643, 38.6152 ], [ -122.84645, 38.614976 ], [ -122.84648, 38.614977 ], [ -122.84744, 38.615008 ], [ -122.8475, 38.615008 ], [ -122.84764, 38.615018 ], [ -122.84777, 38.615028 ], [ -122.84794, 38.61504 ], [ -122.84814, 38.61504 ], [ -122.84835, 38.61504 ], [ -122.84856, 38.61501 ], [ -122.84858, 38.615008 ], [ -122.84858, 38.614752 ], [ -122.84857, 38.614742 ], [ -122.84856, 38.614464 ], [ -122.84838, 38.614464 ], [ -122.84826, 38.614479 ], [ -122.84813, 38.614496 ], [ -122.84818, 38.614464 ], [ -122.84821, 38.614436 ], [ -122.84858, 38.614144 ], [ -122.84858, 38.614121 ], [ -122.84858, 38.614114 ], [ -122.84858, 38.614112 ], [ -122.84859, 38.614112 ], [ -122.8486, 38.614103 ], [ -122.84861, 38.61408 ], [ -122.84865, 38.613999 ], [ -122.8487, 38.613888 ], [ -122.84866, 38.613318 ], [ -122.84866, 38.61328 ], [ -122.84874, 38.613204 ], [ -122.84877, 38.613184 ], [ -122.84875, 38.613184 ], [ -122.84848, 38.613184 ], [ -122.84834, 38.613184 ], [ -122.84797, 38.613184 ], [ -122.84778, 38.613184 ], [ -122.84723, 38.613184 ], [ -122.84722, 38.613184 ], [ -122.84699, 38.613184 ], [ -122.84654, 38.613184 ], [ -122.84651, 38.613184 ], [ -122.84557, 38.613184 ], [ -122.84557, 38.613345 ], [ -122.84557, 38.613472 ], [ -122.84539, 38.613632 ], [ -122.84528, 38.614176 ], [ -122.84526, 38.61424 ], [ -122.84514, 38.614592 ], [ -122.84498, 38.614592 ], [ -122.84425, 38.614558 ], [ -122.84358, 38.614528 ], [ -122.84362, 38.61392 ], [ -122.84365, 38.613344 ], [ -122.84373, 38.61328 ], [ -122.84381, 38.613216 ], [ -122.84385, 38.613171 ], [ -122.84387, 38.613152 ], [ -122.84405, 38.613152 ], [ -122.84406, 38.613152 ], [ -122.84403, 38.612768 ], [ -122.84402, 38.612704 ], [ -122.84389, 38.611872 ], [ -122.84398, 38.611872 ], [ -122.84414, 38.611872 ], [ -122.84414, 38.61184 ], [ -122.84411, 38.611296 ], [ -122.84408, 38.611291 ], [ -122.8439, 38.611264 ], [ -122.84382, 38.611264 ], [ -122.84378, 38.611264 ], [ -122.84373, 38.611264 ], [ -122.84368, 38.611264 ], [ -122.84362, 38.611264 ], [ -122.84357, 38.611296 ], [ -122.84352, 38.611296 ], [ -122.84347, 38.611328 ], [ -122.84341, 38.61136 ], [ -122.84336, 38.611392 ], [ -122.84333, 38.611424 ], [ -122.84328, 38.611424 ], [ -122.84325, 38.611456 ], [ -122.8432, 38.61152 ], [ -122.84317, 38.611552 ], [ -122.84314, 38.611584 ], [ -122.8431, 38.611616 ], [ -122.84309, 38.611648 ], [ -122.84306, 38.61168 ], [ -122.84304, 38.61168 ], [ -122.84302, 38.611712 ], [ -122.84301, 38.611744 ], [ -122.84299, 38.611734 ], [ -122.84274, 38.611552 ], [ -122.84271, 38.611542 ], [ -122.84254, 38.611488 ], [ -122.84326, 38.610592 ], [ -122.84339, 38.610389 ], [ -122.84361, 38.610032 ], [ -122.84379, 38.609728 ], [ -122.84426, 38.609376 ], [ -122.84435, 38.60928 ], [ -122.84432, 38.609701 ], [ -122.84429, 38.610176 ], [ -122.84499, 38.609989 ], [ -122.84501, 38.609984 ], [ -122.84592, 38.609729 ], [ -122.84592, 38.609728 ], [ -122.84658, 38.609536 ], [ -122.84683, 38.609504 ], [ -122.84707, 38.609472 ], [ -122.84714, 38.609461 ], [ -122.84728, 38.60944 ], [ -122.84734, 38.60944 ], [ -122.84744, 38.60944 ], [ -122.84757, 38.609416 ], [ -122.84762, 38.609408 ], [ -122.84765, 38.609408 ], [ -122.84779, 38.609408 ], [ -122.84797, 38.609376 ], [ -122.84799, 38.609372 ], [ -122.84814, 38.609344 ], [ -122.84826, 38.609344 ], [ -122.8483, 38.609344 ], [ -122.84837, 38.609333 ], [ -122.84848, 38.609312 ], [ -122.84872, 38.60928 ], [ -122.84886, 38.60928 ], [ -122.84893, 38.609243 ], [ -122.84906, 38.609166 ], [ -122.84909, 38.609152 ], [ -122.85018, 38.608961 ], [ -122.85074, 38.608864 ], [ -122.85074, 38.608738 ], [ -122.85074, 38.60864 ], [ -122.85102, 38.60864 ], [ -122.85192, 38.60864 ], [ -122.85192, 38.608454 ], [ -122.85192, 38.608448 ], [ -122.85219, 38.608456 ], [ -122.85301, 38.60848 ], [ -122.85352, 38.60848 ], [ -122.85352, 38.608403 ], [ -122.85352, 38.608384 ], [ -122.85403, 38.608384 ], [ -122.85475, 38.608384 ], [ -122.85483, 38.608384 ], [ -122.85566, 38.608412 ], [ -122.85578, 38.608416 ], [ -122.85578, 38.608411 ], [ -122.85578, 38.608288 ], [ -122.85447, 38.608 ], [ -122.85403, 38.607904 ], [ -122.85387, 38.607859 ], [ -122.85368, 38.607808 ], [ -122.8535, 38.607776 ], [ -122.8535, 38.608 ], [ -122.85192, 38.607655 ], [ -122.85189, 38.607648 ], [ -122.85186, 38.6072 ], [ -122.85191, 38.607189 ], [ -122.85262, 38.60704 ], [ -122.85262, 38.607027 ], [ -122.85262, 38.606976 ], [ -122.85268, 38.606968 ], [ -122.85328, 38.60688 ], [ -122.85328, 38.606841 ], [ -122.85325, 38.606336 ], [ -122.85293, 38.606336 ], [ -122.8529, 38.605856 ], [ -122.85288, 38.605632 ], [ -122.85288, 38.60544 ], [ -122.85285, 38.605056 ], [ -122.85285, 38.604928 ], [ -122.85283, 38.604768 ], [ -122.85283, 38.604608 ], [ -122.85289, 38.604599 ], [ -122.85323, 38.604544 ], [ -122.85405, 38.604407 ], [ -122.85419, 38.604384 ], [ -122.85462, 38.604326 ], [ -122.85467, 38.60432 ], [ -122.85468, 38.604318 ], [ -122.85562, 38.60416 ], [ -122.85546, 38.60384 ], [ -122.8553, 38.603616 ], [ -122.85542, 38.603592 ], [ -122.85581, 38.60352 ], [ -122.85591, 38.603478 ], [ -122.85603, 38.603424 ], [ -122.85585, 38.603353 ], [ -122.85563, 38.603264 ], [ -122.85549, 38.6032 ], [ -122.85536, 38.603136 ], [ -122.85523, 38.603072 ], [ -122.8551, 38.603008 ], [ -122.85498, 38.602944 ], [ -122.85485, 38.60288 ], [ -122.85474, 38.602816 ], [ -122.8547, 38.602784 ], [ -122.85461, 38.602752 ], [ -122.8545, 38.602688 ], [ -122.85438, 38.602592 ], [ -122.85426, 38.602528 ], [ -122.85414, 38.602464 ], [ -122.85403, 38.602368 ], [ -122.85392, 38.602304 ], [ -122.85381, 38.602208 ], [ -122.85371, 38.602144 ], [ -122.8536, 38.602048 ], [ -122.8535, 38.601984 ], [ -122.85339, 38.601888 ], [ -122.8533, 38.601792 ], [ -122.8532, 38.601696 ], [ -122.8531, 38.601632 ], [ -122.85301, 38.601536 ], [ -122.85293, 38.60144 ], [ -122.85283, 38.601344 ], [ -122.85275, 38.601248 ], [ -122.85266, 38.601152 ], [ -122.85258, 38.601056 ], [ -122.85242, 38.6008 ], [ -122.85224, 38.600512 ], [ -122.85206, 38.600224 ], [ -122.85152, 38.599008 ], [ -122.85138, 38.598624 ], [ -122.85133, 38.598496 ], [ -122.85131, 38.598464 ], [ -122.85122, 38.59824 ], [ -122.8512, 38.598152 ], [ -122.85118, 38.59808 ], [ -122.85064, 38.596704 ], [ -122.85018, 38.595648 ], [ -122.84933, 38.593696 ], [ -122.84912, 38.59312 ], [ -122.8528, 38.595003 ], [ -122.85298, 38.595091 ], [ -122.85419, 38.595712 ], [ -122.8557, 38.596448 ], [ -122.85631, 38.596745 ], [ -122.85802, 38.597568 ], [ -122.85798, 38.597602 ], [ -122.85775, 38.597836 ], [ -122.85773, 38.597856 ], [ -122.85887, 38.598482 ], [ -122.8589, 38.598496 ], [ -122.85886, 38.598528 ], [ -122.85893, 38.598592 ], [ -122.85894, 38.598592 ], [ -122.85945, 38.598899 ], [ -122.85958, 38.598976 ], [ -122.85971, 38.59904 ], [ -122.85972, 38.599029 ], [ -122.85979, 38.598944 ], [ -122.86008, 38.59904 ], [ -122.86054, 38.599232 ], [ -122.8608, 38.599328 ], [ -122.86099, 38.599392 ], [ -122.86106, 38.599424 ], [ -122.86114, 38.599456 ], [ -122.86144, 38.599616 ], [ -122.86158, 38.599712 ], [ -122.86205, 38.6 ], [ -122.86298, 38.60064 ], [ -122.86362, 38.601088 ], [ -122.86406, 38.601376 ], [ -122.86408, 38.601376 ], [ -122.8648, 38.601856 ], [ -122.86504, 38.60208 ], [ -122.86542, 38.60208 ], [ -122.8658, 38.60208 ], [ -122.8665, 38.60208 ], [ -122.86671, 38.60208 ], [ -122.86674, 38.60208 ], [ -122.86672, 38.601664 ], [ -122.86671, 38.601512 ], [ -122.86666, 38.60048 ], [ -122.86671, 38.600478 ], [ -122.86782, 38.600448 ], [ -122.86797, 38.600448 ], [ -122.86854, 38.600422 ], [ -122.86869, 38.600416 ], [ -122.86918, 38.600416 ], [ -122.86982, 38.600416 ], [ -122.87026, 38.600405 ], [ -122.87248, 38.600352 ], [ -122.87248, 38.600384 ], [ -122.87251, 38.602176 ], [ -122.86891, 38.602176 ], [ -122.86869, 38.602176 ], [ -122.86859, 38.602176 ], [ -122.86858, 38.602294 ], [ -122.86858, 38.602464 ], [ -122.86856, 38.602496 ], [ -122.86854, 38.602513 ], [ -122.8685, 38.60256 ], [ -122.86845, 38.602628 ], [ -122.8684, 38.60272 ], [ -122.86835, 38.602784 ], [ -122.86824, 38.602978 ], [ -122.86794, 38.603526 ], [ -122.86787, 38.603648 ], [ -122.86974, 38.604928 ], [ -122.87152, 38.606112 ], [ -122.8724, 38.606752 ], [ -122.87306, 38.607284 ], [ -122.87315, 38.60736 ], [ -122.8737, 38.607968 ], [ -122.87419, 38.608512 ], [ -122.87528, 38.609728 ], [ -122.87709, 38.611776 ], [ -122.87771, 38.612544 ], [ -122.87822, 38.613344 ], [ -122.87856, 38.614208 ], [ -122.8787, 38.61488 ], [ -122.8788, 38.615584 ], [ -122.87867, 38.618336 ], [ -122.87854, 38.620832 ], [ -122.8784, 38.623008 ], [ -122.87832, 38.624352 ], [ -122.87827, 38.625216 ], [ -122.87821, 38.626251 ], [ -122.87808, 38.628672 ], [ -122.87798, 38.630016 ], [ -122.87785, 38.632512 ], [ -122.8778, 38.633382 ], [ -122.87762, 38.635891 ], [ -122.87762, 38.635892 ], [ -122.87762, 38.635904 ], [ -122.87797, 38.636032 ], [ -122.87813, 38.636064 ], [ -122.87816, 38.636064 ], [ -122.87884, 38.636313 ], [ -122.87886, 38.63632 ], [ -122.87885, 38.63632 ], [ -122.87925, 38.636864 ], [ -122.87946, 38.63648 ], [ -122.8799, 38.63664 ], [ -122.88027, 38.636768 ], [ -122.88075, 38.636928 ], [ -122.88187, 38.63728 ], [ -122.88188, 38.637341 ], [ -122.88189, 38.637376 ], [ -122.88192, 38.637376 ], [ -122.88195, 38.637376 ], [ -122.88198, 38.637408 ], [ -122.88202, 38.637408 ], [ -122.88205, 38.63744 ], [ -122.88208, 38.63744 ], [ -122.88211, 38.63744 ], [ -122.88214, 38.637472 ], [ -122.88218, 38.637472 ], [ -122.88222, 38.637472 ], [ -122.88226, 38.637504 ], [ -122.88229, 38.637504 ], [ -122.88232, 38.637504 ], [ -122.88237, 38.637504 ], [ -122.8824, 38.637536 ], [ -122.88243, 38.637536 ], [ -122.88246, 38.637536 ], [ -122.88251, 38.637536 ], [ -122.88254, 38.637536 ], [ -122.88258, 38.637568 ], [ -122.88261, 38.637568 ], [ -122.88266, 38.637568 ], [ -122.88269, 38.637568 ], [ -122.88272, 38.637568 ], [ -122.88277, 38.637568 ], [ -122.8828, 38.637568 ], [ -122.88283, 38.637568 ], [ -122.88288, 38.637568 ], [ -122.88291, 38.637568 ], [ -122.88293, 38.637568 ], [ -122.88294, 38.637568 ], [ -122.88296, 38.637568 ], [ -122.88298, 38.637568 ], [ -122.88299, 38.637568 ], [ -122.88301, 38.637568 ], [ -122.88302, 38.637568 ], [ -122.88304, 38.637568 ], [ -122.88306, 38.637568 ], [ -122.88307, 38.637568 ], [ -122.88309, 38.637568 ], [ -122.8831, 38.637568 ], [ -122.88312, 38.637536 ], [ -122.88314, 38.637536 ], [ -122.88315, 38.637536 ], [ -122.88317, 38.637536 ], [ -122.88318, 38.637536 ], [ -122.8832, 38.637536 ], [ -122.8832, 38.637504 ], [ -122.88322, 38.637504 ], [ -122.88323, 38.637504 ], [ -122.88325, 38.637504 ], [ -122.88326, 38.637504 ], [ -122.88326, 38.637472 ], [ -122.88328, 38.637472 ], [ -122.8833, 38.637472 ], [ -122.88331, 38.637472 ], [ -122.88331, 38.63744 ], [ -122.88333, 38.63744 ], [ -122.88342, 38.637376 ], [ -122.88386, 38.637024 ], [ -122.88387, 38.637024 ], [ -122.88389, 38.636992 ], [ -122.8839, 38.636992 ], [ -122.88394, 38.63696 ], [ -122.88395, 38.63696 ], [ -122.88398, 38.636928 ], [ -122.884, 38.636928 ], [ -122.88402, 38.636896 ], [ -122.88405, 38.636896 ], [ -122.88406, 38.636864 ], [ -122.8841, 38.636864 ], [ -122.88411, 38.636864 ], [ -122.88414, 38.636832 ], [ -122.88416, 38.636832 ], [ -122.88419, 38.6368 ], [ -122.88421, 38.6368 ], [ -122.88427, 38.636776 ], [ -122.88429, 38.636768 ], [ -122.88506, 38.636416 ], [ -122.88528, 38.636288 ], [ -122.88533, 38.636352 ], [ -122.88552, 38.636794 ], [ -122.88563, 38.637056 ], [ -122.88593, 38.639116 ], [ -122.88594, 38.639168 ], [ -122.88576, 38.639232 ], [ -122.88526, 38.639456 ], [ -122.8848, 38.639648 ], [ -122.88462, 38.639712 ], [ -122.88427, 38.639872 ], [ -122.88371, 38.640096 ], [ -122.88312, 38.640352 ], [ -122.88254, 38.640608 ], [ -122.88221, 38.640757 ], [ -122.8819, 38.640896 ], [ -122.8819, 38.641056 ], [ -122.88192, 38.641504 ], [ -122.8819, 38.641664 ], [ -122.8819, 38.641696 ], [ -122.88192, 38.642432 ], [ -122.88186, 38.642432 ], [ -122.88045, 38.642432 ], [ -122.88033, 38.642432 ], [ -122.88024, 38.642432 ], [ -122.87958, 38.642432 ], [ -122.87944, 38.642432 ], [ -122.87872, 38.642432 ], [ -122.87839, 38.642454 ], [ -122.87822, 38.642464 ], [ -122.87739, 38.642452 ], [ -122.87597, 38.642432 ], [ -122.87563, 38.642432 ], [ -122.87512, 38.642432 ], [ -122.87506, 38.642432 ], [ -122.87288, 38.647552 ], [ -122.87279, 38.647552 ], [ -122.87241, 38.647552 ], [ -122.87173, 38.647552 ], [ -122.87142, 38.647552 ], [ -122.87059, 38.647552 ], [ -122.87002, 38.64754 ], [ -122.86912, 38.64752 ], [ -122.86896, 38.64752 ], [ -122.86886, 38.64752 ], [ -122.86867, 38.64752 ], [ -122.86858, 38.64752 ], [ -122.86855, 38.64752 ], [ -122.86838, 38.64752 ], [ -122.86829, 38.64752 ], [ -122.86819, 38.647968 ], [ -122.86818, 38.648064 ], [ -122.86818, 38.648096 ], [ -122.86818, 38.648128 ], [ -122.86816, 38.64816 ], [ -122.86816, 38.648192 ], [ -122.86816, 38.648224 ], [ -122.86816, 38.648256 ], [ -122.86818, 38.648256 ], [ -122.86818, 38.648288 ], [ -122.86818, 38.64832 ], [ -122.86818, 38.648352 ], [ -122.86818, 38.648384 ], [ -122.86819, 38.648384 ], [ -122.86819, 38.648416 ], [ -122.86821, 38.648448 ], [ -122.86821, 38.64848 ], [ -122.86822, 38.64848 ], [ -122.86822, 38.648512 ], [ -122.86824, 38.648544 ], [ -122.86826, 38.648576 ], [ -122.86827, 38.648608 ], [ -122.86829, 38.648608 ], [ -122.8683, 38.64864 ], [ -122.86832, 38.648672 ], [ -122.86834, 38.648704 ], [ -122.86835, 38.648704 ], [ -122.86837, 38.648736 ], [ -122.86838, 38.648768 ], [ -122.8684, 38.648768 ], [ -122.86842, 38.648768 ], [ -122.86842, 38.6488 ], [ -122.86843, 38.6488 ], [ -122.86845, 38.648832 ], [ -122.86846, 38.648832 ], [ -122.86848, 38.648832 ], [ -122.86877, 38.649472 ], [ -122.86878, 38.649504 ], [ -122.8688, 38.649536 ], [ -122.8688, 38.649568 ], [ -122.86882, 38.6496 ], [ -122.86882, 38.649632 ], [ -122.86882, 38.649664 ], [ -122.86883, 38.649695 ], [ -122.86883, 38.649696 ], [ -122.86795, 38.649696 ], [ -122.86786, 38.649694 ], [ -122.86626, 38.649664 ], [ -122.86576, 38.649664 ], [ -122.85499, 38.649605 ], [ -122.85411, 38.6496 ], [ -122.8541, 38.6496 ], [ -122.85411, 38.648956 ], [ -122.85411, 38.64848 ], [ -122.85418, 38.645056 ], [ -122.85418, 38.644416 ], [ -122.85418, 38.644411 ], [ -122.85419, 38.643904 ], [ -122.85422, 38.642336 ], [ -122.85549, 38.642322 ], [ -122.85722, 38.642304 ], [ -122.85745, 38.642304 ], [ -122.85862, 38.642304 ], [ -122.85869, 38.64224 ], [ -122.85875, 38.642176 ], [ -122.85883, 38.642144 ], [ -122.8589, 38.64208 ], [ -122.85898, 38.642016 ], [ -122.85906, 38.641952 ], [ -122.85912, 38.64192 ], [ -122.8592, 38.641856 ], [ -122.85928, 38.641792 ], [ -122.85936, 38.64176 ], [ -122.85944, 38.641696 ], [ -122.85952, 38.641664 ], [ -122.8596, 38.6416 ], [ -122.8597, 38.641568 ], [ -122.85978, 38.641504 ], [ -122.85986, 38.641472 ], [ -122.85995, 38.64144 ], [ -122.86003, 38.641376 ], [ -122.86013, 38.641344 ], [ -122.86021, 38.641312 ], [ -122.86022, 38.641312 ], [ -122.86022, 38.64128 ], [ -122.86024, 38.64128 ], [ -122.86026, 38.64128 ], [ -122.86027, 38.64128 ], [ -122.86029, 38.641248 ], [ -122.8603, 38.641248 ], [ -122.86032, 38.641248 ], [ -122.86034, 38.641216 ], [ -122.86035, 38.641216 ], [ -122.86037, 38.641216 ], [ -122.86037, 38.641184 ], [ -122.86038, 38.641184 ], [ -122.8604, 38.641184 ], [ -122.8605, 38.641056 ], [ -122.86051, 38.641056 ], [ -122.86053, 38.641024 ], [ -122.86054, 38.641024 ], [ -122.86056, 38.640992 ], [ -122.86059, 38.640992 ], [ -122.86061, 38.64096 ], [ -122.86062, 38.64096 ], [ -122.86064, 38.640928 ], [ -122.86066, 38.640928 ], [ -122.86069, 38.640896 ], [ -122.8607, 38.640896 ], [ -122.86072, 38.640896 ], [ -122.86075, 38.640864 ], [ -122.86077, 38.640864 ], [ -122.8608, 38.640832 ], [ -122.86082, 38.640832 ], [ -122.86083, 38.640832 ], [ -122.86083, 38.640768 ], [ -122.86085, 38.640416 ], [ -122.86085, 38.640256 ], [ -122.86086, 38.639392 ], [ -122.86086, 38.639168 ], [ -122.86086, 38.638688 ], [ -122.86142, 38.638688 ], [ -122.86222, 38.638688 ], [ -122.86455, 38.638688 ], [ -122.8647, 38.638688 ], [ -122.8647, 38.638912 ], [ -122.86469, 38.639168 ], [ -122.86467, 38.639583 ], [ -122.86467, 38.639616 ], [ -122.86595, 38.639616 ], [ -122.86655, 38.639616 ], [ -122.86658, 38.639616 ], [ -122.86653, 38.637856 ], [ -122.86653, 38.637757 ], [ -122.86653, 38.637664 ], [ -122.86645, 38.637664 ], [ -122.8663, 38.637664 ], [ -122.86475, 38.637664 ], [ -122.86475, 38.637024 ], [ -122.86477, 38.636736 ], [ -122.86477, 38.636448 ], [ -122.86479, 38.635887 ], [ -122.86481, 38.63496 ], [ -122.86482, 38.634912 ], [ -122.866158524271839, 38.634912 ], [ -122.866148656716447, 38.634875701492653 ], [ -122.866148656716462, 38.634875701492696 ], [ -122.86604, 38.634476 ], [ -122.865945896656484, 38.634135586625938 ], [ -122.865945896656498, 38.634135586626023 ], [ -122.865810666666292, 38.633646399998675 ], [ -122.86538, 38.632096 ], [ -122.86516, 38.631354 ], [ -122.86515, 38.631328 ], [ -122.86514, 38.631328 ], [ -122.8651, 38.631296 ], [ -122.86507, 38.631264 ], [ -122.86506, 38.631264 ], [ -122.86502, 38.631232 ], [ -122.86499, 38.631232 ], [ -122.86498, 38.6312 ], [ -122.86495, 38.631177 ], [ -122.86494, 38.631168 ], [ -122.86491, 38.631168 ], [ -122.86488, 38.631136 ], [ -122.86485, 38.631136 ], [ -122.86482, 38.631104 ], [ -122.86478, 38.631104 ], [ -122.86477, 38.631072 ], [ -122.86474, 38.631072 ], [ -122.8647, 38.63104 ], [ -122.86467, 38.63104 ], [ -122.86464, 38.631008 ], [ -122.86461, 38.631008 ], [ -122.86467, 38.631072 ], [ -122.86469, 38.631104 ], [ -122.86434, 38.631136 ], [ -122.86413, 38.631232 ], [ -122.86382, 38.631392 ], [ -122.86381, 38.631392 ], [ -122.86357, 38.631136 ], [ -122.86346, 38.631008 ], [ -122.86334, 38.630816 ], [ -122.8631, 38.630464 ], [ -122.86328, 38.6304 ], [ -122.86323, 38.630336 ], [ -122.86323, 38.630332 ], [ -122.86318, 38.630272 ], [ -122.86342, 38.630176 ], [ -122.86338, 38.630154 ], [ -122.86336, 38.630144 ], [ -122.86302, 38.630208 ], [ -122.86234, 38.6296 ], [ -122.86233, 38.62959 ], [ -122.86229, 38.629517 ], [ -122.86229, 38.629503 ], [ -122.86227, 38.629472 ], [ -122.86234, 38.62944 ], [ -122.86284, 38.629107 ], [ -122.86286, 38.629088 ], [ -122.86289, 38.629072 ], [ -122.86302, 38.62896 ], [ -122.86314, 38.628885 ], [ -122.86328, 38.6288 ], [ -122.86339, 38.628736 ], [ -122.86337, 38.628736 ], [ -122.86234, 38.628736 ], [ -122.86234, 38.628665 ], [ -122.86234, 38.628032 ], [ -122.86235, 38.627936 ], [ -122.86222, 38.627936 ], [ -122.86206, 38.627936 ], [ -122.86195, 38.627936 ], [ -122.86189, 38.627936 ], [ -122.86171, 38.627936 ], [ -122.86155, 38.627936 ], [ -122.86142, 38.627936 ], [ -122.86139, 38.627936 ], [ -122.86125, 38.627904 ], [ -122.86109, 38.627904 ], [ -122.86093, 38.627904 ], [ -122.86077, 38.627904 ], [ -122.86002, 38.627904 ], [ -122.85981, 38.627904 ], [ -122.85891, 38.627904 ], [ -122.85877, 38.627904 ], [ -122.85859, 38.627904 ], [ -122.85787, 38.627904 ], [ -122.85698, 38.627904 ], [ -122.85686, 38.627904 ], [ -122.85669, 38.627904 ], [ -122.8563, 38.627904 ], [ -122.85613, 38.627904 ], [ -122.85592, 38.627904 ], [ -122.85574, 38.627904 ], [ -122.85539, 38.627904 ], [ -122.85525, 38.627904 ], [ -122.85502, 38.627904 ], [ -122.85451, 38.627904 ], [ -122.85419, 38.627904 ], [ -122.85418, 38.627584 ], [ -122.85416, 38.627328 ], [ -122.85416, 38.6272 ], [ -122.85416, 38.627191 ], [ -122.85414, 38.626848 ], [ -122.85414, 38.626496 ], [ -122.85413, 38.626432 ], [ -122.85413, 38.626368 ], [ -122.85413, 38.62608 ], [ -122.85411, 38.625632 ], [ -122.8541, 38.625504 ], [ -122.85408, 38.625046 ], [ -122.85406, 38.624608 ], [ -122.85405, 38.624128 ], [ -122.85405, 38.624033 ], [ -122.85405, 38.624 ] ], [ [ -122.865810666667528, 38.633646400003101 ], [ -122.86518, 38.631365 ], [ -122.865810666666292, 38.633646399998675 ], [ -122.865810666667528, 38.633646400003101 ] ], [ [ -122.86066, 38.631744 ], [ -122.86016, 38.632083 ], [ -122.86014, 38.632096 ], [ -122.85947, 38.63128 ], [ -122.85901, 38.63072 ], [ -122.85927, 38.63052 ], [ -122.85952, 38.630336 ], [ -122.85956, 38.630385 ], [ -122.85992, 38.63083 ], [ -122.86066, 38.631744 ] ], [ [ -122.8568, 38.63248 ], [ -122.85679, 38.632483 ], [ -122.85672, 38.632512 ], [ -122.85669, 38.632448 ], [ -122.85677, 38.632419 ], [ -122.85678, 38.632416 ], [ -122.8568, 38.63248 ] ], [ [ -122.86421, 38.591168 ], [ -122.86454, 38.589792 ], [ -122.86562, 38.58976 ], [ -122.86605, 38.5912 ], [ -122.86488, 38.5912 ], [ -122.86421, 38.591168 ] ], [ [ -122.87864, 38.601312 ], [ -122.87886, 38.601176 ], [ -122.87936, 38.600864 ], [ -122.88085, 38.602079 ], [ -122.8812, 38.602368 ], [ -122.88182, 38.60288 ], [ -122.88243, 38.604352 ], [ -122.88241, 38.604356 ], [ -122.88227, 38.604384 ], [ -122.8811, 38.604736 ], [ -122.87864, 38.601312 ] ], [ [ -122.88158, 38.610914 ], [ -122.88157, 38.610907 ], [ -122.88117, 38.60924 ], [ -122.88115, 38.609184 ], [ -122.88162, 38.609888 ], [ -122.88189, 38.610944 ], [ -122.88187, 38.610949 ], [ -122.8816, 38.611008 ], [ -122.88158, 38.610914 ] ], [ [ -122.865945896656498, 38.634135586626023 ], [ -122.86604, 38.634476 ], [ -122.866148656716447, 38.634875701492653 ], [ -122.86606, 38.634592 ], [ -122.865945896656498, 38.634135586626023 ] ], [ [ -122.90183, 38.65429 ], [ -122.90161, 38.654727 ], [ -122.9016, 38.654752 ], [ -122.90208, 38.655296 ], [ -122.90187, 38.655424 ], [ -122.90283, 38.65648 ], [ -122.90283, 38.65684 ], [ -122.90283, 38.656864 ], [ -122.90273, 38.656865 ], [ -122.90018, 38.656896 ], [ -122.89996, 38.656387 ], [ -122.89971, 38.655776 ], [ -122.89978, 38.655759 ], [ -122.90019, 38.655648 ], [ -122.90012, 38.655568 ], [ -122.89493, 38.649696 ], [ -122.89502, 38.649644 ], [ -122.89622, 38.648992 ], [ -122.89872, 38.651808 ], [ -122.90043, 38.651712 ], [ -122.90048, 38.653216 ], [ -122.90187, 38.653216 ], [ -122.90189, 38.654176 ], [ -122.90183, 38.65429 ] ] ] } }
]
}
