{
"type": "FeatureCollection",
"name": "losaltos",
"crs": { "type": "name", "properties": { "name": "urn:ogc:def:crs:OGC:1.3:CRS84" } },
"features": [
{ "type": "Feature", "properties": { }, "geometry": { "type": "MultiLineString", "coordinates": [ [ [ -122.073647, 37.332047 ], [ -122.073669, 37.332034 ], [ -122.073695, 37.332019 ], [ -122.073723, 37.332003 ], [ -122.073752, 37.331988 ], [ -122.073781, 37.331974 ], [ -122.073811, 37.33196 ], [ -122.073841, 37.331948 ], [ -122.073872, 37.331936 ], [ -122.073904, 37.331926 ], [ -122.073936, 37.331916 ], [ -122.073968, 37.331906 ], [ -122.074001, 37.331899 ], [ -122.074034, 37.331892 ], [ -122.074067, 37.331885 ], [ -122.074101, 37.33188 ], [ -122.074134, 37.331876 ], [ -122.074168, 37.331872 ], [ -122.074202, 37.33187 ], [ -122.074237, 37.331868 ], [ -122.074271, 37.331867 ], [ -122.074305, 37.331869 ], [ -122.074339, 37.331868 ], [ -122.074373, 37.331871 ], [ -122.074441, 37.331878 ], [ -122.074475, 37.331883 ], [ -122.074508, 37.331889 ], [ -122.074529, 37.331894 ], [ -122.074574, 37.331904 ], [ -122.074607, 37.331913 ], [ -122.074639, 37.331922 ], [ -122.07467, 37.331932 ], [ -122.074693, 37.33194 ], [ -122.07481, 37.331982 ], [ -122.074734, 37.332092 ], [ -122.074854, 37.33218 ], [ -122.074768, 37.332303 ], [ -122.074551, 37.332579 ], [ -122.07456, 37.332589 ], [ -122.075824, 37.333354 ], [ -122.07595, 37.333367 ], [ -122.076069, 37.333379 ], [ -122.07617, 37.33339 ], [ -122.076311, 37.333411 ], [ -122.076295, 37.333541 ], [ -122.076281, 37.333658 ], [ -122.07735, 37.333884 ], [ -122.078098, 37.334084 ], [ -122.078616, 37.334267 ], [ -122.079123, 37.334505 ], [ -122.079356, 37.334637 ], [ -122.078975, 37.335027 ], [ -122.078843, 37.33517 ], [ -122.079297, 37.335432 ], [ -122.079851, 37.335752 ], [ -122.081041, 37.33646 ], [ -122.082225, 37.337165 ], [ -122.082393, 37.337263 ], [ -122.082395, 37.33723 ], [ -122.082426, 37.336836 ], [ -122.082443, 37.336602 ], [ -122.08246, 37.336393 ], [ -122.08286, 37.33667 ], [ -122.083166, 37.336886 ], [ -122.083582, 37.337179 ], [ -122.08371, 37.33727 ], [ -122.0847, 37.33791 ], [ -122.08548, 37.33835 ], [ -122.08711, 37.339289 ], [ -122.08765, 37.3396 ], [ -122.088311, 37.339951 ], [ -122.088576, 37.340092 ], [ -122.08908, 37.34036 ], [ -122.089382, 37.3405 ], [ -122.089656, 37.340627 ], [ -122.090053, 37.340811 ], [ -122.09104, 37.34127 ], [ -122.091239, 37.34138 ], [ -122.0916, 37.34158 ], [ -122.091622, 37.341595 ], [ -122.091608, 37.34161 ], [ -122.091481, 37.341729 ], [ -122.091414, 37.341794 ], [ -122.091388, 37.341819 ], [ -122.091278, 37.341901 ], [ -122.091083, 37.342052 ], [ -122.090887, 37.342085 ], [ -122.091004, 37.342291 ], [ -122.091007, 37.342367 ], [ -122.091008, 37.34239 ], [ -122.090983, 37.342382 ], [ -122.090921, 37.342536 ], [ -122.090678, 37.342722 ], [ -122.09084, 37.342822 ], [ -122.090676, 37.343099 ], [ -122.090712, 37.343238 ], [ -122.090307, 37.343443 ], [ -122.090383, 37.343563 ], [ -122.090526, 37.343788 ], [ -122.09048, 37.343977 ], [ -122.090527, 37.344091 ], [ -122.090594, 37.344255 ], [ -122.090381, 37.344338 ], [ -122.090232, 37.34448 ], [ -122.090214, 37.344621 ], [ -122.090187, 37.344816 ], [ -122.090072, 37.344853 ], [ -122.089905, 37.344909 ], [ -122.089875, 37.344921 ], [ -122.089719, 37.344969 ], [ -122.089585, 37.345005 ], [ -122.089427, 37.345029 ], [ -122.089412, 37.345156 ], [ -122.088906, 37.345604 ], [ -122.088828, 37.345802 ], [ -122.088512, 37.345871 ], [ -122.088136, 37.345932 ], [ -122.088058, 37.346132 ], [ -122.088014, 37.346253 ], [ -122.087973, 37.346264 ], [ -122.087673, 37.346324 ], [ -122.087613, 37.346389 ], [ -122.087576, 37.34643 ], [ -122.087549, 37.346459 ], [ -122.087504, 37.346509 ], [ -122.087499, 37.346797 ], [ -122.087531, 37.346824 ], [ -122.087503, 37.346933 ], [ -122.087482, 37.347017 ], [ -122.087457, 37.347117 ], [ -122.087429, 37.347226 ], [ -122.087411, 37.347296 ], [ -122.087293, 37.347283 ], [ -122.087212, 37.347274 ], [ -122.086975, 37.347247 ], [ -122.086791, 37.347347 ], [ -122.086696, 37.347635 ], [ -122.086595, 37.347948 ], [ -122.08645, 37.347941 ], [ -122.08619, 37.347928 ], [ -122.086195, 37.348216 ], [ -122.086084, 37.34835 ], [ -122.085642, 37.348544 ], [ -122.085626, 37.348646 ], [ -122.085855, 37.348849 ], [ -122.086013, 37.349175 ], [ -122.08591, 37.349357 ], [ -122.08583, 37.349498 ], [ -122.085786, 37.349582 ], [ -122.085726, 37.349695 ], [ -122.085652, 37.349826 ], [ -122.08599, 37.350195 ], [ -122.085968, 37.350275 ], [ -122.085914, 37.350474 ], [ -122.085739, 37.350787 ], [ -122.085669, 37.350889 ], [ -122.085598, 37.350985 ], [ -122.085538, 37.351068 ], [ -122.08562, 37.35113 ], [ -122.085943, 37.351386 ], [ -122.08615, 37.35155 ], [ -122.08673, 37.35199 ], [ -122.08701, 37.35222 ], [ -122.087167, 37.352331 ], [ -122.08746, 37.35254 ], [ -122.08758, 37.35264 ], [ -122.08816, 37.3531 ], [ -122.08922, 37.353897 ], [ -122.08941, 37.35404 ], [ -122.09253, 37.35647 ], [ -122.094123, 37.357693 ], [ -122.09537, 37.35865 ], [ -122.09576, 37.358957 ], [ -122.096011, 37.359154 ], [ -122.096128, 37.359247 ], [ -122.09617, 37.35928 ], [ -122.09675, 37.35972 ], [ -122.096772, 37.359738 ], [ -122.09702, 37.35994 ], [ -122.097178, 37.359919 ], [ -122.09725, 37.35991 ], [ -122.097652, 37.359848 ], [ -122.09777, 37.35983 ], [ -122.09781, 37.35982 ], [ -122.09793, 37.35976 ], [ -122.098002, 37.35971 ], [ -122.09812, 37.35963 ], [ -122.09847, 37.35934 ], [ -122.098522, 37.359297 ], [ -122.098696, 37.359159 ], [ -122.09872, 37.35914 ], [ -122.098825, 37.35905 ], [ -122.09885, 37.35903 ], [ -122.098988, 37.358917 ], [ -122.099217, 37.35873 ], [ -122.099348, 37.358624 ], [ -122.09939, 37.35859 ], [ -122.099486, 37.358509 ], [ -122.099648, 37.358373 ], [ -122.099771, 37.358474 ], [ -122.099827, 37.35852 ], [ -122.099991, 37.358651 ], [ -122.099922, 37.358792 ], [ -122.099911, 37.358815 ], [ -122.10012, 37.358975 ], [ -122.101128, 37.359746 ], [ -122.101284, 37.359865 ], [ -122.101405, 37.359963 ], [ -122.100977, 37.360318 ], [ -122.100732, 37.360521 ], [ -122.100555, 37.360668 ], [ -122.10014, 37.361012 ], [ -122.099826, 37.360782 ], [ -122.099735, 37.360849 ], [ -122.099539, 37.360914 ], [ -122.099426, 37.361065 ], [ -122.099402, 37.361219 ], [ -122.099408, 37.361237 ], [ -122.099372, 37.361268 ], [ -122.099278, 37.361345 ], [ -122.099079, 37.36151 ], [ -122.099331, 37.361705 ], [ -122.099432, 37.361784 ], [ -122.10006, 37.36227 ], [ -122.100477, 37.362598 ], [ -122.10081, 37.36286 ], [ -122.10198, 37.36376 ], [ -122.10279, 37.36437 ], [ -122.103625, 37.365027 ], [ -122.10373, 37.36511 ], [ -122.104676, 37.365836 ], [ -122.104818, 37.365892 ], [ -122.105247, 37.366063 ], [ -122.10539, 37.36612 ], [ -122.10549, 37.366162 ], [ -122.10579, 37.366288 ], [ -122.10589, 37.36633 ], [ -122.106007, 37.366205 ], [ -122.106359, 37.365831 ], [ -122.10638, 37.36581 ], [ -122.10648, 37.36571 ], [ -122.10684, 37.36537 ], [ -122.106853, 37.365357 ], [ -122.10742, 37.36487 ], [ -122.10779, 37.36456 ], [ -122.10797, 37.36441 ], [ -122.108029, 37.364361 ], [ -122.10843, 37.36404 ], [ -122.108463, 37.36401 ], [ -122.10853, 37.36395 ], [ -122.10856, 37.363919 ], [ -122.108592, 37.363888 ], [ -122.10866, 37.36382 ], [ -122.108745, 37.363852 ], [ -122.108865, 37.363903 ], [ -122.108874, 37.363911 ], [ -122.109383, 37.364338 ], [ -122.109438, 37.364385 ], [ -122.10949, 37.364347 ], [ -122.110712, 37.364445 ], [ -122.111441, 37.363918 ], [ -122.111823, 37.364457 ], [ -122.112212, 37.364743 ], [ -122.11227, 37.36472 ], [ -122.112434, 37.364611 ], [ -122.11259, 37.36451 ], [ -122.112843, 37.364332 ], [ -122.112873, 37.364359 ], [ -122.113072, 37.36454 ], [ -122.11335, 37.364765 ], [ -122.113557, 37.364892 ], [ -122.113865, 37.365048 ], [ -122.114277, 37.365209 ], [ -122.114483, 37.36528 ], [ -122.114517, 37.365288 ], [ -122.11458, 37.365303 ], [ -122.114816, 37.365377 ], [ -122.11538, 37.36557 ], [ -122.115438, 37.365599 ], [ -122.11552, 37.36564 ], [ -122.115679, 37.365459 ], [ -122.116157, 37.364917 ], [ -122.11619, 37.36488 ], [ -122.11633, 37.36475 ], [ -122.116397, 37.364786 ], [ -122.11646, 37.36482 ], [ -122.116593, 37.364907 ], [ -122.116658, 37.364949 ], [ -122.116957, 37.365142 ], [ -122.117147, 37.365254 ], [ -122.117512, 37.365454 ], [ -122.117632, 37.36552 ], [ -122.117674, 37.36554 ], [ -122.117701, 37.36555 ], [ -122.11772, 37.365571 ], [ -122.118122, 37.365945 ], [ -122.11824, 37.36609 ], [ -122.11832, 37.36618 ], [ -122.11841, 37.36625 ], [ -122.1185, 37.36629 ], [ -122.11864, 37.36632 ], [ -122.11887, 37.36633 ], [ -122.11935, 37.36633 ], [ -122.11939, 37.36632 ], [ -122.119733, 37.36632 ], [ -122.11987, 37.36632 ], [ -122.12024, 37.36628 ], [ -122.12048, 37.36624 ], [ -122.120847, 37.366165 ], [ -122.121341, 37.36729 ], [ -122.121897, 37.368569 ], [ -122.122164, 37.369176 ], [ -122.123053, 37.369064 ], [ -122.123467, 37.369012 ], [ -122.123123, 37.369318 ], [ -122.122373, 37.369657 ], [ -122.121518, 37.370402 ], [ -122.121233, 37.371004 ], [ -122.120777, 37.37167 ], [ -122.120496, 37.371535 ], [ -122.120445, 37.37151 ], [ -122.120314, 37.371598 ], [ -122.119486, 37.372154 ], [ -122.119579, 37.372332 ], [ -122.119626, 37.372425 ], [ -122.119945, 37.372578 ], [ -122.12017, 37.372686 ], [ -122.120421, 37.372969 ], [ -122.120542, 37.373474 ], [ -122.12062, 37.37353 ], [ -122.120581, 37.373576 ], [ -122.120328, 37.373876 ], [ -122.11993, 37.37378 ], [ -122.119817, 37.373959 ], [ -122.119704, 37.373966 ], [ -122.119583, 37.373973 ], [ -122.119504, 37.374105 ], [ -122.119446, 37.374341 ], [ -122.119561, 37.374442 ], [ -122.119698, 37.374493 ], [ -122.119731, 37.374521 ], [ -122.119851, 37.374618 ], [ -122.120078, 37.374563 ], [ -122.120114, 37.374664 ], [ -122.11995, 37.374895 ], [ -122.119871, 37.375153 ], [ -122.119914, 37.375261 ], [ -122.119931, 37.37543 ], [ -122.119883, 37.375495 ], [ -122.119797, 37.375511 ], [ -122.119721, 37.375524 ], [ -122.119539, 37.375762 ], [ -122.119573, 37.375817 ], [ -122.11965, 37.375855 ], [ -122.119807, 37.375932 ], [ -122.119689, 37.376084 ], [ -122.119726, 37.376153 ], [ -122.119788, 37.376209 ], [ -122.11991, 37.376262 ], [ -122.119964, 37.376359 ], [ -122.11991, 37.37641 ], [ -122.11978, 37.376425 ], [ -122.119704, 37.376515 ], [ -122.119773, 37.376646 ], [ -122.119749, 37.376699 ], [ -122.119587, 37.376906 ], [ -122.119583, 37.37705 ], [ -122.119659, 37.377141 ], [ -122.119899, 37.377088 ], [ -122.119915, 37.377084 ], [ -122.119963, 37.377073 ], [ -122.11998, 37.37707 ], [ -122.120078, 37.377124 ], [ -122.12018, 37.37718 ], [ -122.12038, 37.37731 ], [ -122.120363, 37.377355 ], [ -122.120195, 37.377763 ], [ -122.120015, 37.378203 ], [ -122.120134, 37.378402 ], [ -122.120041, 37.378569 ], [ -122.120032, 37.378576 ], [ -122.120068, 37.37861 ], [ -122.120261, 37.378647 ], [ -122.120406, 37.378635 ], [ -122.120476, 37.378629 ], [ -122.120507, 37.378643 ], [ -122.120517, 37.378764 ], [ -122.120545, 37.378814 ], [ -122.1206, 37.378829 ], [ -122.120655, 37.378843 ], [ -122.120709, 37.378859 ], [ -122.1208, 37.378954 ], [ -122.12086, 37.379015 ], [ -122.12101, 37.379085 ], [ -122.121328, 37.379054 ], [ -122.121541, 37.379246 ], [ -122.121647, 37.379304 ], [ -122.121769, 37.379369 ], [ -122.121862, 37.37942 ], [ -122.122052, 37.379522 ], [ -122.122134, 37.379567 ], [ -122.122299, 37.37964 ], [ -122.122464, 37.379714 ], [ -122.122508, 37.379736 ], [ -122.122661, 37.379824 ], [ -122.122784, 37.379839 ], [ -122.122908, 37.379803 ], [ -122.122983, 37.379781 ], [ -122.12319, 37.379722 ], [ -122.123288, 37.37981 ], [ -122.12344, 37.37995 ], [ -122.123495, 37.379981 ], [ -122.123557, 37.380052 ], [ -122.123646, 37.380135 ], [ -122.123844, 37.380318 ], [ -122.124002, 37.380465 ], [ -122.123774, 37.380561 ], [ -122.12369, 37.380596 ], [ -122.123648, 37.380614 ], [ -122.123633, 37.380621 ], [ -122.12361, 37.38063 ], [ -122.12334, 37.380744 ], [ -122.12308, 37.380853 ], [ -122.123186, 37.381111 ], [ -122.12325, 37.381269 ], [ -122.123257, 37.381285 ], [ -122.123233, 37.381381 ], [ -122.123457, 37.381376 ], [ -122.123524, 37.381364 ], [ -122.123598, 37.38135 ], [ -122.123654, 37.381337 ], [ -122.123773, 37.381362 ], [ -122.123874, 37.381345 ], [ -122.123928, 37.381327 ], [ -122.123998, 37.38133 ], [ -122.124226, 37.381314 ], [ -122.12423, 37.381343 ], [ -122.124256, 37.38133 ], [ -122.124274, 37.381276 ], [ -122.124328, 37.381257 ], [ -122.124491, 37.381271 ], [ -122.124615, 37.381332 ], [ -122.124796, 37.38144 ], [ -122.124888, 37.381572 ], [ -122.125067, 37.381773 ], [ -122.125347, 37.381802 ], [ -122.12547, 37.381998 ], [ -122.125451, 37.382237 ], [ -122.125301, 37.382432 ], [ -122.125375, 37.382538 ], [ -122.125461, 37.382626 ], [ -122.125548, 37.382871 ], [ -122.125509, 37.382906 ], [ -122.125446, 37.383123 ], [ -122.125481, 37.383194 ], [ -122.125543, 37.383299 ], [ -122.125577, 37.38337 ], [ -122.12557, 37.383417 ], [ -122.125564, 37.383458 ], [ -122.125516, 37.383513 ], [ -122.125426, 37.383579 ], [ -122.125227, 37.383629 ], [ -122.125171, 37.383634 ], [ -122.125154, 37.383646 ], [ -122.125123, 37.383651 ], [ -122.124999, 37.383684 ], [ -122.124847, 37.383716 ], [ -122.124671, 37.383877 ], [ -122.124478, 37.383918 ], [ -122.124415, 37.383932 ], [ -122.124299, 37.384007 ], [ -122.124334, 37.384162 ], [ -122.124361, 37.384274 ], [ -122.124294, 37.384318 ], [ -122.124315, 37.384629 ], [ -122.124257, 37.384627 ], [ -122.124182, 37.384761 ], [ -122.124119, 37.384865 ], [ -122.124109, 37.38489 ], [ -122.124214, 37.385025 ], [ -122.12436, 37.38521 ], [ -122.124535, 37.385428 ], [ -122.124643, 37.385562 ], [ -122.12497, 37.38597 ], [ -122.125, 37.386 ], [ -122.125047, 37.386059 ], [ -122.12604, 37.38731 ], [ -122.126239, 37.387568 ], [ -122.12659, 37.38802 ], [ -122.126514, 37.388127 ], [ -122.126344, 37.388364 ], [ -122.126386, 37.38838 ], [ -122.126468, 37.388508 ], [ -122.126714, 37.388892 ], [ -122.126604, 37.388977 ], [ -122.126436, 37.389103 ], [ -122.126307, 37.389202 ], [ -122.126263, 37.389283 ], [ -122.12621, 37.389377 ], [ -122.126216, 37.389407 ], [ -122.126278, 37.389456 ], [ -122.126458, 37.389528 ], [ -122.126594, 37.389583 ], [ -122.126705, 37.389627 ], [ -122.126808, 37.389605 ], [ -122.126972, 37.389672 ], [ -122.126977, 37.389829 ], [ -122.126801, 37.390159 ], [ -122.127091, 37.390407 ], [ -122.127167, 37.390507 ], [ -122.127286, 37.39083 ], [ -122.127307, 37.390983 ], [ -122.127429, 37.39137 ], [ -122.127394, 37.391435 ], [ -122.127355, 37.391508 ], [ -122.12731, 37.391593 ], [ -122.12733, 37.391638 ], [ -122.127454, 37.391726 ], [ -122.127632, 37.391687 ], [ -122.127681, 37.391677 ], [ -122.127805, 37.391688 ], [ -122.127883, 37.391711 ], [ -122.127902, 37.39179 ], [ -122.127978, 37.391822 ], [ -122.12805, 37.391796 ], [ -122.128202, 37.391811 ], [ -122.128281, 37.391862 ], [ -122.128333, 37.391944 ], [ -122.128373, 37.392084 ], [ -122.12835, 37.392157 ], [ -122.128339, 37.392209 ], [ -122.12816, 37.392409 ], [ -122.128029, 37.392576 ], [ -122.127926, 37.392675 ], [ -122.127885, 37.392716 ], [ -122.127615, 37.392851 ], [ -122.127611, 37.392862 ], [ -122.127471, 37.393279 ], [ -122.127398, 37.393484 ], [ -122.127418, 37.393534 ], [ -122.127433, 37.393544 ], [ -122.127549, 37.393624 ], [ -122.127682, 37.393649 ], [ -122.127713, 37.393656 ], [ -122.127838, 37.393711 ], [ -122.127886, 37.393781 ], [ -122.127895, 37.393842 ], [ -122.127822, 37.393939 ], [ -122.127702, 37.394051 ], [ -122.127622, 37.394155 ], [ -122.127564, 37.39423 ], [ -122.127531, 37.394274 ], [ -122.127527, 37.394358 ], [ -122.127559, 37.394422 ], [ -122.127575, 37.394501 ], [ -122.127643, 37.394526 ], [ -122.127682, 37.39454 ], [ -122.128017, 37.39466 ], [ -122.128151, 37.39462 ], [ -122.128212, 37.394585 ], [ -122.128307, 37.394528 ], [ -122.128347, 37.394545 ], [ -122.128367, 37.394584 ], [ -122.128415, 37.394864 ], [ -122.12845, 37.394985 ], [ -122.128502, 37.395138 ], [ -122.128648, 37.395157 ], [ -122.128845, 37.395193 ], [ -122.128911, 37.395367 ], [ -122.129131, 37.395391 ], [ -122.129255, 37.395299 ], [ -122.129441, 37.39516 ], [ -122.129654, 37.395115 ], [ -122.129627, 37.395291 ], [ -122.129479, 37.395559 ], [ -122.129497, 37.395704 ], [ -122.129565, 37.395848 ], [ -122.129417, 37.395996 ], [ -122.129492, 37.396151 ], [ -122.129366, 37.396203 ], [ -122.129237, 37.396258 ], [ -122.129132, 37.396257 ], [ -122.129103, 37.396067 ], [ -122.12903, 37.396024 ], [ -122.128961, 37.395982 ], [ -122.128803, 37.395888 ], [ -122.128748, 37.395897 ], [ -122.128712, 37.395902 ], [ -122.128572, 37.395926 ], [ -122.128335, 37.395797 ], [ -122.128177, 37.395779 ], [ -122.128103, 37.395771 ], [ -122.127986, 37.395953 ], [ -122.128104, 37.39604 ], [ -122.128238, 37.396132 ], [ -122.128276, 37.396362 ], [ -122.128493, 37.396454 ], [ -122.12824, 37.39661 ], [ -122.128074, 37.396611 ], [ -122.127965, 37.396614 ], [ -122.127946, 37.396709 ], [ -122.12793, 37.3968 ], [ -122.127839, 37.396914 ], [ -122.127771, 37.397148 ], [ -122.127682, 37.39712 ], [ -122.127698, 37.396893 ], [ -122.127626, 37.39683 ], [ -122.127437, 37.396927 ], [ -122.127384, 37.397018 ], [ -122.127101, 37.397136 ], [ -122.127089, 37.397361 ], [ -122.12708, 37.397413 ], [ -122.126967, 37.39757 ], [ -122.126703, 37.397794 ], [ -122.126567, 37.397887 ], [ -122.126417, 37.397988 ], [ -122.126209, 37.398187 ], [ -122.12609, 37.398226 ], [ -122.126029, 37.398246 ], [ -122.125931, 37.398277 ], [ -122.125791, 37.39832 ], [ -122.125632, 37.398369 ], [ -122.125519, 37.398403 ], [ -122.125413, 37.398496 ], [ -122.125535, 37.398753 ], [ -122.125504, 37.398843 ], [ -122.125344, 37.398975 ], [ -122.125201, 37.399007 ], [ -122.12505, 37.399041 ], [ -122.124828, 37.399206 ], [ -122.124913, 37.399364 ], [ -122.124895, 37.399528 ], [ -122.124886, 37.399615 ], [ -122.12488, 37.399671 ], [ -122.124964, 37.399922 ], [ -122.125104, 37.400042 ], [ -122.125131, 37.400131 ], [ -122.125012, 37.400319 ], [ -122.124928, 37.400501 ], [ -122.1249, 37.400838 ], [ -122.124856, 37.400986 ], [ -122.124783, 37.401081 ], [ -122.124526, 37.401241 ], [ -122.124471, 37.401268 ], [ -122.124415, 37.401346 ], [ -122.124339, 37.401453 ], [ -122.124192, 37.401745 ], [ -122.124177, 37.401755 ], [ -122.124119, 37.401883 ], [ -122.123963, 37.402228 ], [ -122.123805, 37.402328 ], [ -122.123715, 37.402385 ], [ -122.123654, 37.402423 ], [ -122.123574, 37.402474 ], [ -122.123574, 37.402584 ], [ -122.123574, 37.402844 ], [ -122.123494, 37.402991 ], [ -122.123357, 37.403244 ], [ -122.123311, 37.403334 ], [ -122.123185, 37.403289 ], [ -122.123134, 37.40327 ], [ -122.123058, 37.403314 ], [ -122.122988, 37.403353 ], [ -122.122806, 37.403457 ], [ -122.122711, 37.403573 ], [ -122.122751, 37.403676 ], [ -122.122819, 37.40385 ], [ -122.12273, 37.403981 ], [ -122.122719, 37.40399 ], [ -122.122554, 37.404055 ], [ -122.12241, 37.404261 ], [ -122.122123, 37.404376 ], [ -122.122047, 37.404406 ], [ -122.12199, 37.40449 ], [ -122.121983, 37.404787 ], [ -122.121718, 37.404932 ], [ -122.121662, 37.404961 ], [ -122.121614, 37.40502 ], [ -122.121499, 37.405189 ], [ -122.121338, 37.405414 ], [ -122.121139, 37.405377 ], [ -122.12108, 37.405391 ], [ -122.120967, 37.40548 ], [ -122.120922, 37.405515 ], [ -122.120784, 37.40552 ], [ -122.120589, 37.405586 ], [ -122.120548, 37.405599 ], [ -122.120439, 37.405635 ], [ -122.120047, 37.405942 ], [ -122.12005, 37.40609 ], [ -122.120053, 37.406258 ], [ -122.120004, 37.406351 ], [ -122.119941, 37.406425 ], [ -122.11966, 37.4061 ], [ -122.11946, 37.4059 ], [ -122.11914, 37.40559 ], [ -122.11852, 37.40505 ], [ -122.1181, 37.40469 ], [ -122.11798, 37.40458 ], [ -122.117724, 37.404365 ], [ -122.117622, 37.404279 ], [ -122.11723, 37.40395 ], [ -122.11684, 37.40363 ], [ -122.11679, 37.40359 ], [ -122.11624, 37.4031 ], [ -122.11584, 37.40276 ], [ -122.11561, 37.40255 ], [ -122.115416, 37.402402 ], [ -122.11531, 37.40232 ], [ -122.11512, 37.40222 ], [ -122.11484, 37.40203 ], [ -122.11475, 37.40199 ], [ -122.11396, 37.40156 ], [ -122.11358, 37.40134 ], [ -122.11351, 37.4013 ], [ -122.11344, 37.40127 ], [ -122.11288, 37.40095 ], [ -122.11212, 37.40054 ], [ -122.11139, 37.40016 ], [ -122.11116, 37.40004 ], [ -122.11037, 37.39961 ], [ -122.10991, 37.39938 ], [ -122.10948, 37.39917 ], [ -122.10853, 37.39875 ], [ -122.10818, 37.3986 ], [ -122.10733, 37.39823 ], [ -122.10718, 37.39817 ], [ -122.10628, 37.39777 ], [ -122.10587, 37.39758 ], [ -122.10584, 37.39757 ], [ -122.10515, 37.39726 ], [ -122.10489, 37.39714 ], [ -122.10469, 37.39705 ], [ -122.10405, 37.39678 ], [ -122.10316, 37.3964 ], [ -122.10301, 37.39633 ], [ -122.10249, 37.3961 ], [ -122.1023, 37.39602 ], [ -122.10188, 37.39583 ], [ -122.10155, 37.39568 ], [ -122.101163, 37.395509 ], [ -122.101013, 37.395442 ], [ -122.101116, 37.395307 ], [ -122.101168, 37.395236 ], [ -122.101372, 37.394938 ], [ -122.101497, 37.394759 ], [ -122.101838, 37.394273 ], [ -122.102055, 37.393959 ], [ -122.102582, 37.393205 ], [ -122.102632, 37.393123 ], [ -122.102736, 37.392988 ], [ -122.103062, 37.392535 ], [ -122.103335, 37.392156 ], [ -122.103741, 37.391585 ], [ -122.104131, 37.391038 ], [ -122.10417, 37.390982 ], [ -122.104784, 37.39011 ], [ -122.105226, 37.389471 ], [ -122.105403, 37.389274 ], [ -122.105563, 37.389011 ], [ -122.105795, 37.388665 ], [ -122.105825, 37.388621 ], [ -122.105779, 37.38862 ], [ -122.105677, 37.388617 ], [ -122.10509, 37.3886 ], [ -122.104672, 37.388609 ], [ -122.10456, 37.388612 ], [ -122.104338, 37.388618 ], [ -122.10432, 37.388618 ], [ -122.104267, 37.388619 ], [ -122.10425, 37.38862 ], [ -122.104084, 37.388623 ], [ -122.10374, 37.38863 ], [ -122.103586, 37.38863 ], [ -122.10342, 37.38863 ], [ -122.103294, 37.388632 ], [ -122.102916, 37.388638 ], [ -122.10279, 37.38864 ], [ -122.102674, 37.38864 ], [ -122.102326, 37.38864 ], [ -122.10221, 37.38864 ], [ -122.101071, 37.388669 ], [ -122.100789, 37.388668 ], [ -122.099999, 37.388665 ], [ -122.0997, 37.388664 ], [ -122.099228, 37.388663 ], [ -122.097842, 37.388656 ], [ -122.097354, 37.388652 ], [ -122.097082, 37.38865 ], [ -122.096766, 37.388647 ], [ -122.096274, 37.38864 ], [ -122.096073, 37.38864 ], [ -122.096002, 37.388637 ], [ -122.096006, 37.388547 ], [ -122.09601, 37.38849 ], [ -122.09601, 37.388279 ], [ -122.09601, 37.38819 ], [ -122.096017, 37.388007 ], [ -122.096007, 37.387461 ], [ -122.096, 37.38728 ], [ -122.096002, 37.387212 ], [ -122.096008, 37.387008 ], [ -122.09601, 37.38694 ], [ -122.096016, 37.386842 ], [ -122.09602, 37.38678 ], [ -122.096012, 37.386548 ], [ -122.09601, 37.38645 ], [ -122.096, 37.386266 ], [ -122.09599, 37.38608 ], [ -122.095976, 37.385716 ], [ -122.09598, 37.3857 ], [ -122.09598, 37.38553 ], [ -122.09598, 37.385312 ], [ -122.09598, 37.38499 ], [ -122.095983, 37.384675 ], [ -122.095233, 37.38467 ], [ -122.093064, 37.384659 ], [ -122.092371, 37.384655 ], [ -122.092039, 37.384653 ], [ -122.091747, 37.384651 ], [ -122.090976, 37.384647 ], [ -122.09076, 37.384645 ], [ -122.090759, 37.384073 ], [ -122.090705, 37.384072 ], [ -122.09056, 37.38407 ], [ -122.090543, 37.384067 ], [ -122.09044, 37.38405 ], [ -122.090434, 37.384061 ], [ -122.090418, 37.384096 ], [ -122.090413, 37.384108 ], [ -122.09035, 37.38424 ], [ -122.090339, 37.384268 ], [ -122.090287, 37.384402 ], [ -122.09027, 37.38445 ], [ -122.09024, 37.38456 ], [ -122.090239, 37.384573 ], [ -122.089548, 37.384576 ], [ -122.089516, 37.384576 ], [ -122.089514, 37.384303 ], [ -122.089514, 37.384225 ], [ -122.089519, 37.384161 ], [ -122.08952, 37.384149 ], [ -122.08957, 37.384051 ], [ -122.089642, 37.384005 ], [ -122.089662, 37.383992 ], [ -122.089726, 37.383951 ], [ -122.089808, 37.383899 ], [ -122.089884, 37.38385 ], [ -122.089959, 37.383717 ], [ -122.089973, 37.383658 ], [ -122.090011, 37.38351 ], [ -122.090043, 37.383384 ], [ -122.090083, 37.383116 ], [ -122.090091, 37.383059 ], [ -122.090095, 37.383017 ], [ -122.090097, 37.382941 ], [ -122.090101, 37.382814 ], [ -122.090105, 37.382671 ], [ -122.090105, 37.382621 ], [ -122.090072, 37.382517 ], [ -122.090041, 37.382411 ], [ -122.089869, 37.382224 ], [ -122.089725, 37.382118 ], [ -122.0896, 37.382026 ], [ -122.089408, 37.38189 ], [ -122.089359, 37.381856 ], [ -122.0893, 37.3818 ], [ -122.089146, 37.381653 ], [ -122.088998, 37.381504 ], [ -122.088917, 37.381389 ], [ -122.088874, 37.381345 ], [ -122.089898, 37.38135 ], [ -122.090519, 37.381353 ], [ -122.092854, 37.381372 ], [ -122.093534, 37.381377 ], [ -122.093722, 37.381379 ], [ -122.093859, 37.38138 ], [ -122.093919, 37.38138 ], [ -122.094045, 37.381381 ], [ -122.094131, 37.381384 ], [ -122.095111, 37.381387 ], [ -122.09598, 37.38139 ], [ -122.09598, 37.38117 ], [ -122.09598, 37.38103 ], [ -122.095982, 37.380822 ], [ -122.095988, 37.380198 ], [ -122.09599, 37.37999 ], [ -122.09599, 37.379899 ], [ -122.09599, 37.37971 ], [ -122.095991, 37.379658 ], [ -122.095172, 37.379654 ], [ -122.094484, 37.379651 ], [ -122.09319, 37.379648 ], [ -122.09319, 37.379396 ], [ -122.09319, 37.378636 ], [ -122.0932, 37.37677 ], [ -122.095129, 37.376792 ], [ -122.095561, 37.376796 ], [ -122.09571, 37.376798 ], [ -122.095975, 37.3768 ], [ -122.095976, 37.376743 ], [ -122.095976, 37.376666 ], [ -122.095978, 37.376541 ], [ -122.095979, 37.376436 ], [ -122.09598, 37.37636 ], [ -122.09598, 37.376338 ], [ -122.095976, 37.375896 ], [ -122.09597, 37.37501 ], [ -122.09596, 37.374571 ], [ -122.09595, 37.37413 ], [ -122.095947, 37.374048 ], [ -122.095941, 37.373802 ], [ -122.09594, 37.37375 ], [ -122.09594, 37.37372 ], [ -122.09594, 37.37368 ], [ -122.09594, 37.373518 ], [ -122.09594, 37.373032 ], [ -122.09594, 37.37287 ], [ -122.095943, 37.372661 ], [ -122.095954, 37.372037 ], [ -122.095958, 37.371829 ], [ -122.09596, 37.37174 ], [ -122.095961, 37.371615 ], [ -122.095967, 37.370973 ], [ -122.09597, 37.37076 ], [ -122.095975, 37.370435 ], [ -122.09599, 37.36949 ], [ -122.09599, 37.369463 ], [ -122.096, 37.36914 ], [ -122.096007, 37.368656 ], [ -122.09603, 37.36722 ], [ -122.09603, 37.367204 ], [ -122.09603, 37.366898 ], [ -122.095, 37.36687 ], [ -122.094429, 37.366882 ], [ -122.09428, 37.36689 ], [ -122.093839, 37.366888 ], [ -122.093307, 37.366883 ], [ -122.09305, 37.366881 ], [ -122.092593, 37.366878 ], [ -122.09202, 37.366874 ], [ -122.091299, 37.366868 ], [ -122.090861, 37.366865 ], [ -122.09081, 37.366855 ], [ -122.090303, 37.366852 ], [ -122.089991, 37.366852 ], [ -122.089767, 37.366852 ], [ -122.089271, 37.366853 ], [ -122.08916, 37.366853 ], [ -122.089162, 37.366826 ], [ -122.089161, 37.366545 ], [ -122.089161, 37.365937 ], [ -122.088602, 37.365931 ], [ -122.088271, 37.365929 ], [ -122.087226, 37.365922 ], [ -122.08698, 37.36592 ], [ -122.08698, 37.36598 ], [ -122.08698, 37.366011 ], [ -122.08698, 37.366106 ], [ -122.08698, 37.366138 ], [ -122.08698, 37.36619 ], [ -122.08698, 37.366347 ], [ -122.08698, 37.3664 ], [ -122.086828, 37.366404 ], [ -122.086267, 37.366404 ], [ -122.085682, 37.366404 ], [ -122.08505, 37.366404 ], [ -122.08505, 37.366468 ], [ -122.083235, 37.366461 ], [ -122.082387, 37.366453 ], [ -122.082393, 37.366826 ], [ -122.080993, 37.366827 ], [ -122.080798, 37.366826 ], [ -122.080776, 37.366826 ], [ -122.080596, 37.366826 ], [ -122.080596, 37.366175 ], [ -122.077853, 37.366168 ], [ -122.077856, 37.366031 ], [ -122.077859, 37.365867 ], [ -122.077859, 37.365857 ], [ -122.077859, 37.365833 ], [ -122.07786, 37.36582 ], [ -122.07786, 37.365676 ], [ -122.07786, 37.365244 ], [ -122.07786, 37.3651 ], [ -122.077854, 37.364886 ], [ -122.07785, 37.3647 ], [ -122.07785, 37.364245 ], [ -122.07785, 37.364032 ], [ -122.07785, 37.363944 ], [ -122.07785, 37.363681 ], [ -122.07785, 37.363594 ], [ -122.077845, 37.363473 ], [ -122.077832, 37.36311 ], [ -122.07783, 37.36304 ], [ -122.077829, 37.362989 ], [ -122.077826, 37.36287 ], [ -122.07782, 37.36259 ], [ -122.07781, 37.362516 ], [ -122.0778, 37.36244 ], [ -122.07779, 37.3624 ], [ -122.077779, 37.362176 ], [ -122.07776, 37.36175 ], [ -122.077765, 37.361504 ], [ -122.07777, 37.36128 ], [ -122.077774, 37.361058 ], [ -122.07778, 37.36079 ], [ -122.07778, 37.360392 ], [ -122.07778, 37.36017 ], [ -122.07778, 37.360043 ], [ -122.07778, 37.35996 ], [ -122.077784, 37.359806 ], [ -122.077787, 37.359665 ], [ -122.07779, 37.35954 ], [ -122.077791, 37.359514 ], [ -122.077797, 37.359435 ], [ -122.0778, 37.35941 ], [ -122.077802, 37.359325 ], [ -122.077808, 37.359073 ], [ -122.07781, 37.35902 ], [ -122.076799, 37.359031 ], [ -122.075613, 37.359033 ], [ -122.074749, 37.359034 ], [ -122.073239, 37.359032 ], [ -122.072866, 37.359039 ], [ -122.071646, 37.359035 ], [ -122.070517, 37.359037 ], [ -122.070508, 37.358576 ], [ -122.070499, 37.357904 ], [ -122.068683, 37.357924 ], [ -122.068681, 37.357709 ], [ -122.06868, 37.35754 ], [ -122.06868, 37.357527 ], [ -122.068676, 37.357373 ], [ -122.068664, 37.356913 ], [ -122.06866, 37.35676 ], [ -122.06818, 37.356765 ], [ -122.06781, 37.35677 ], [ -122.06677, 37.35676 ], [ -122.066741, 37.35676 ], [ -122.066262, 37.35676 ], [ -122.066045, 37.35676 ], [ -122.06575, 37.35676 ], [ -122.065705, 37.359148 ], [ -122.065706, 37.359508 ], [ -122.063014, 37.35955 ], [ -122.063002, 37.359236 ], [ -122.063001, 37.359214 ], [ -122.062998, 37.359148 ], [ -122.062997, 37.359126 ], [ -122.06299, 37.358973 ], [ -122.062971, 37.358517 ], [ -122.06297, 37.35847 ], [ -122.062955, 37.358366 ], [ -122.062932, 37.358213 ], [ -122.0629, 37.358 ], [ -122.062853, 37.357757 ], [ -122.062824, 37.357606 ], [ -122.062792, 37.357445 ], [ -122.06279, 37.35743 ], [ -122.062672, 37.356969 ], [ -122.06267, 37.35696 ], [ -122.06263, 37.356812 ], [ -122.062503, 37.356343 ], [ -122.06246, 37.35618 ], [ -122.06221, 37.35552 ], [ -122.061981, 37.354986 ], [ -122.06179, 37.35454 ], [ -122.061776, 37.35451 ], [ -122.061746, 37.354444 ], [ -122.061785, 37.354404 ], [ -122.061967, 37.354212 ], [ -122.062366, 37.353636 ], [ -122.062416, 37.353542 ], [ -122.06248, 37.353545 ], [ -122.062673, 37.353527 ], [ -122.062784, 37.353491 ], [ -122.063047, 37.353308 ], [ -122.063244, 37.353159 ], [ -122.06346, 37.35292 ], [ -122.063482, 37.352871 ], [ -122.063478, 37.352585 ], [ -122.063479, 37.352506 ], [ -122.063403, 37.352346 ], [ -122.063339, 37.352212 ], [ -122.063314, 37.352163 ], [ -122.063246, 37.35216 ], [ -122.063079, 37.352054 ], [ -122.062972, 37.351988 ], [ -122.062887, 37.351935 ], [ -122.063186, 37.351519 ], [ -122.063201, 37.351498 ], [ -122.063475, 37.35114 ], [ -122.063582, 37.350867 ], [ -122.063648, 37.350689 ], [ -122.06373, 37.350465 ], [ -122.064065, 37.35016 ], [ -122.064281, 37.349975 ], [ -122.064257, 37.349787 ], [ -122.064224, 37.349537 ], [ -122.064189, 37.349275 ], [ -122.064179, 37.349198 ], [ -122.064442, 37.349071 ], [ -122.064548, 37.349021 ], [ -122.064696, 37.348951 ], [ -122.064705, 37.348902 ], [ -122.064712, 37.34886 ], [ -122.064744, 37.34868 ], [ -122.064765, 37.348563 ], [ -122.06479, 37.34845 ], [ -122.064795, 37.348394 ], [ -122.064747, 37.348034 ], [ -122.064902, 37.347861 ], [ -122.064967, 37.347778 ], [ -122.064754, 37.347624 ], [ -122.064576, 37.347496 ], [ -122.064465, 37.347417 ], [ -122.064262, 37.347326 ], [ -122.064131, 37.347268 ], [ -122.063877, 37.347157 ], [ -122.063638, 37.346968 ], [ -122.063611, 37.346875 ], [ -122.063637, 37.346787 ], [ -122.063645, 37.346674 ], [ -122.063684, 37.346607 ], [ -122.06387, 37.346524 ], [ -122.064134, 37.346406 ], [ -122.064315, 37.346205 ], [ -122.064161, 37.345593 ], [ -122.064227, 37.345271 ], [ -122.064161, 37.345093 ], [ -122.064122, 37.344987 ], [ -122.064132, 37.344819 ], [ -122.064214, 37.344752 ], [ -122.064415, 37.344632 ], [ -122.064701, 37.344512 ], [ -122.064725, 37.344497 ], [ -122.064891, 37.344431 ], [ -122.064897, 37.344391 ], [ -122.064907, 37.344341 ], [ -122.064923, 37.344244 ], [ -122.064948, 37.344101 ], [ -122.064985, 37.343883 ], [ -122.065039, 37.343697 ], [ -122.065192, 37.34315 ], [ -122.064964, 37.342657 ], [ -122.064839, 37.342387 ], [ -122.064819, 37.34205 ], [ -122.064795, 37.341577 ], [ -122.064602, 37.341503 ], [ -122.06432, 37.34139 ], [ -122.064211, 37.341347 ], [ -122.063876, 37.341213 ], [ -122.063696, 37.340362 ], [ -122.063474, 37.340027 ], [ -122.063448, 37.339992 ], [ -122.063318, 37.3399 ], [ -122.063072, 37.339837 ], [ -122.062891, 37.339784 ], [ -122.062576, 37.339693 ], [ -122.062456, 37.33954 ], [ -122.062735, 37.339203 ], [ -122.062793, 37.339132 ], [ -122.062808, 37.338972 ], [ -122.062721, 37.338844 ], [ -122.062602, 37.338668 ], [ -122.062477, 37.33858 ], [ -122.062382, 37.338513 ], [ -122.062196, 37.338387 ], [ -122.06214, 37.338261 ], [ -122.062094, 37.338158 ], [ -122.062057, 37.338075 ], [ -122.062131, 37.337965 ], [ -122.062187, 37.337883 ], [ -122.062236, 37.337812 ], [ -122.062274, 37.337754 ], [ -122.062318, 37.33769 ], [ -122.062353, 37.337639 ], [ -122.062382, 37.337596 ], [ -122.0624, 37.33754 ], [ -122.06247, 37.33754 ], [ -122.062665, 37.337529 ], [ -122.062732, 37.337526 ], [ -122.062837, 37.33752 ], [ -122.06303, 37.33751 ], [ -122.063152, 37.33751 ], [ -122.063258, 37.33751 ], [ -122.06334, 37.33751 ], [ -122.063587, 37.33751 ], [ -122.06367, 37.33751 ], [ -122.06393, 37.337513 ], [ -122.06444, 37.33752 ], [ -122.06471, 37.337514 ], [ -122.06497, 37.33751 ], [ -122.065316, 37.33751 ], [ -122.06541, 37.33751 ], [ -122.066354, 37.337517 ], [ -122.0667, 37.33752 ], [ -122.06698, 37.337521 ], [ -122.06716, 37.33753 ], [ -122.06722, 37.337529 ], [ -122.067486, 37.337524 ], [ -122.067559, 37.337473 ], [ -122.067328, 37.337313 ], [ -122.06641, 37.33662 ], [ -122.06618, 37.33645 ], [ -122.065186, 37.336456 ], [ -122.064943, 37.336457 ], [ -122.064897, 37.336457 ], [ -122.064809, 37.336458 ], [ -122.064837, 37.336184 ], [ -122.064903, 37.335547 ], [ -122.064855, 37.33551 ], [ -122.064827, 37.335489 ], [ -122.064719, 37.335406 ], [ -122.064618, 37.335344 ], [ -122.064646, 37.335313 ], [ -122.064694, 37.335261 ], [ -122.064717, 37.335167 ], [ -122.064755, 37.335011 ], [ -122.06478, 37.33491 ], [ -122.064775, 37.334894 ], [ -122.06475, 37.334834 ], [ -122.06474, 37.334814 ], [ -122.064733, 37.334803 ], [ -122.064725, 37.334791 ], [ -122.064717, 37.334779 ], [ -122.064709, 37.334766 ], [ -122.0647, 37.334755 ], [ -122.064694, 37.334747 ], [ -122.064681, 37.334731 ], [ -122.064674, 37.334723 ], [ -122.06466, 37.334708 ], [ -122.064649, 37.334697 ], [ -122.064641, 37.334689 ], [ -122.064626, 37.334675 ], [ -122.06461, 37.334662 ], [ -122.064594, 37.33465 ], [ -122.064548, 37.334615 ], [ -122.064333, 37.334455 ], [ -122.064181, 37.33434 ], [ -122.06382, 37.334151 ], [ -122.063805, 37.334111 ], [ -122.064131, 37.334195 ], [ -122.064749, 37.334365 ], [ -122.065015, 37.334439 ], [ -122.065382, 37.334542 ], [ -122.065733, 37.334696 ], [ -122.065835, 37.334771 ], [ -122.066065, 37.334922 ], [ -122.066302, 37.335111 ], [ -122.0665, 37.33526 ], [ -122.06664, 37.335373 ], [ -122.06678, 37.335381 ], [ -122.06688, 37.335387 ], [ -122.06712, 37.335401 ], [ -122.067508, 37.335425 ], [ -122.067834, 37.335442 ], [ -122.067987, 37.33545 ], [ -122.068029, 37.335452 ], [ -122.068181, 37.335453 ], [ -122.068355, 37.334737 ], [ -122.0684, 37.33455 ], [ -122.068407, 37.334521 ], [ -122.068437, 37.33443 ], [ -122.06847, 37.33434 ], [ -122.068515, 37.33419 ], [ -122.068554, 37.334097 ], [ -122.068565, 37.334056 ], [ -122.068689, 37.333693 ], [ -122.068702, 37.333601 ], [ -122.06871, 37.33357 ], [ -122.068724, 37.333499 ], [ -122.068778, 37.333237 ], [ -122.068786, 37.333209 ], [ -122.068811, 37.333126 ], [ -122.06882, 37.333099 ], [ -122.068898, 37.332758 ], [ -122.068964, 37.332466 ], [ -122.069047, 37.331963 ], [ -122.069079, 37.33175 ], [ -122.06913, 37.33141 ], [ -122.069164, 37.33114 ], [ -122.0692, 37.33086 ], [ -122.069246, 37.33033 ], [ -122.06927, 37.33006 ], [ -122.069271, 37.33001 ], [ -122.069426, 37.329927 ], [ -122.069709, 37.329723 ], [ -122.07064, 37.330274 ], [ -122.07171, 37.330906 ], [ -122.071809, 37.330965 ], [ -122.07206, 37.331097 ], [ -122.072578, 37.331408 ], [ -122.072697, 37.331479 ], [ -122.072825, 37.331555 ], [ -122.073001, 37.33166 ], [ -122.073091, 37.331714 ], [ -122.073347, 37.331867 ], [ -122.073647, 37.332047 ] ], [ [ -122.086973, 37.363137 ], [ -122.086976, 37.363268 ], [ -122.089064, 37.363297 ], [ -122.089036, 37.362614 ], [ -122.08698, 37.362668 ], [ -122.08698, 37.36271 ], [ -122.08697, 37.36298 ], [ -122.086973, 37.363137 ] ] ] } }
]
}
