{
"type": "FeatureCollection",
"name": "sonomacity",
"crs": { "type": "name", "properties": { "name": "urn:ogc:def:crs:OGC:1.3:CRS84" } },
"features": [
{ "type": "Feature", "properties": { }, "geometry": { "type": "MultiLineString", "coordinates": [ [ [ -122.45318, 38.275099 ], [ -122.45318, 38.275103 ], [ -122.45316, 38.275201 ], [ -122.45314, 38.27538 ], [ -122.45313, 38.275426 ], [ -122.45312, 38.275504 ], [ -122.45311, 38.275572 ], [ -122.4531, 38.275619 ], [ -122.4531, 38.275631 ], [ -122.45309, 38.275721 ], [ -122.45308, 38.275755 ], [ -122.45307, 38.27579 ], [ -122.45306, 38.275881 ], [ -122.45306, 38.27591 ], [ -122.45305, 38.275934 ], [ -122.45305, 38.275992 ], [ -122.45304, 38.276026 ], [ -122.45305, 38.276027 ], [ -122.45316, 38.276038 ], [ -122.45333, 38.276054 ], [ -122.45333, 38.276045 ], [ -122.45333, 38.27603 ], [ -122.45333, 38.276021 ], [ -122.45336891891894, 38.275799162161981 ], [ -122.45337, 38.275789 ], [ -122.45337, 38.275786 ], [ -122.45338, 38.275723 ], [ -122.45338, 38.275718 ], [ -122.45338, 38.275694 ], [ -122.453389130434772, 38.275683956521746 ], [ -122.453395, 38.27565049999972 ], [ -122.4534, 38.275618 ], [ -122.45341, 38.275539 ], [ -122.45341, 38.27553 ], [ -122.45342, 38.27545 ], [ -122.45342, 38.275448 ], [ -122.45342, 38.275438 ], [ -122.45344, 38.275338 ], [ -122.45344, 38.275332 ], [ -122.45345, 38.275228 ], [ -122.45346, 38.275217 ], [ -122.45346, 38.275166 ], [ -122.45347, 38.27515 ], [ -122.45347, 38.275143 ], [ -122.45347, 38.275127 ], [ -122.45347, 38.275113 ], [ -122.45348, 38.275104 ], [ -122.45348, 38.275072 ], [ -122.45354, 38.275077 ], [ -122.45432, 38.275154 ], [ -122.45457, 38.275177 ], [ -122.4547, 38.27519 ], [ -122.45511, 38.27523 ], [ -122.45578, 38.275295 ], [ -122.45599, 38.275315 ], [ -122.45616, 38.275331 ], [ -122.45659, 38.275373 ], [ -122.45713, 38.275425 ], [ -122.45723, 38.275435 ], [ -122.45727, 38.275439 ], [ -122.45742, 38.275454 ], [ -122.45743, 38.275454 ], [ -122.45743, 38.275429 ], [ -122.45748, 38.275112 ], [ -122.45752, 38.274818 ], [ -122.45758, 38.274478 ], [ -122.45759, 38.274479 ], [ -122.45877, 38.27458 ], [ -122.4603, 38.274711 ], [ -122.4605, 38.274735 ], [ -122.46057, 38.274744 ], [ -122.46058, 38.274745 ], [ -122.46069, 38.274758 ], [ -122.46067, 38.274896 ], [ -122.46061, 38.275273 ], [ -122.46055, 38.275645 ], [ -122.46054, 38.275755 ], [ -122.46071, 38.275771 ], [ -122.46094, 38.275793 ], [ -122.46173, 38.27587 ], [ -122.462, 38.275897 ], [ -122.46227, 38.275923 ], [ -122.46232, 38.275927 ], [ -122.46282, 38.275975 ], [ -122.46327, 38.276019 ], [ -122.46358, 38.276049 ], [ -122.46385, 38.276075 ], [ -122.46414, 38.276103 ], [ -122.46433, 38.276121 ], [ -122.46436, 38.276124 ], [ -122.46483, 38.276169 ], [ -122.46491, 38.276178 ], [ -122.465, 38.276186 ], [ -122.46506, 38.276192 ], [ -122.4651, 38.276196 ], [ -122.46512, 38.276198 ], [ -122.46556, 38.27624 ], [ -122.46557, 38.276242 ], [ -122.46573, 38.276257 ], [ -122.46611, 38.276293 ], [ -122.4661, 38.276386 ], [ -122.46609, 38.276427 ], [ -122.46609, 38.276452 ], [ -122.46603, 38.276813 ], [ -122.466, 38.277002 ], [ -122.46591, 38.277547 ], [ -122.46587, 38.277832 ], [ -122.46583, 38.278104 ], [ -122.46582, 38.278206 ], [ -122.46579, 38.278377 ], [ -122.46575, 38.27865 ], [ -122.46571, 38.278924 ], [ -122.46568, 38.279088 ], [ -122.46567, 38.279197 ], [ -122.46563, 38.279404 ], [ -122.46558, 38.279742 ], [ -122.46558, 38.279802 ], [ -122.46555, 38.27993 ], [ -122.46554, 38.280015 ], [ -122.4655, 38.280288 ], [ -122.46546, 38.280531 ], [ -122.46545, 38.280596 ], [ -122.4654, 38.280904 ], [ -122.46586, 38.280949 ], [ -122.46624, 38.280986 ], [ -122.46677, 38.281039 ], [ -122.46683, 38.281044 ], [ -122.46684, 38.281045 ], [ -122.46684, 38.281054 ], [ -122.46684, 38.281145 ], [ -122.4669, 38.281241 ], [ -122.46698, 38.281298 ], [ -122.46706, 38.281328 ], [ -122.46707, 38.281331 ], [ -122.46708, 38.281333 ], [ -122.46887, 38.281523 ], [ -122.4689, 38.281527 ], [ -122.46892, 38.28142 ], [ -122.46893, 38.281375 ], [ -122.46898, 38.281067 ], [ -122.46885, 38.281052 ], [ -122.46884, 38.281051 ], [ -122.46885, 38.280989 ], [ -122.46887, 38.280909 ], [ -122.46887, 38.280899 ], [ -122.46979, 38.281001 ], [ -122.46992, 38.281015 ], [ -122.46992, 38.281027 ], [ -122.46981, 38.281647 ], [ -122.4698, 38.281714 ], [ -122.46972, 38.282202 ], [ -122.46971, 38.282265 ], [ -122.46981, 38.282275 ], [ -122.47192, 38.282494 ], [ -122.47306, 38.282611 ], [ -122.47442, 38.282752 ], [ -122.47444, 38.282754 ], [ -122.47445, 38.282756 ], [ -122.47388, 38.283038 ], [ -122.47339, 38.283814 ], [ -122.47331, 38.284204 ], [ -122.47288, 38.285046 ], [ -122.47312, 38.285892 ], [ -122.47318, 38.286093 ], [ -122.47344, 38.286274 ], [ -122.47403, 38.286956 ], [ -122.47411, 38.287045 ], [ -122.4741, 38.287153 ], [ -122.47407, 38.287948 ], [ -122.47407, 38.287971 ], [ -122.47403, 38.287977 ], [ -122.47402, 38.28798 ], [ -122.47402, 38.287987 ], [ -122.47403, 38.287997 ], [ -122.47409, 38.288529 ], [ -122.47414, 38.289047 ], [ -122.47415, 38.289157 ], [ -122.47426, 38.289375 ], [ -122.47433, 38.289535 ], [ -122.47437, 38.289608 ], [ -122.47471, 38.289858 ], [ -122.47474, 38.28989 ], [ -122.47478, 38.28993 ], [ -122.47489, 38.290032 ], [ -122.47515, 38.290165 ], [ -122.47526, 38.290278 ], [ -122.47551, 38.290553 ], [ -122.47552, 38.290568 ], [ -122.47555, 38.290602 ], [ -122.47562, 38.290681 ], [ -122.47571, 38.290726 ], [ -122.47609, 38.290936 ], [ -122.47662, 38.291173 ], [ -122.47691, 38.291315 ], [ -122.47718, 38.291453 ], [ -122.47733, 38.291655 ], [ -122.47732, 38.291717 ], [ -122.47726, 38.292198 ], [ -122.47725, 38.292338 ], [ -122.47719, 38.292487 ], [ -122.47712, 38.292637 ], [ -122.47701, 38.292876 ], [ -122.47701, 38.292882 ], [ -122.47683, 38.293549 ], [ -122.47682, 38.293573 ], [ -122.47681, 38.293612 ], [ -122.4768, 38.293636 ], [ -122.47607, 38.293576 ], [ -122.47603, 38.293572 ], [ -122.47601, 38.293686 ], [ -122.476, 38.293743 ], [ -122.47604, 38.293748 ], [ -122.47608, 38.293754 ], [ -122.47613, 38.293762 ], [ -122.47618, 38.29377 ], [ -122.47623, 38.293778 ], [ -122.47628, 38.293787 ], [ -122.47633, 38.293797 ], [ -122.47633, 38.293813 ], [ -122.47643, 38.293833 ], [ -122.47645, 38.293865 ], [ -122.47651, 38.293882 ], [ -122.47656, 38.293899 ], [ -122.47662, 38.293917 ], [ -122.47667, 38.293935 ], [ -122.47673, 38.293954 ], [ -122.47677, 38.294075 ], [ -122.47676, 38.294111 ], [ -122.47673, 38.294345 ], [ -122.47665, 38.294715 ], [ -122.47664, 38.294758 ], [ -122.47622, 38.295613 ], [ -122.47621, 38.295613 ], [ -122.47621, 38.295629 ], [ -122.47621, 38.295638 ], [ -122.47621, 38.295707 ], [ -122.47625, 38.29611 ], [ -122.47625, 38.296223 ], [ -122.47658, 38.296519 ], [ -122.47714, 38.297026 ], [ -122.47739, 38.297247 ], [ -122.47741, 38.297266 ], [ -122.4777, 38.297528 ], [ -122.47786, 38.297639 ], [ -122.47793, 38.297651 ], [ -122.47854, 38.297747 ], [ -122.47857, 38.297728 ], [ -122.47905, 38.297387 ], [ -122.47914, 38.297269 ], [ -122.47935, 38.296976 ], [ -122.47947, 38.296919 ], [ -122.4797, 38.296809 ], [ -122.48041, 38.296927 ], [ -122.4808, 38.296993 ], [ -122.48101, 38.297029 ], [ -122.48114, 38.297293 ], [ -122.48141, 38.297871 ], [ -122.48163, 38.298371 ], [ -122.48164, 38.298394 ], [ -122.48123, 38.298426 ], [ -122.48099, 38.298444 ], [ -122.4804, 38.298489 ], [ -122.47906, 38.298591 ], [ -122.47797, 38.298724 ], [ -122.47788, 38.298734 ], [ -122.47702, 38.29884 ], [ -122.47698, 38.298844 ], [ -122.47693, 38.29885 ], [ -122.47692, 38.298852 ], [ -122.47702, 38.299033 ], [ -122.47723, 38.299409 ], [ -122.47731, 38.299565 ], [ -122.47747, 38.299847 ], [ -122.47756, 38.30036 ], [ -122.47764, 38.300801 ], [ -122.47765, 38.300826 ], [ -122.47645, 38.3007 ], [ -122.47643, 38.300699 ], [ -122.47543, 38.300594 ], [ -122.47519, 38.300568 ], [ -122.47513, 38.300563 ], [ -122.47513, 38.300562 ], [ -122.47506, 38.300555 ], [ -122.47504, 38.300552 ], [ -122.47503, 38.300552 ], [ -122.47503, 38.300555 ], [ -122.47503, 38.300562 ], [ -122.47503, 38.300586 ], [ -122.47501, 38.300701 ], [ -122.47501, 38.300706 ], [ -122.475, 38.30076 ], [ -122.475, 38.300779 ], [ -122.47499, 38.300831 ], [ -122.47499, 38.300859 ], [ -122.47498, 38.300887 ], [ -122.47498, 38.300915 ], [ -122.47498, 38.300943 ], [ -122.47498, 38.300971 ], [ -122.47498, 38.300999 ], [ -122.47498, 38.301027 ], [ -122.47498, 38.301054 ], [ -122.47499, 38.301077 ], [ -122.47498, 38.301099 ], [ -122.47498, 38.301138 ], [ -122.47497, 38.301228 ], [ -122.47495, 38.301352 ], [ -122.47495, 38.301362 ], [ -122.47487, 38.30151 ], [ -122.47472, 38.301528 ], [ -122.47468, 38.301533 ], [ -122.47468, 38.301557 ], [ -122.47451, 38.301541 ], [ -122.47422, 38.301512 ], [ -122.47408, 38.301499 ], [ -122.47408, 38.301478 ], [ -122.47409, 38.3014 ], [ -122.47411, 38.301296 ], [ -122.47412, 38.301226 ], [ -122.47414, 38.301109 ], [ -122.47414, 38.301057 ], [ -122.47411, 38.301054 ], [ -122.47399, 38.301043 ], [ -122.47394, 38.301037 ], [ -122.47389, 38.301033 ], [ -122.47364, 38.301009 ], [ -122.47349, 38.300995 ], [ -122.47343, 38.300989 ], [ -122.47328, 38.300974 ], [ -122.47326, 38.300972 ], [ -122.47323, 38.300969 ], [ -122.47298, 38.300948 ], [ -122.47294, 38.300944 ], [ -122.47292, 38.300943 ], [ -122.47289, 38.30094 ], [ -122.47288, 38.30094 ], [ -122.47288, 38.300952 ], [ -122.47288, 38.300956 ], [ -122.47288, 38.300977 ], [ -122.47287, 38.300976 ], [ -122.4728, 38.30097 ], [ -122.4728, 38.300977 ], [ -122.47276, 38.300973 ], [ -122.47226, 38.300927 ], [ -122.4722, 38.300921 ], [ -122.4722, 38.300922 ], [ -122.47219, 38.30103 ], [ -122.47217, 38.301097 ], [ -122.47216, 38.301208 ], [ -122.47215, 38.301233 ], [ -122.47215, 38.301272 ], [ -122.47213, 38.301392 ], [ -122.47212, 38.301444 ], [ -122.47211, 38.301492 ], [ -122.4721, 38.301582 ], [ -122.47209, 38.301615 ], [ -122.47208, 38.301735 ], [ -122.47207, 38.301787 ], [ -122.47205, 38.301906 ], [ -122.47204, 38.301959 ], [ -122.47204, 38.301965 ], [ -122.47203, 38.302 ], [ -122.47202, 38.302078 ], [ -122.472, 38.302237 ], [ -122.47199, 38.302304 ], [ -122.47199, 38.302306 ], [ -122.47198, 38.30232 ], [ -122.47198, 38.302371 ], [ -122.47197, 38.302399 ], [ -122.47197, 38.302401 ], [ -122.47197, 38.302406 ], [ -122.47197, 38.302427 ], [ -122.47196, 38.302467 ], [ -122.47185, 38.302456 ], [ -122.47159, 38.302431 ], [ -122.4715, 38.302422 ], [ -122.47115, 38.302388 ], [ -122.4705, 38.302325 ], [ -122.47047, 38.302322 ], [ -122.47025, 38.3023 ], [ -122.47014, 38.302228 ], [ -122.47015, 38.302221 ], [ -122.47016, 38.302158 ], [ -122.47018, 38.302023 ], [ -122.47018, 38.302 ], [ -122.47021, 38.301829 ], [ -122.47021, 38.301806 ], [ -122.47022, 38.301757 ], [ -122.47022, 38.301746 ], [ -122.47024, 38.301641 ], [ -122.47021, 38.301638 ], [ -122.47007, 38.301625 ], [ -122.47001, 38.301619 ], [ -122.46997, 38.301616 ], [ -122.46987, 38.301605 ], [ -122.46984, 38.301602 ], [ -122.46984, 38.301615 ], [ -122.46981, 38.301741 ], [ -122.46981, 38.301747 ], [ -122.46981, 38.301768 ], [ -122.46979, 38.301877 ], [ -122.46977, 38.302001 ], [ -122.46977, 38.302002 ], [ -122.46977, 38.302011 ], [ -122.46977, 38.302027 ], [ -122.46977, 38.302041 ], [ -122.46976, 38.30205 ], [ -122.46976, 38.302095 ], [ -122.46975, 38.302119 ], [ -122.46974, 38.302117 ], [ -122.46973, 38.302117 ], [ -122.46972, 38.302182 ], [ -122.46972, 38.302224 ], [ -122.46971, 38.302248 ], [ -122.46956, 38.302233 ], [ -122.4695, 38.302227 ], [ -122.46912, 38.302191 ], [ -122.46875, 38.302154 ], [ -122.46834, 38.302115 ], [ -122.468, 38.302081 ], [ -122.46799, 38.302094 ], [ -122.46799, 38.302117 ], [ -122.46796, 38.302329 ], [ -122.46793, 38.302539 ], [ -122.46789, 38.302809 ], [ -122.46785, 38.303036 ], [ -122.46785, 38.303055 ], [ -122.46785, 38.30308 ], [ -122.46783, 38.303079 ], [ -122.46782, 38.303078 ], [ -122.46775, 38.30307 ], [ -122.4677, 38.303065 ], [ -122.46768, 38.303063 ], [ -122.46745, 38.30304 ], [ -122.46739, 38.303034 ], [ -122.46716, 38.303012 ], [ -122.46698, 38.302994 ], [ -122.46677, 38.302973 ], [ -122.46669, 38.302964 ], [ -122.46669, 38.30294 ], [ -122.46672, 38.302749 ], [ -122.46677, 38.302411 ], [ -122.46679, 38.302262 ], [ -122.46683, 38.302039 ], [ -122.46681, 38.302034 ], [ -122.46676, 38.30202 ], [ -122.4667, 38.302005 ], [ -122.46668, 38.302 ], [ -122.46668, 38.301999 ], [ -122.46646, 38.301973 ], [ -122.46629, 38.301953 ], [ -122.46604, 38.301925 ], [ -122.46584, 38.3019 ], [ -122.4656, 38.301872 ], [ -122.46466, 38.301762 ], [ -122.46443, 38.301734 ], [ -122.46423, 38.301715 ], [ -122.46423, 38.301705 ], [ -122.46425, 38.301565 ], [ -122.4635, 38.301495 ], [ -122.46004, 38.301174 ], [ -122.45996, 38.301167 ], [ -122.45975, 38.301147 ], [ -122.45826, 38.30101 ], [ -122.45824, 38.301008 ], [ -122.45822, 38.301006 ], [ -122.45761, 38.30095 ], [ -122.45761, 38.300951 ], [ -122.45753, 38.301555 ], [ -122.45752, 38.301636 ], [ -122.45744, 38.30219 ], [ -122.45727, 38.303349 ], [ -122.45716, 38.304152 ], [ -122.45671, 38.30736 ], [ -122.4567, 38.307479 ], [ -122.45669131578947, 38.307478131578954 ], [ -122.45669, 38.307502 ], [ -122.45668, 38.3075 ], [ -122.45666, 38.307494 ], [ -122.45655, 38.307462 ], [ -122.45647, 38.307437 ], [ -122.45643, 38.307426 ], [ -122.45637, 38.307408 ], [ -122.45636, 38.307403 ], [ -122.45633, 38.307396 ], [ -122.45524, 38.307067 ], [ -122.45425, 38.306771 ], [ -122.45236, 38.306204 ], [ -122.45211, 38.306129 ], [ -122.45215, 38.305867 ], [ -122.45216, 38.305765 ], [ -122.45231, 38.304834 ], [ -122.45233, 38.304728 ], [ -122.45247, 38.303827 ], [ -122.45249, 38.303707 ], [ -122.45252, 38.303524 ], [ -122.45265, 38.302689 ], [ -122.45266, 38.302615 ], [ -122.45283, 38.301546 ], [ -122.45285, 38.301468 ], [ -122.45296, 38.300793 ], [ -122.45299, 38.300592 ], [ -122.45301, 38.300421 ], [ -122.45301, 38.300419 ], [ -122.45302, 38.300397 ], [ -122.45302, 38.300395 ], [ -122.45297, 38.300393 ], [ -122.45292, 38.300388 ], [ -122.45226, 38.300323 ], [ -122.45203, 38.3003 ], [ -122.45148, 38.300246 ], [ -122.45087, 38.300186 ], [ -122.45062, 38.30017 ], [ -122.4496, 38.300103 ], [ -122.44941, 38.30009 ], [ -122.44922, 38.300077 ], [ -122.44921, 38.300077 ], [ -122.44905, 38.300066 ], [ -122.44902, 38.300064 ], [ -122.44884, 38.300052 ], [ -122.44875, 38.300046 ], [ -122.44867, 38.300041 ], [ -122.44852, 38.300032 ], [ -122.44849, 38.30003 ], [ -122.44776, 38.299965 ], [ -122.44759, 38.29995 ], [ -122.44635, 38.299842 ], [ -122.44619, 38.299825 ], [ -122.44616, 38.299823 ], [ -122.44621, 38.299458 ], [ -122.44623, 38.29933 ], [ -122.44623, 38.299298 ], [ -122.44638, 38.298173 ], [ -122.44639, 38.298114 ], [ -122.4464, 38.298069 ], [ -122.4466, 38.298084 ], [ -122.44662, 38.298085 ], [ -122.44662, 38.29808 ], [ -122.44667, 38.297743 ], [ -122.44674, 38.297269 ], [ -122.44675, 38.297212 ], [ -122.4468, 38.296862 ], [ -122.44683, 38.296692 ], [ -122.44685, 38.296523 ], [ -122.44688, 38.296352 ], [ -122.44691, 38.296186 ], [ -122.44693, 38.29602 ], [ -122.44696, 38.295853 ], [ -122.44698, 38.295687 ], [ -122.447, 38.29552 ], [ -122.44703, 38.295354 ], [ -122.44705, 38.295188 ], [ -122.44708, 38.295021 ], [ -122.4471, 38.294855 ], [ -122.44715, 38.29456 ], [ -122.44715, 38.294541 ], [ -122.44713, 38.294539 ], [ -122.447, 38.294525 ], [ -122.44635, 38.294455 ], [ -122.44514, 38.294323 ], [ -122.44468, 38.294273 ], [ -122.44391, 38.294187 ], [ -122.44384, 38.29418 ], [ -122.44377, 38.294172 ], [ -122.44339, 38.294131 ], [ -122.44324, 38.294116 ], [ -122.44267, 38.294055 ], [ -122.44266, 38.294055 ], [ -122.44267, 38.293989 ], [ -122.44268, 38.293946 ], [ -122.44268, 38.293937 ], [ -122.44275, 38.293526 ], [ -122.44277, 38.293383 ], [ -122.44287, 38.29278 ], [ -122.44358, 38.292851 ], [ -122.4448, 38.292972 ], [ -122.44537, 38.293029 ], [ -122.44591, 38.293083 ], [ -122.44596, 38.293088 ], [ -122.44597, 38.293088 ], [ -122.44611, 38.293102 ], [ -122.44613, 38.293104 ], [ -122.44616, 38.293108 ], [ -122.44616, 38.293083 ], [ -122.44617, 38.293033 ], [ -122.4462, 38.292868 ], [ -122.44622, 38.292735 ], [ -122.44622, 38.292707 ], [ -122.44622, 38.292704 ], [ -122.4464, 38.292718 ], [ -122.4464, 38.292693 ], [ -122.44642, 38.292582 ], [ -122.44642, 38.29258 ], [ -122.44645, 38.292371 ], [ -122.44651, 38.292036 ], [ -122.44653, 38.291884 ], [ -122.44655, 38.291756 ], [ -122.44655, 38.291748 ], [ -122.44634, 38.291729 ], [ -122.44552, 38.29165 ], [ -122.44552, 38.291643 ], [ -122.44564, 38.290827 ], [ -122.44559, 38.290822 ], [ -122.44544, 38.290807 ], [ -122.44529, 38.290792 ], [ -122.44383, 38.290651 ], [ -122.44366, 38.290634 ], [ -122.44317, 38.290588 ], [ -122.44317, 38.290598 ], [ -122.44283, 38.290565 ], [ -122.44271, 38.290554 ], [ -122.44266, 38.290549 ], [ -122.44266, 38.290539 ], [ -122.44259, 38.290533 ], [ -122.4424, 38.290515 ], [ -122.44225, 38.290501 ], [ -122.44218, 38.290494 ], [ -122.44212, 38.290488 ], [ -122.4421, 38.290406 ], [ -122.44208, 38.290327 ], [ -122.44209, 38.290328 ], [ -122.44211, 38.29033 ], [ -122.44212, 38.290331 ], [ -122.44213, 38.290307 ], [ -122.44217, 38.290011 ], [ -122.44221, 38.289784 ], [ -122.44223, 38.289645 ], [ -122.44224, 38.289561 ], [ -122.44225, 38.289542 ], [ -122.44228, 38.289335 ], [ -122.44231, 38.289093 ], [ -122.44232, 38.289036 ], [ -122.44235, 38.28889 ], [ -122.44235, 38.28887 ], [ -122.44238, 38.288688 ], [ -122.4424, 38.288535 ], [ -122.44241, 38.288487 ], [ -122.44244, 38.288287 ], [ -122.44244, 38.288285 ], [ -122.44245, 38.288261 ], [ -122.44249, 38.287985 ], [ -122.4425, 38.287934 ], [ -122.4425, 38.287909 ], [ -122.44252, 38.28781 ], [ -122.44358, 38.287894 ], [ -122.44396, 38.287923 ], [ -122.44397, 38.287899 ], [ -122.44402, 38.28758 ], [ -122.44406, 38.287359 ], [ -122.44408, 38.287234 ], [ -122.4441, 38.287104 ], [ -122.44413, 38.286889 ], [ -122.44412, 38.286888 ], [ -122.44409, 38.286884 ], [ -122.44387, 38.286863 ], [ -122.44365, 38.286842 ], [ -122.44321, 38.2868 ], [ -122.44302, 38.286781 ], [ -122.44252, 38.286733 ], [ -122.44253, 38.28669 ], [ -122.44254, 38.286593 ], [ -122.44255, 38.286553 ], [ -122.44255, 38.286548 ], [ -122.44258, 38.286359 ], [ -122.44258, 38.286311 ], [ -122.44259, 38.286283 ], [ -122.44259, 38.286264 ], [ -122.4426, 38.286176 ], [ -122.44263, 38.285977 ], [ -122.44265, 38.285846 ], [ -122.44266, 38.285785 ], [ -122.44264, 38.285783 ], [ -122.44222, 38.285742 ], [ -122.44212, 38.285732 ], [ -122.44215, 38.285535 ], [ -122.44216, 38.28548 ], [ -122.44218, 38.285352 ], [ -122.4422, 38.285176 ], [ -122.44222, 38.2851 ], [ -122.44222, 38.285075 ], [ -122.44223, 38.284985 ], [ -122.44229, 38.28463 ], [ -122.44229, 38.284612 ], [ -122.44231, 38.284476 ], [ -122.44232, 38.284448 ], [ -122.44235, 38.284241 ], [ -122.4424, 38.283956 ], [ -122.44241, 38.283871 ], [ -122.44241, 38.283865 ], [ -122.44241, 38.283864 ], [ -122.44241, 38.283855 ], [ -122.44245, 38.283632 ], [ -122.44247, 38.2835 ], [ -122.44248, 38.283408 ], [ -122.4425, 38.283305 ], [ -122.4425, 38.283297 ], [ -122.44251, 38.283229 ], [ -122.4425, 38.283229 ], [ -122.44251, 38.283225 ], [ -122.44252, 38.283139 ], [ -122.44253, 38.283105 ], [ -122.44253, 38.283087 ], [ -122.44266, 38.283099 ], [ -122.44271, 38.283103 ], [ -122.44272, 38.283105 ], [ -122.443, 38.283131 ], [ -122.44308, 38.283138 ], [ -122.44331, 38.283161 ], [ -122.44404, 38.283229 ], [ -122.44428, 38.283251 ], [ -122.44441, 38.283263 ], [ -122.44444, 38.283266 ], [ -122.44475, 38.283295 ], [ -122.44487, 38.283307 ], [ -122.44535, 38.283352 ], [ -122.44534, 38.283408 ], [ -122.44586, 38.283463 ], [ -122.44588, 38.283464 ], [ -122.44589, 38.283404 ], [ -122.44589, 38.283398 ], [ -122.44589, 38.28338 ], [ -122.44593, 38.283047 ], [ -122.44594, 38.282998 ], [ -122.44594, 38.282959 ], [ -122.44597, 38.282759 ], [ -122.44599, 38.282617 ], [ -122.44601, 38.282527 ], [ -122.44601, 38.282518 ], [ -122.44602, 38.282427 ], [ -122.44604, 38.282311 ], [ -122.44604, 38.282303 ], [ -122.44607, 38.2821 ], [ -122.44607, 38.282095 ], [ -122.44609, 38.281977 ], [ -122.44611, 38.281892 ], [ -122.44611, 38.281862 ], [ -122.44614, 38.281686 ], [ -122.44615, 38.281618 ], [ -122.4462, 38.281292 ], [ -122.44621, 38.281289 ], [ -122.44622, 38.281217 ], [ -122.44622, 38.281215 ], [ -122.44634, 38.281227 ], [ -122.44673, 38.281267 ], [ -122.44683, 38.281277 ], [ -122.44703, 38.281296 ], [ -122.44731, 38.281325 ], [ -122.44755, 38.281349 ], [ -122.44758, 38.281352 ], [ -122.44761, 38.281355 ], [ -122.4477, 38.281365 ], [ -122.44784, 38.281378 ], [ -122.44784, 38.281379 ], [ -122.44786, 38.28138 ], [ -122.44786, 38.281355 ], [ -122.44787, 38.281294 ], [ -122.44789, 38.281186 ], [ -122.44791, 38.281051 ], [ -122.44816, 38.281076 ], [ -122.44843, 38.281102 ], [ -122.44875, 38.281134 ], [ -122.44901, 38.281159 ], [ -122.44906, 38.281164 ], [ -122.44915, 38.281174 ], [ -122.44916, 38.281174 ], [ -122.44916, 38.281149 ], [ -122.44917, 38.281086 ], [ -122.44917, 38.281072 ], [ -122.44918, 38.28103 ], [ -122.44919, 38.280968 ], [ -122.44921, 38.280845 ], [ -122.44919, 38.280844 ], [ -122.44911, 38.280836 ], [ -122.44858, 38.280785 ], [ -122.44858, 38.28078 ], [ -122.44863, 38.280471 ], [ -122.44863, 38.280435 ], [ -122.44864, 38.280397 ], [ -122.44867, 38.280198 ], [ -122.44868, 38.280125 ], [ -122.44868, 38.280117 ], [ -122.44869, 38.280078 ], [ -122.44869, 38.280072 ], [ -122.44869, 38.280052 ], [ -122.4487, 38.280052 ], [ -122.44923, 38.280105 ], [ -122.44923, 38.28008 ], [ -122.44935, 38.279292 ], [ -122.44939, 38.279036 ], [ -122.44941, 38.27891 ], [ -122.44955, 38.278008 ], [ -122.44957, 38.277855 ], [ -122.44968, 38.277105 ], [ -122.4497, 38.276984 ], [ -122.44972, 38.276859 ], [ -122.44975, 38.276682 ], [ -122.44971, 38.276677 ], [ -122.44971, 38.276621 ], [ -122.44977, 38.276269 ], [ -122.44978, 38.276187 ], [ -122.4498, 38.276088 ], [ -122.4498, 38.276037 ], [ -122.44984, 38.275795 ], [ -122.44984, 38.275776 ], [ -122.44985, 38.275733 ], [ -122.44989, 38.275737 ], [ -122.44999, 38.275735 ], [ -122.45006, 38.275733 ], [ -122.45009, 38.275736 ], [ -122.45149, 38.275874 ], [ -122.45156, 38.27588 ], [ -122.45156, 38.275856 ], [ -122.45168, 38.275058 ], [ -122.45168, 38.275042 ], [ -122.45168, 38.275034 ], [ -122.4517, 38.274954 ], [ -122.4517, 38.274935 ], [ -122.45171, 38.274868 ], [ -122.45188, 38.274917 ], [ -122.45219, 38.274947 ], [ -122.45277, 38.275004 ], [ -122.45295, 38.275021 ], [ -122.45319, 38.275044 ], [ -122.45318, 38.275099 ] ], [ [ -122.4562, 38.276633 ], [ -122.45622, 38.276811 ], [ -122.45624, 38.276945 ], [ -122.45638, 38.277276 ], [ -122.45638, 38.277289 ], [ -122.45638, 38.277314 ], [ -122.4564, 38.277526 ], [ -122.45642, 38.27778 ], [ -122.4565, 38.277789 ], [ -122.45657, 38.277796 ], [ -122.45796, 38.277942 ], [ -122.45842, 38.277987 ], [ -122.45872, 38.278017 ], [ -122.459, 38.278044 ], [ -122.45946, 38.278089 ], [ -122.45978, 38.27812 ], [ -122.45978, 38.278115 ], [ -122.45978, 38.278078 ], [ -122.45984, 38.277696 ], [ -122.45987, 38.277543 ], [ -122.45995, 38.276998 ], [ -122.45995, 38.276996 ], [ -122.45889, 38.276893 ], [ -122.45749, 38.276757 ], [ -122.45663, 38.276674 ], [ -122.45646, 38.276658 ], [ -122.45629, 38.276642 ], [ -122.4562, 38.276633 ] ], [ [ -122.45132, 38.279287 ], [ -122.45126, 38.279282 ], [ -122.45092, 38.27925 ], [ -122.4509, 38.279247 ], [ -122.45052, 38.279212 ], [ -122.45036, 38.279197 ], [ -122.45002, 38.279164 ], [ -122.44958, 38.279123 ], [ -122.44958, 38.279122 ], [ -122.44954, 38.279367 ], [ -122.44949, 38.279667 ], [ -122.44943, 38.280048 ], [ -122.44942, 38.280124 ], [ -122.45048, 38.280225 ], [ -122.45058, 38.280234 ], [ -122.45056, 38.2803 ], [ -122.45055, 38.28037 ], [ -122.45056, 38.28037 ], [ -122.45089, 38.280402 ], [ -122.45079, 38.281028 ], [ -122.45076, 38.281222 ], [ -122.45081, 38.281226 ], [ -122.45117, 38.281261 ], [ -122.45139, 38.281282 ], [ -122.45149, 38.281292 ], [ -122.45152, 38.281294 ], [ -122.45153, 38.281295 ], [ -122.45153, 38.28127 ], [ -122.45161, 38.280822 ], [ -122.45166, 38.280475 ], [ -122.45212, 38.280519 ], [ -122.45238, 38.280544 ], [ -122.45254, 38.280559 ], [ -122.4526, 38.280565 ], [ -122.45267, 38.280572 ], [ -122.45274, 38.280578 ], [ -122.45274, 38.280568 ], [ -122.45274, 38.280553 ], [ -122.45275, 38.280506 ], [ -122.45275, 38.280501 ], [ -122.45276, 38.280441 ], [ -122.45278, 38.280354 ], [ -122.4528, 38.280186 ], [ -122.45283, 38.279995 ], [ -122.45285, 38.279898 ], [ -122.45286, 38.279804 ], [ -122.45289, 38.279613 ], [ -122.4529, 38.279558 ], [ -122.45292, 38.279421 ], [ -122.45294, 38.279305 ], [ -122.45294, 38.2793 ], [ -122.45295, 38.279231 ], [ -122.45295, 38.279228 ], [ -122.45295, 38.279212 ], [ -122.45298, 38.279065 ], [ -122.45298, 38.279064 ], [ -122.453, 38.278926 ], [ -122.453, 38.278879 ], [ -122.45304, 38.278657 ], [ -122.45303, 38.278656 ], [ -122.45298, 38.278652 ], [ -122.45269, 38.278624 ], [ -122.45245, 38.278603 ], [ -122.45232, 38.278591 ], [ -122.45203, 38.278564 ], [ -122.45198, 38.278559 ], [ -122.45195, 38.278556 ], [ -122.45192, 38.278758 ], [ -122.45189, 38.278949 ], [ -122.45187, 38.279069 ], [ -122.45186, 38.279167 ], [ -122.45184, 38.279312 ], [ -122.45183, 38.279325 ], [ -122.45183, 38.279336 ], [ -122.45148, 38.279302 ], [ -122.45132, 38.279287 ] ], [ [ -122.44092, 38.281354 ], [ -122.4402, 38.281281 ], [ -122.43983, 38.281243 ], [ -122.43899, 38.281158 ], [ -122.43854, 38.281112 ], [ -122.43853, 38.281112 ], [ -122.43856, 38.280938 ], [ -122.43869, 38.280079 ], [ -122.43869, 38.280076 ], [ -122.43892, 38.280098 ], [ -122.43915, 38.280121 ], [ -122.43997, 38.280203 ], [ -122.44097, 38.280302 ], [ -122.44108, 38.280313 ], [ -122.44092, 38.281346 ], [ -122.44092, 38.281354 ] ], [ [ -122.43497, 38.285386 ], [ -122.434, 38.285295 ], [ -122.43391, 38.28582 ], [ -122.43371, 38.285799 ], [ -122.43371, 38.285792 ], [ -122.43385, 38.284918 ], [ -122.43388, 38.284734 ], [ -122.43391, 38.284544 ], [ -122.43392, 38.284545 ], [ -122.43459, 38.284605 ], [ -122.435, 38.284644 ], [ -122.43509, 38.284652 ], [ -122.43497, 38.285381 ], [ -122.43497, 38.285386 ] ] ] } }
]
}
