{
"type": "FeatureCollection",
"name": "tracy_ca",
"crs": { "type": "name", "properties": { "name": "urn:ogc:def:crs:OGC:1.3:CRS84" } },
"features": [
{ "type": "Feature", "properties": { "Area": 1015901.0625, "Block20": "060770053112002", "[Population Total]": 291, "[Population White]": 69, "[Population Latino]": 173, "[Population Asian]": 23, "[Population Black]": 16, "[CVAP Total]": 124, "[CVAP White]": 43, "[CVAP Latino]": 69, "[CVAP Asian]": 5, "[CVAP Black]": 15 }, "geometry": { "type": "MultiPolygon", "coordinates": [ [ [ [ -121.45271, 37.670994 ], [ -121.45286, 37.670891 ], [ -121.45353, 37.670394 ], [ -121.45363, 37.670278 ], [ -121.45384, 37.670019 ], [ -121.45401, 37.669807 ], [ -121.45434, 37.669983 ], [ -121.45554, 37.670641 ], [ -121.45803, 37.671294 ], [ -121.45833, 37.671155 ], [ -121.45862, 37.671025 ], [ -121.46056, 37.66955 ], [ -121.46087, 37.66931 ], [ -121.46182, 37.668589 ], [ -121.46192, 37.668511 ], [ -121.46221, 37.668273 ], [ -121.46367, 37.66689 ], [ -121.46578, 37.664622 ], [ -121.46595, 37.66444 ], [ -121.46611, 37.664283 ], [ -121.46619, 37.664206 ], [ -121.46627, 37.664131 ], [ -121.46636, 37.664057 ], [ -121.46645, 37.663984 ], [ -121.46653, 37.663913 ], [ -121.46662, 37.663842 ], [ -121.46672, 37.663773 ], [ -121.46681, 37.663705 ], [ -121.4669, 37.663639 ], [ -121.4671, 37.66351 ], [ -121.46712, 37.663494 ], [ -121.4673, 37.663386 ], [ -121.4674, 37.663326 ], [ -121.4675, 37.663268 ], [ -121.46761, 37.663211 ], [ -121.4677, 37.663286 ], [ -121.46772, 37.66332 ], [ -121.46777, 37.663392 ], [ -121.46793, 37.66359 ], [ -121.46813, 37.663836 ], [ -121.46814, 37.663854 ], [ -121.46858, 37.66385 ], [ -121.46894, 37.663977 ], [ -121.47014, 37.664453 ], [ -121.47073, 37.664523 ], [ -121.47078, 37.664503 ], [ -121.47081, 37.664493 ], [ -121.47245, 37.663928 ], [ -121.47263, 37.663738 ], [ -121.47288, 37.663459 ], [ -121.47305, 37.662793 ], [ -121.47345, 37.662263 ], [ -121.47437, 37.661913 ], [ -121.47582, 37.662928 ], [ -121.47664, 37.664162 ], [ -121.47695, 37.664242 ], [ -121.4795, 37.665683 ], [ -121.4795, 37.665926 ], [ -121.47989, 37.665936 ], [ -121.48019, 37.665978 ], [ -121.48048, 37.666085 ], [ -121.48093, 37.666258 ], [ -121.48115, 37.666345 ], [ -121.48131, 37.66643 ], [ -121.48145, 37.666525 ], [ -121.48155, 37.666597 ], [ -121.48182, 37.666751 ], [ -121.48198, 37.666917 ], [ -121.48218, 37.667091 ], [ -121.48238, 37.667247 ], [ -121.48255, 37.667417 ], [ -121.48284, 37.667612 ], [ -121.48309, 37.66799 ], [ -121.48322, 37.668304 ], [ -121.4834, 37.668765 ], [ -121.48346, 37.668894 ], [ -121.48413, 37.668501 ], [ -121.48492, 37.669721 ], [ -121.48505, 37.669921 ], [ -121.48523, 37.670204 ], [ -121.48547, 37.67055 ], [ -121.48559, 37.670721 ], [ -121.48568, 37.670853 ], [ -121.48584, 37.671025 ], [ -121.48651, 37.671748 ], [ -121.48665, 37.672074 ], [ -121.48667, 37.672128 ], [ -121.48673, 37.672366 ], [ -121.48699, 37.672705 ], [ -121.48694, 37.674347 ], [ -121.48684, 37.674729 ], [ -121.48672, 37.675251 ], [ -121.48675, 37.676711 ], [ -121.48675, 37.676805 ], [ -121.48677, 37.67692 ], [ -121.48678, 37.677027 ], [ -121.48681, 37.677188 ], [ -121.48682, 37.677258 ], [ -121.48684, 37.677332 ], [ -121.48684, 37.67738 ], [ -121.48686, 37.677478 ], [ -121.48717, 37.678203 ], [ -121.48742, 37.678312 ], [ -121.48748, 37.678338 ], [ -121.48777, 37.678445 ], [ -121.48782, 37.678461 ], [ -121.48833, 37.679046 ], [ -121.48858, 37.679409 ], [ -121.48873, 37.679685 ], [ -121.48901, 37.680484 ], [ -121.48916, 37.681181 ], [ -121.48959, 37.682016 ], [ -121.48978, 37.682286 ], [ -121.48985, 37.682588 ], [ -121.4897, 37.683019 ], [ -121.49076, 37.683269 ], [ -121.49165, 37.683403 ], [ -121.49244, 37.683582 ], [ -121.49276, 37.683737 ], [ -121.49299, 37.683851 ], [ -121.49326, 37.68451 ], [ -121.49313, 37.684895 ], [ -121.49321, 37.685081 ], [ -121.49324, 37.685177 ], [ -121.49346, 37.685301 ], [ -121.49369, 37.685602 ], [ -121.49379, 37.686111 ], [ -121.49368, 37.686584 ], [ -121.49348, 37.687025 ], [ -121.49333, 37.687942 ], [ -121.49334, 37.688339 ], [ -121.49351, 37.689237 ], [ -121.49341, 37.690674 ], [ -121.49365, 37.690804 ], [ -121.49186, 37.692327 ], [ -121.49165, 37.692545 ], [ -121.49272, 37.693184 ], [ -121.49479, 37.694459 ], [ -121.49577, 37.695056 ], [ -121.49653, 37.695577 ], [ -121.4978, 37.696216 ], [ -121.49901, 37.696928 ], [ -121.49955, 37.697453 ], [ -121.50115, 37.698196 ], [ -121.50261, 37.699142 ], [ -121.50402, 37.700116 ], [ -121.50522, 37.700601 ], [ -121.50623, 37.701303 ], [ -121.50608, 37.701344 ], [ -121.5058, 37.701458 ], [ -121.50539, 37.70162 ], [ -121.50513, 37.701724 ], [ -121.50409, 37.702176 ], [ -121.50354, 37.702424 ], [ -121.50356, 37.702481 ], [ -121.50322, 37.702599 ], [ -121.50284, 37.702745 ], [ -121.5025, 37.702848 ], [ -121.50211, 37.702894 ], [ -121.50174, 37.702912 ], [ -121.50149, 37.702914 ], [ -121.50092, 37.702876 ], [ -121.50052, 37.702826 ], [ -121.50037, 37.702782 ], [ -121.50031, 37.702759 ], [ -121.49972, 37.70246 ], [ -121.49884, 37.701934 ], [ -121.49837, 37.701638 ], [ -121.49634, 37.700363 ], [ -121.49501, 37.699534 ], [ -121.49453, 37.699249 ], [ -121.49419, 37.699041 ], [ -121.49351, 37.698576 ], [ -121.49263, 37.698111 ], [ -121.4912, 37.697479 ], [ -121.49076, 37.697299 ], [ -121.49062, 37.697241 ], [ -121.4898, 37.696976 ], [ -121.48966, 37.697092 ], [ -121.48966, 37.697118 ], [ -121.48964, 37.697264 ], [ -121.49072, 37.699515 ], [ -121.49105, 37.699813 ], [ -121.48692, 37.699803 ], [ -121.47895, 37.699751 ], [ -121.47727, 37.698711 ], [ -121.47656, 37.698717 ], [ -121.47656, 37.698945 ], [ -121.47648, 37.698948 ], [ -121.4764, 37.698947 ], [ -121.47571, 37.698939 ], [ -121.47521, 37.698933 ], [ -121.47161, 37.697188 ], [ -121.4716, 37.696733 ], [ -121.47372, 37.696288 ], [ -121.47372, 37.696195 ], [ -121.47371, 37.696019 ], [ -121.4737, 37.696019 ], [ -121.47363, 37.69602 ], [ -121.47349, 37.696021 ], [ -121.47338, 37.696022 ], [ -121.47161, 37.696041 ], [ -121.47164, 37.695979 ], [ -121.47164, 37.695963 ], [ -121.47161, 37.695967 ], [ -121.47127, 37.696015 ], [ -121.47128, 37.695958 ], [ -121.47146, 37.695232 ], [ -121.47099, 37.694139 ], [ -121.46924, 37.693534 ], [ -121.46745, 37.692916 ], [ -121.46607, 37.692435 ], [ -121.4643, 37.691685 ], [ -121.46116, 37.690362 ], [ -121.46023, 37.690215 ], [ -121.45666, 37.690653 ], [ -121.45425, 37.691093 ], [ -121.45279, 37.6911 ], [ -121.4528, 37.691922 ], [ -121.4528, 37.692661 ], [ -121.4528, 37.692755 ], [ -121.44907, 37.692735 ], [ -121.44904, 37.692735 ], [ -121.44904, 37.692813 ], [ -121.44905, 37.69298 ], [ -121.44905, 37.693234 ], [ -121.4491, 37.695798 ], [ -121.4491, 37.695907 ], [ -121.45046, 37.695889 ], [ -121.45282, 37.695886 ], [ -121.45299, 37.695886 ], [ -121.45299, 37.696184 ], [ -121.45299, 37.696328 ], [ -121.45301, 37.696782 ], [ -121.45464, 37.696792 ], [ -121.45467, 37.696192 ], [ -121.46771, 37.696165 ], [ -121.46998, 37.696667 ], [ -121.4703, 37.697511 ], [ -121.47492, 37.699788 ], [ -121.47648, 37.699781 ], [ -121.47648, 37.700282 ], [ -121.47649, 37.702318 ], [ -121.47398, 37.702323 ], [ -121.46935, 37.70235 ], [ -121.46456, 37.702364 ], [ -121.462, 37.702385 ], [ -121.46198, 37.703315 ], [ -121.46213, 37.70562 ], [ -121.46451, 37.70562 ], [ -121.46451, 37.710538 ], [ -121.46001, 37.710551 ], [ -121.45951, 37.710551 ], [ -121.4584, 37.710552 ], [ -121.4582, 37.710552 ], [ -121.45818, 37.703325 ], [ -121.45559, 37.703332 ], [ -121.45355, 37.703337 ], [ -121.45317, 37.703337 ], [ -121.45309, 37.703338 ], [ -121.45304, 37.703338 ], [ -121.45294, 37.703334 ], [ -121.45285, 37.703306 ], [ -121.45285, 37.70353 ], [ -121.45288, 37.709725 ], [ -121.45286, 37.710576 ], [ -121.45287, 37.711284 ], [ -121.45313, 37.711537 ], [ -121.45317, 37.715674 ], [ -121.45319, 37.717891 ], [ -121.45305, 37.717871 ], [ -121.45295, 37.717857 ], [ -121.45285, 37.717844 ], [ -121.45273, 37.717844 ], [ -121.45245, 37.717845 ], [ -121.45217, 37.717846 ], [ -121.45215, 37.717846 ], [ -121.45213, 37.717846 ], [ -121.45199, 37.717846 ], [ -121.45153, 37.717848 ], [ -121.45105, 37.717849 ], [ -121.45055, 37.717851 ], [ -121.45046, 37.717851 ], [ -121.45007, 37.717855 ], [ -121.44959, 37.717859 ], [ -121.44912, 37.71786 ], [ -121.44863, 37.717863 ], [ -121.44853, 37.717864 ], [ -121.44818, 37.717861 ], [ -121.44782, 37.717859 ], [ -121.4475, 37.717862 ], [ -121.4474, 37.717862 ], [ -121.44704, 37.717864 ], [ -121.44685, 37.717864 ], [ -121.44663, 37.717863 ], [ -121.44661, 37.717863 ], [ -121.44615, 37.717864 ], [ -121.44611, 37.717864 ], [ -121.44588, 37.717866 ], [ -121.44566, 37.717867 ], [ -121.44549, 37.717869 ], [ -121.44514, 37.717872 ], [ -121.44501, 37.717871 ], [ -121.44492, 37.717872 ], [ -121.4447, 37.717874 ], [ -121.44419, 37.717878 ], [ -121.44391, 37.71788 ], [ -121.44381, 37.71788 ], [ -121.44381, 37.718021 ], [ -121.44381, 37.718085 ], [ -121.44382, 37.71916 ], [ -121.44382, 37.719744 ], [ -121.44383, 37.720396 ], [ -121.44383, 37.720928 ], [ -121.44383, 37.72156 ], [ -121.44706, 37.721558 ], [ -121.45297, 37.721531 ], [ -121.45297, 37.721576 ], [ -121.45318, 37.721575 ], [ -121.45319, 37.721813 ], [ -121.45324, 37.721812 ], [ -121.45369, 37.72182 ], [ -121.45368, 37.720972 ], [ -121.45369, 37.720903 ], [ -121.45485, 37.720898 ], [ -121.45595, 37.720894 ], [ -121.45614, 37.720883 ], [ -121.45664, 37.720886 ], [ -121.45661, 37.720841 ], [ -121.45708, 37.720664 ], [ -121.45786, 37.720364 ], [ -121.45833, 37.720202 ], [ -121.45862, 37.720128 ], [ -121.45962, 37.719734 ], [ -121.46082, 37.719287 ], [ -121.46108, 37.719581 ], [ -121.46135, 37.71946 ], [ -121.46341, 37.718662 ], [ -121.46368, 37.718556 ], [ -121.46909, 37.716573 ], [ -121.46932, 37.716717 ], [ -121.46937, 37.716752 ], [ -121.46961, 37.716857 ], [ -121.46984, 37.716956 ], [ -121.47003, 37.717035 ], [ -121.47036, 37.717179 ], [ -121.47106, 37.717361 ], [ -121.4716, 37.717504 ], [ -121.47209, 37.71761 ], [ -121.47249, 37.717713 ], [ -121.47264, 37.717804 ], [ -121.47303, 37.718018 ], [ -121.47338, 37.718202 ], [ -121.47374, 37.71839 ], [ -121.47407, 37.718558 ], [ -121.47436, 37.718702 ], [ -121.47473, 37.718883 ], [ -121.47518, 37.719091 ], [ -121.47562, 37.719286 ], [ -121.4759, 37.719409 ], [ -121.47648, 37.719683 ], [ -121.47657, 37.719725 ], [ -121.47661, 37.720243 ], [ -121.47663, 37.721369 ], [ -121.47666, 37.722751 ], [ -121.47666, 37.725072 ], [ -121.4697, 37.725052 ], [ -121.46802, 37.725062 ], [ -121.46801, 37.727401 ], [ -121.46799, 37.732143 ], [ -121.46799, 37.732318 ], [ -121.46799, 37.732357 ], [ -121.47046, 37.732351 ], [ -121.47108, 37.732341 ], [ -121.47129, 37.732346 ], [ -121.47135, 37.732345 ], [ -121.47148, 37.732343 ], [ -121.47148, 37.732379 ], [ -121.47149, 37.732476 ], [ -121.47149, 37.732523 ], [ -121.47149, 37.732653 ], [ -121.47149, 37.73283 ], [ -121.47148, 37.733037 ], [ -121.47148, 37.73312 ], [ -121.47148, 37.733194 ], [ -121.47148, 37.73324 ], [ -121.47149, 37.733342 ], [ -121.47149, 37.733408 ], [ -121.47147, 37.734594 ], [ -121.47147, 37.734879 ], [ -121.47147, 37.73545 ], [ -121.47146, 37.735716 ], [ -121.47146, 37.735851 ], [ -121.47147, 37.736109 ], [ -121.47145, 37.738916 ], [ -121.47145, 37.739029 ], [ -121.47144, 37.739066 ], [ -121.47279, 37.739072 ], [ -121.47315, 37.739071 ], [ -121.47402, 37.739072 ], [ -121.47485, 37.739073 ], [ -121.47541, 37.739074 ], [ -121.47567, 37.739074 ], [ -121.47597, 37.739074 ], [ -121.47606, 37.739073 ], [ -121.47619, 37.739065 ], [ -121.47626, 37.73906 ], [ -121.4763, 37.739058 ], [ -121.4763, 37.738977 ], [ -121.47653, 37.738848 ], [ -121.47653, 37.738654 ], [ -121.47657, 37.734533 ], [ -121.47661, 37.730921 ], [ -121.47661, 37.73084 ], [ -121.47671, 37.730841 ], [ -121.47866, 37.730853 ], [ -121.48399, 37.73089 ], [ -121.48563, 37.730902 ], [ -121.48562, 37.730612 ], [ -121.48562, 37.728883 ], [ -121.48587, 37.728889 ], [ -121.48663, 37.728899 ], [ -121.48993, 37.728923 ], [ -121.49386, 37.728894 ], [ -121.49419, 37.72912 ], [ -121.49425, 37.729188 ], [ -121.49485, 37.729571 ], [ -121.49484, 37.729217 ], [ -121.49484, 37.729137 ], [ -121.49484, 37.729052 ], [ -121.49484, 37.728801 ], [ -121.49484, 37.728786 ], [ -121.49482, 37.727187 ], [ -121.49467, 37.72165 ], [ -121.49479, 37.721651 ], [ -121.49508, 37.721653 ], [ -121.50041, 37.721694 ], [ -121.50283, 37.721717 ], [ -121.50388, 37.721724 ], [ -121.50388, 37.712834 ], [ -121.50526, 37.713132 ], [ -121.50743, 37.715144 ], [ -121.50927, 37.716111 ], [ -121.51046, 37.717543 ], [ -121.51046, 37.721785 ], [ -121.5131, 37.721811 ], [ -121.51536, 37.721878 ], [ -121.51549, 37.721855 ], [ -121.51725, 37.721888 ], [ -121.51739, 37.721891 ], [ -121.51898, 37.72186 ], [ -121.52023, 37.72187 ], [ -121.52145, 37.721864 ], [ -121.5223, 37.721869 ], [ -121.52245, 37.72187 ], [ -121.52651, 37.721903 ], [ -121.5291, 37.721908 ], [ -121.53082, 37.721929 ], [ -121.53108, 37.721961 ], [ -121.53144, 37.722054 ], [ -121.53164, 37.72211 ], [ -121.53176, 37.722248 ], [ -121.53172, 37.722315 ], [ -121.53158, 37.722661 ], [ -121.53147, 37.723002 ], [ -121.53143, 37.723166 ], [ -121.53141, 37.723394 ], [ -121.53141, 37.724311 ], [ -121.53136, 37.724454 ], [ -121.53142, 37.7275 ], [ -121.53142, 37.72851 ], [ -121.53138, 37.728787 ], [ -121.53129, 37.729501 ], [ -121.53129, 37.730177 ], [ -121.53129, 37.730842 ], [ -121.53139, 37.73083 ], [ -121.53159, 37.730821 ], [ -121.53177, 37.730833 ], [ -121.53187, 37.730856 ], [ -121.53196, 37.730902 ], [ -121.53243, 37.731257 ], [ -121.53276, 37.731544 ], [ -121.53306, 37.731762 ], [ -121.53458, 37.732996 ], [ -121.5352, 37.73352 ], [ -121.5359, 37.734074 ], [ -121.53638, 37.734475 ], [ -121.53791, 37.735717 ], [ -121.53813, 37.735875 ], [ -121.5387, 37.736195 ], [ -121.53965, 37.736688 ], [ -121.54166, 37.737766 ], [ -121.54255, 37.73823 ], [ -121.54311, 37.738529 ], [ -121.54325, 37.738623 ], [ -121.54339, 37.738725 ], [ -121.54355, 37.7389 ], [ -121.54362, 37.738996 ], [ -121.54368, 37.739312 ], [ -121.54371, 37.739614 ], [ -121.54376, 37.739792 ], [ -121.5438, 37.7399 ], [ -121.5439, 37.740067 ], [ -121.54406, 37.740245 ], [ -121.54421, 37.740366 ], [ -121.54437, 37.740458 ], [ -121.54452, 37.740534 ], [ -121.54473, 37.740615 ], [ -121.54498, 37.740679 ], [ -121.5452, 37.7407 ], [ -121.54541, 37.740704 ], [ -121.54578, 37.740686 ], [ -121.54643, 37.740617 ], [ -121.54768, 37.740497 ], [ -121.54784, 37.740495 ], [ -121.54805, 37.740521 ], [ -121.54826, 37.740565 ], [ -121.54837, 37.740602 ], [ -121.5485, 37.740691 ], [ -121.54864, 37.740826 ], [ -121.54872, 37.740938 ], [ -121.54883, 37.741152 ], [ -121.549, 37.741639 ], [ -121.54923, 37.742202 ], [ -121.54926, 37.742305 ], [ -121.54925, 37.742382 ], [ -121.54918, 37.742491 ], [ -121.549, 37.742711 ], [ -121.54892, 37.742832 ], [ -121.54889, 37.742911 ], [ -121.5487, 37.743194 ], [ -121.5485, 37.743474 ], [ -121.54298, 37.743126 ], [ -121.53942, 37.74289 ], [ -121.53812, 37.742809 ], [ -121.5361, 37.742567 ], [ -121.53516, 37.742453 ], [ -121.53491, 37.742414 ], [ -121.53473, 37.742379 ], [ -121.53461, 37.742339 ], [ -121.53444, 37.742268 ], [ -121.53429, 37.742159 ], [ -121.53414, 37.742042 ], [ -121.53345, 37.741453 ], [ -121.53331, 37.74132 ], [ -121.53319, 37.741227 ], [ -121.53302, 37.741166 ], [ -121.53287, 37.741145 ], [ -121.5316, 37.741187 ], [ -121.53033, 37.741499 ], [ -121.52922, 37.741784 ], [ -121.52878, 37.741886 ], [ -121.52851, 37.741942 ], [ -121.52817, 37.741988 ], [ -121.52731, 37.742012 ], [ -121.52569, 37.742015 ], [ -121.52466, 37.741948 ], [ -121.52245, 37.741817 ], [ -121.51316, 37.741223 ], [ -121.51317, 37.741034 ], [ -121.51317, 37.740857 ], [ -121.51234, 37.740796 ], [ -121.51114, 37.74071 ], [ -121.50376, 37.740281 ], [ -121.50157, 37.740162 ], [ -121.50105, 37.740133 ], [ -121.50089, 37.740117 ], [ -121.49915, 37.740106 ], [ -121.49723, 37.740071 ], [ -121.49133, 37.739726 ], [ -121.49069, 37.739688 ], [ -121.48841, 37.739531 ], [ -121.48816, 37.739515 ], [ -121.48816, 37.739629 ], [ -121.48816, 37.739828 ], [ -121.48816, 37.739994 ], [ -121.4881, 37.73999 ], [ -121.48192, 37.739596 ], [ -121.48124, 37.739564 ], [ -121.48034, 37.739539 ], [ -121.47911, 37.739526 ], [ -121.47754, 37.739524 ], [ -121.47724, 37.739553 ], [ -121.47706, 37.739559 ], [ -121.47699, 37.739583 ], [ -121.47689, 37.739644 ], [ -121.47687, 37.739657 ], [ -121.47668, 37.739831 ], [ -121.47667, 37.740074 ], [ -121.47665, 37.740279 ], [ -121.47657, 37.741043 ], [ -121.47654, 37.741483 ], [ -121.47654, 37.742115 ], [ -121.47656, 37.742722 ], [ -121.47655, 37.743024 ], [ -121.47659, 37.745437 ], [ -121.47661, 37.746207 ], [ -121.47661, 37.746511 ], [ -121.47659, 37.746729 ], [ -121.47652, 37.747037 ], [ -121.47645, 37.747209 ], [ -121.47666, 37.748174 ], [ -121.47666, 37.748395 ], [ -121.47667, 37.748727 ], [ -121.47666, 37.74886 ], [ -121.47665, 37.749259 ], [ -121.47664, 37.749487 ], [ -121.47664, 37.749578 ], [ -121.47755, 37.749994 ], [ -121.47822, 37.75034 ], [ -121.47906, 37.750779 ], [ -121.48018, 37.751423 ], [ -121.48108, 37.751976 ], [ -121.48209, 37.752591 ], [ -121.48447, 37.754032 ], [ -121.48433, 37.754041 ], [ -121.47668, 37.754059 ], [ -121.47459, 37.754063 ], [ -121.47453, 37.754063 ], [ -121.47437, 37.754055 ], [ -121.47423, 37.754084 ], [ -121.47334, 37.754081 ], [ -121.4724, 37.754058 ], [ -121.46956, 37.754063 ], [ -121.46966, 37.765532 ], [ -121.46224, 37.765459 ], [ -121.46222, 37.764564 ], [ -121.46223, 37.764256 ], [ -121.46234, 37.76389 ], [ -121.46237, 37.763702 ], [ -121.46237, 37.763245 ], [ -121.4621, 37.763248 ], [ -121.46194, 37.76325 ], [ -121.46093, 37.763262 ], [ -121.45855, 37.763289 ], [ -121.45519, 37.763325 ], [ -121.45519, 37.763038 ], [ -121.45516, 37.759919 ], [ -121.45382, 37.759909 ], [ -121.45329, 37.759901 ], [ -121.45329, 37.759815 ], [ -121.45328, 37.759712 ], [ -121.45329, 37.759433 ], [ -121.4533, 37.758294 ], [ -121.45329, 37.757959 ], [ -121.45302, 37.757931 ], [ -121.45302, 37.757752 ], [ -121.45161, 37.757756 ], [ -121.45102, 37.757752 ], [ -121.45074, 37.757721 ], [ -121.44876, 37.757735 ], [ -121.44876, 37.759022 ], [ -121.44876, 37.759537 ], [ -121.44828, 37.75954 ], [ -121.44718, 37.759579 ], [ -121.44674, 37.759579 ], [ -121.44652, 37.75958 ], [ -121.44633, 37.75958 ], [ -121.44624, 37.759581 ], [ -121.44603, 37.759581 ], [ -121.44563, 37.759581 ], [ -121.44517, 37.759582 ], [ -121.44477, 37.759584 ], [ -121.44439, 37.759585 ], [ -121.44418, 37.759586 ], [ -121.44383, 37.759588 ], [ -121.44372, 37.75959 ], [ -121.44357, 37.75959 ], [ -121.44335, 37.759591 ], [ -121.44326, 37.759591 ], [ -121.44313, 37.759593 ], [ -121.44291, 37.759594 ], [ -121.44271, 37.759594 ], [ -121.44249, 37.759593 ], [ -121.44235, 37.759593 ], [ -121.44227, 37.759592 ], [ -121.44205, 37.759591 ], [ -121.44189, 37.75959 ], [ -121.44183, 37.75959 ], [ -121.44167, 37.759589 ], [ -121.44162, 37.759589 ], [ -121.4414, 37.759588 ], [ -121.44121, 37.759587 ], [ -121.44118, 37.759588 ], [ -121.44098, 37.759587 ], [ -121.44096, 37.759587 ], [ -121.44074, 37.759587 ], [ -121.44053, 37.759587 ], [ -121.44031, 37.759586 ], [ -121.44006, 37.759587 ], [ -121.43984, 37.759587 ], [ -121.43961, 37.759588 ], [ -121.43962, 37.761319 ], [ -121.43962, 37.761399 ], [ -121.43962, 37.761463 ], [ -121.4387, 37.761463 ], [ -121.43871, 37.762482 ], [ -121.43928, 37.762509 ], [ -121.43963, 37.762461 ], [ -121.43963, 37.762673 ], [ -121.43961, 37.762978 ], [ -121.43961, 37.765029 ], [ -121.43734, 37.765032 ], [ -121.4373, 37.765361 ], [ -121.4353, 37.765377 ], [ -121.43529, 37.76687 ], [ -121.43529, 37.767949 ], [ -121.43529, 37.768032 ], [ -121.43566, 37.767915 ], [ -121.43602, 37.767755 ], [ -121.43684, 37.767521 ], [ -121.4374, 37.767214 ], [ -121.43767, 37.767024 ], [ -121.43788, 37.766892 ], [ -121.43829, 37.766629 ], [ -121.43867, 37.766552 ], [ -121.44101, 37.766585 ], [ -121.44197, 37.766636 ], [ -121.44286, 37.766563 ], [ -121.44421, 37.766424 ], [ -121.44634, 37.766205 ], [ -121.44787, 37.766344 ], [ -121.44962, 37.766943 ], [ -121.45072, 37.766907 ], [ -121.45126, 37.766878 ], [ -121.45159, 37.766929 ], [ -121.45207, 37.767002 ], [ -121.45263, 37.767053 ], [ -121.45333, 37.767053 ], [ -121.45333, 37.76723 ], [ -121.45334, 37.767869 ], [ -121.45336, 37.772467 ], [ -121.45336, 37.773807 ], [ -121.45336, 37.774012 ], [ -121.43785, 37.77416 ], [ -121.43518, 37.774179 ], [ -121.43509, 37.774186 ], [ -121.43512, 37.779547 ], [ -121.43161, 37.779605 ], [ -121.42695, 37.779649 ], [ -121.42686, 37.773937 ], [ -121.42606, 37.773938 ], [ -121.42603, 37.773639 ], [ -121.42603, 37.772609 ], [ -121.42602, 37.772071 ], [ -121.42512, 37.772092 ], [ -121.42397, 37.772094 ], [ -121.42394, 37.771122 ], [ -121.42329, 37.77112 ], [ -121.42329, 37.771046 ], [ -121.42331, 37.770354 ], [ -121.42331, 37.769274 ], [ -121.4234, 37.769131 ], [ -121.42343, 37.769066 ], [ -121.42322, 37.769066 ], [ -121.42079, 37.769069 ], [ -121.41957, 37.769062 ], [ -121.41946, 37.76906 ], [ -121.41933, 37.769057 ], [ -121.4194, 37.772455 ], [ -121.41941, 37.773073 ], [ -121.41942, 37.773173 ], [ -121.41943, 37.773868 ], [ -121.41943, 37.773942 ], [ -121.41944, 37.774487 ], [ -121.41945, 37.774804 ], [ -121.41946, 37.77523 ], [ -121.41946, 37.775428 ], [ -121.41831, 37.775992 ], [ -121.41812, 37.776157 ], [ -121.41768, 37.776372 ], [ -121.41744, 37.776423 ], [ -121.41726, 37.776468 ], [ -121.41683, 37.776281 ], [ -121.41651, 37.775969 ], [ -121.41625, 37.775787 ], [ -121.41618, 37.775742 ], [ -121.41552, 37.775657 ], [ -121.41537, 37.775472 ], [ -121.41554, 37.775098 ], [ -121.4153, 37.774954 ], [ -121.41505, 37.774804 ], [ -121.41471, 37.774728 ], [ -121.41471, 37.774654 ], [ -121.41471, 37.774517 ], [ -121.4147, 37.769079 ], [ -121.4147, 37.768817 ], [ -121.40962, 37.768824 ], [ -121.40785, 37.76883 ], [ -121.40785, 37.768752 ], [ -121.40784, 37.765395 ], [ -121.39854, 37.765394 ], [ -121.39654, 37.765388 ], [ -121.38778, 37.765366 ], [ -121.38783, 37.765255 ], [ -121.38781, 37.765255 ], [ -121.38779, 37.765254 ], [ -121.38774, 37.765251 ], [ -121.38766, 37.765245 ], [ -121.38775, 37.765042 ], [ -121.38789, 37.764747 ], [ -121.38796, 37.764591 ], [ -121.3894, 37.761545 ], [ -121.38943, 37.758568 ], [ -121.38935, 37.755717 ], [ -121.38917, 37.754559 ], [ -121.38499, 37.75463 ], [ -121.38499, 37.754434 ], [ -121.38498, 37.749872 ], [ -121.38008, 37.75168 ], [ -121.38008, 37.751164 ], [ -121.38009, 37.750775 ], [ -121.3801, 37.750459 ], [ -121.38031, 37.750397 ], [ -121.38125, 37.750153 ], [ -121.38183, 37.749973 ], [ -121.38247, 37.749741 ], [ -121.38919, 37.747167 ], [ -121.38916, 37.747005 ], [ -121.38915, 37.746875 ], [ -121.38917, 37.745975 ], [ -121.38915, 37.744683 ], [ -121.38914, 37.741863 ], [ -121.38916, 37.74114 ], [ -121.38916, 37.740373 ], [ -121.38915, 37.740109 ], [ -121.38919, 37.739913 ], [ -121.38919, 37.739745 ], [ -121.38919, 37.739675 ], [ -121.38919, 37.739466 ], [ -121.38979, 37.739496 ], [ -121.39075, 37.739542 ], [ -121.39587, 37.739578 ], [ -121.39664, 37.739573 ], [ -121.39663, 37.739721 ], [ -121.39663, 37.739838 ], [ -121.39663, 37.74068 ], [ -121.39822, 37.740697 ], [ -121.39822, 37.741003 ], [ -121.39821, 37.741626 ], [ -121.39821, 37.741891 ], [ -121.3982, 37.743277 ], [ -121.3982, 37.743333 ], [ -121.39828, 37.743329 ], [ -121.39833, 37.743326 ], [ -121.39834, 37.743386 ], [ -121.39836, 37.743593 ], [ -121.39837, 37.743589 ], [ -121.40044, 37.742758 ], [ -121.40108, 37.742499 ], [ -121.40187, 37.742178 ], [ -121.40273, 37.741835 ], [ -121.40388, 37.741392 ], [ -121.40488, 37.740965 ], [ -121.40558, 37.740685 ], [ -121.40618, 37.740442 ], [ -121.4064, 37.740355 ], [ -121.40702, 37.740104 ], [ -121.40739, 37.739954 ], [ -121.40811, 37.739721 ], [ -121.40836, 37.73964 ], [ -121.40873, 37.739522 ], [ -121.40919, 37.739344 ], [ -121.40957, 37.739198 ], [ -121.41035, 37.738894 ], [ -121.41073, 37.738747 ], [ -121.41159, 37.738417 ], [ -121.41189, 37.738299 ], [ -121.41369, 37.736843 ], [ -121.41381, 37.736752 ], [ -121.41389, 37.736673 ], [ -121.41399, 37.736569 ], [ -121.41404, 37.736503 ], [ -121.41412, 37.736389 ], [ -121.41419, 37.736269 ], [ -121.41421, 37.736221 ], [ -121.41425, 37.736121 ], [ -121.41427, 37.73607 ], [ -121.41428, 37.736 ], [ -121.4143, 37.735917 ], [ -121.41431, 37.735839 ], [ -121.41431, 37.735761 ], [ -121.41431, 37.735682 ], [ -121.4143, 37.735579 ], [ -121.41428, 37.73545 ], [ -121.41426, 37.735374 ], [ -121.41422, 37.735273 ], [ -121.41418, 37.735175 ], [ -121.41412, 37.73508 ], [ -121.41406, 37.734988 ], [ -121.41392, 37.734814 ], [ -121.41403, 37.734703 ], [ -121.41409, 37.734652 ], [ -121.41426, 37.734491 ], [ -121.41558, 37.735392 ], [ -121.41566, 37.735408 ], [ -121.41583, 37.735432 ], [ -121.41597, 37.735445 ], [ -121.41612, 37.735453 ], [ -121.41627, 37.735454 ], [ -121.41653, 37.735443 ], [ -121.41652, 37.73465 ], [ -121.41652, 37.733848 ], [ -121.41652, 37.733734 ], [ -121.41652, 37.733676 ], [ -121.41652, 37.733572 ], [ -121.41651, 37.732482 ], [ -121.41651, 37.732365 ], [ -121.41651, 37.732303 ], [ -121.41651, 37.732202 ], [ -121.4165, 37.731013 ], [ -121.41649, 37.729898 ], [ -121.41649, 37.729841 ], [ -121.41649, 37.72974 ], [ -121.41648, 37.728436 ], [ -121.41648, 37.727544 ], [ -121.41648, 37.727469 ], [ -121.41645, 37.725326 ], [ -121.41645, 37.725148 ], [ -121.41645, 37.724588 ], [ -121.41645, 37.724228 ], [ -121.41646, 37.723732 ], [ -121.41645, 37.723478 ], [ -121.41645, 37.722745 ], [ -121.41644, 37.722315 ], [ -121.41644, 37.722056 ], [ -121.41644, 37.72163 ], [ -121.41644, 37.721516 ], [ -121.41633, 37.721514 ], [ -121.41615, 37.721513 ], [ -121.41569, 37.721515 ], [ -121.41449, 37.721517 ], [ -121.41421, 37.721517 ], [ -121.41409, 37.721517 ], [ -121.4136, 37.721517 ], [ -121.41326, 37.721517 ], [ -121.41309, 37.721517 ], [ -121.4128, 37.721517 ], [ -121.41256, 37.721517 ], [ -121.41229, 37.721517 ], [ -121.41207, 37.721516 ], [ -121.41172, 37.721517 ], [ -121.41168, 37.718442 ], [ -121.41167, 37.717949 ], [ -121.41023, 37.717945 ], [ -121.40958, 37.717944 ], [ -121.40843, 37.717939 ], [ -121.40767, 37.717935 ], [ -121.40678, 37.717934 ], [ -121.40564, 37.717937 ], [ -121.40507, 37.717939 ], [ -121.40408, 37.71794 ], [ -121.40374, 37.717941 ], [ -121.40306, 37.717943 ], [ -121.40284, 37.717943 ], [ -121.40239, 37.717944 ], [ -121.40172, 37.717946 ], [ -121.40104, 37.717947 ], [ -121.40059, 37.717948 ], [ -121.40014, 37.717949 ], [ -121.39982, 37.71795 ], [ -121.39824, 37.717954 ], [ -121.39812, 37.717958 ], [ -121.3981, 37.715688 ], [ -121.39809, 37.714454 ], [ -121.39807, 37.710762 ], [ -121.39807, 37.710621 ], [ -121.39806, 37.710472 ], [ -121.3984, 37.710479 ], [ -121.39917, 37.710495 ], [ -121.39967, 37.710497 ], [ -121.40109, 37.710494 ], [ -121.40218, 37.710492 ], [ -121.40373, 37.710489 ], [ -121.40713, 37.710495 ], [ -121.40739, 37.710495 ], [ -121.41073, 37.710501 ], [ -121.41144, 37.710524 ], [ -121.41157, 37.710524 ], [ -121.41226, 37.710505 ], [ -121.41623, 37.710486 ], [ -121.41638, 37.710437 ], [ -121.41639, 37.709998 ], [ -121.41637, 37.709309 ], [ -121.41638, 37.708803 ], [ -121.41637, 37.707775 ], [ -121.41638, 37.706137 ], [ -121.41638, 37.705594 ], [ -121.41639, 37.704265 ], [ -121.41638, 37.702661 ], [ -121.41638, 37.702406 ], [ -121.41637, 37.701228 ], [ -121.41637, 37.700674 ], [ -121.41637, 37.700302 ], [ -121.41637, 37.699483 ], [ -121.41638, 37.698813 ], [ -121.42117, 37.698836 ], [ -121.42118, 37.697634 ], [ -121.42116, 37.696296 ], [ -121.42116, 37.696239 ], [ -121.42116, 37.696031 ], [ -121.42535, 37.696023 ], [ -121.43041, 37.696014 ], [ -121.43187, 37.696018 ], [ -121.43437, 37.696007 ], [ -121.43459, 37.696006 ], [ -121.43458, 37.695597 ], [ -121.43458, 37.695122 ], [ -121.4345, 37.68893 ], [ -121.43442, 37.685306 ], [ -121.43439, 37.682422 ], [ -121.43438, 37.680566 ], [ -121.43439, 37.679707 ], [ -121.43671, 37.681143 ], [ -121.44025, 37.681161 ], [ -121.44041, 37.681278 ], [ -121.44069, 37.681488 ], [ -121.43943, 37.6815 ], [ -121.43981, 37.68158 ], [ -121.44047, 37.681726 ], [ -121.44139, 37.68241 ], [ -121.44225, 37.682397 ], [ -121.44356, 37.683361 ], [ -121.44358, 37.685277 ], [ -121.4436, 37.68859 ], [ -121.44863, 37.688606 ], [ -121.44947, 37.6886 ], [ -121.45273, 37.688587 ], [ -121.45269, 37.680245 ], [ -121.45264, 37.679064 ], [ -121.45075, 37.678199 ], [ -121.4504, 37.677919 ], [ -121.44823, 37.676168 ], [ -121.44705, 37.674588 ], [ -121.44668, 37.674092 ], [ -121.45261, 37.674046 ], [ -121.45262, 37.673963 ], [ -121.45261, 37.671072 ], [ -121.45271, 37.670994 ] ], [ [ -121.4209, 37.720555 ], [ -121.42505, 37.720538 ], [ -121.42523, 37.720542 ], [ -121.42522, 37.720508 ], [ -121.42521, 37.717925 ], [ -121.4252, 37.715999 ], [ -121.42502, 37.715998 ], [ -121.42485, 37.715999 ], [ -121.42466, 37.715999 ], [ -121.42445, 37.716 ], [ -121.42425, 37.716 ], [ -121.42406, 37.716 ], [ -121.42387, 37.716001 ], [ -121.42367, 37.716001 ], [ -121.42348, 37.716001 ], [ -121.42328, 37.716002 ], [ -121.42309, 37.716002 ], [ -121.4229, 37.716002 ], [ -121.4227, 37.716003 ], [ -121.42251, 37.716003 ], [ -121.42231, 37.716004 ], [ -121.42212, 37.716004 ], [ -121.42193, 37.716005 ], [ -121.42173, 37.716005 ], [ -121.42154, 37.716005 ], [ -121.42135, 37.716006 ], [ -121.42111, 37.716006 ], [ -121.42066, 37.716007 ], [ -121.42032, 37.716008 ], [ -121.4201, 37.716008 ], [ -121.41988, 37.716009 ], [ -121.41969, 37.716009 ], [ -121.4195, 37.716009 ], [ -121.4193, 37.71601 ], [ -121.41911, 37.71601 ], [ -121.41892, 37.716011 ], [ -121.41872, 37.716011 ], [ -121.41853, 37.716011 ], [ -121.41833, 37.716012 ], [ -121.41814, 37.716012 ], [ -121.41793, 37.716013 ], [ -121.41774, 37.716013 ], [ -121.41755, 37.716013 ], [ -121.41734, 37.716013 ], [ -121.41709, 37.716013 ], [ -121.41664, 37.716013 ], [ -121.41648, 37.716014 ], [ -121.41637, 37.716013 ], [ -121.41638, 37.716354 ], [ -121.41638, 37.716465 ], [ -121.41638, 37.716551 ], [ -121.41638, 37.716807 ], [ -121.4164, 37.717478 ], [ -121.4164, 37.71828 ], [ -121.41643, 37.720529 ], [ -121.41652, 37.720529 ], [ -121.4209, 37.720555 ] ] ], [ [ [ -121.43596, 37.67795 ], [ -121.43611, 37.677846 ], [ -121.43616, 37.677827 ], [ -121.43645, 37.677706 ], [ -121.43697, 37.677507 ], [ -121.43734, 37.677389 ], [ -121.44035, 37.679763 ], [ -121.44028, 37.679755 ], [ -121.43882, 37.67977 ], [ -121.4383, 37.679775 ], [ -121.4376, 37.679782 ], [ -121.43683, 37.6796 ], [ -121.43607, 37.679042 ], [ -121.43526, 37.678454 ], [ -121.4351, 37.678336 ], [ -121.43596, 37.67795 ] ] ] ] } }
]
}
