{
"type": "FeatureCollection",
"name": "county",
"crs": { "type": "name", "properties": { "name": "urn:ogc:def:crs:OGC:1.3:CRS84" } },
"features": [
{ "type": "Feature", "properties": { }, "geometry": { "type": "MultiPolygon", "coordinates": [ [ [ [ -121.328048, 38.707168 ], [ -121.328048, 38.707136 ], [ -121.328064, 38.707072 ], [ -121.328048, 38.707072 ], [ -121.328048, 38.706976 ], [ -121.328048, 38.706944 ], [ -121.328032, 38.70688 ], [ -121.328032, 38.706848 ], [ -121.328016, 38.706784 ], [ -121.328016, 38.706752 ], [ -121.327984, 38.706688 ], [ -121.327984, 38.706656 ], [ -121.327952, 38.706592 ], [ -121.327936, 38.70656 ], [ -121.327888, 38.706464 ], [ -121.327888, 38.706432 ], [ -121.327872, 38.706432 ], [ -121.32784, 38.706368 ], [ -121.327824, 38.706368 ], [ -121.327792, 38.706304 ], [ -121.327776, 38.706272 ], [ -121.327728, 38.706208 ], [ -121.327712, 38.706208 ], [ -121.327664, 38.706144 ], [ -121.327648, 38.706144 ], [ -121.327648, 38.706112 ], [ -121.327584, 38.70608 ], [ -121.327584, 38.706048 ], [ -121.327568, 38.706048 ], [ -121.327504, 38.706016 ], [ -121.327504, 38.705984 ], [ -121.327488, 38.705984 ], [ -121.327424, 38.705952 ], [ -121.327408, 38.705952 ], [ -121.327408, 38.70592 ], [ -121.327328, 38.705888 ], [ -121.327088, 38.70576 ], [ -121.327229, 38.705429 ], [ -121.32736, 38.70512 ], [ -121.327472, 38.704928 ], [ -121.327699, 38.704691 ], [ -121.327808, 38.704576 ], [ -121.328728, 38.703725 ], [ -121.328951, 38.703519 ], [ -121.329088, 38.703392 ], [ -121.329328, 38.7032 ], [ -121.329648, 38.702976 ], [ -121.329791, 38.702897 ], [ -121.330112, 38.70272 ], [ -121.330704, 38.702496 ], [ -121.331184, 38.702368 ], [ -121.331737, 38.702319 ], [ -121.331904, 38.702304 ], [ -121.332276, 38.702319 ], [ -121.332625, 38.702333 ], [ -121.332688, 38.702336 ], [ -121.332699, 38.702338 ], [ -121.333258, 38.702424 ], [ -121.333312, 38.702432 ], [ -121.333349, 38.702441 ], [ -121.333819, 38.702559 ], [ -121.333952, 38.702592 ], [ -121.333985, 38.702606 ], [ -121.33488, 38.702976 ], [ -121.334976, 38.703008 ], [ -121.335155, 38.703069 ], [ -121.335179, 38.703078 ], [ -121.335357, 38.703139 ], [ -121.335536, 38.7032 ], [ -121.335936, 38.703328 ], [ -121.33653, 38.703457 ], [ -121.336816, 38.70352 ], [ -121.337857, 38.70357 ], [ -121.338144, 38.703584 ], [ -121.340432, 38.703584 ], [ -121.342026, 38.703609 ], [ -121.343932, 38.703638 ], [ -121.344592, 38.703648 ], [ -121.344788, 38.703659 ], [ -121.345184, 38.70368 ], [ -121.345903, 38.703711 ], [ -121.345936, 38.703712 ], [ -121.347776, 38.703712 ], [ -121.34856, 38.70368 ], [ -121.35016, 38.703712 ], [ -121.35384, 38.703744 ], [ -121.354112, 38.703744 ], [ -121.354299, 38.703749 ], [ -121.355248, 38.703776 ], [ -121.35579, 38.703776 ], [ -121.356403, 38.703776 ], [ -121.356752, 38.703776 ], [ -121.361678, 38.703837 ], [ -121.363506, 38.70386 ], [ -121.363642, 38.703862 ], [ -121.364448, 38.703872 ], [ -121.364448, 38.703884 ], [ -121.364448, 38.704 ], [ -121.364448, 38.704032 ], [ -121.364448, 38.704352 ], [ -121.364463, 38.704382 ], [ -121.364464, 38.704384 ], [ -121.364464, 38.704736 ], [ -121.36448, 38.704864 ], [ -121.36446, 38.704864 ], [ -121.364448, 38.704864 ], [ -121.364448, 38.705088 ], [ -121.364448, 38.705248 ], [ -121.364448, 38.7056 ], [ -121.364448, 38.70576 ], [ -121.364448, 38.70592 ], [ -121.364432, 38.708768 ], [ -121.364416, 38.709888 ], [ -121.3644, 38.710592 ], [ -121.36443, 38.710592 ], [ -121.36448, 38.710592 ], [ -121.36448, 38.7112 ], [ -121.36448, 38.713088 ], [ -121.364457, 38.713191 ], [ -121.364425, 38.713338 ], [ -121.364416, 38.713376 ], [ -121.364459, 38.713347 ], [ -121.364464, 38.713344 ], [ -121.364464, 38.713948 ], [ -121.364464, 38.714208 ], [ -121.364464, 38.714928 ], [ -121.364464, 38.715136 ], [ -121.364432, 38.71552 ], [ -121.364444, 38.715969 ], [ -121.364462, 38.716675 ], [ -121.364464, 38.716768 ], [ -121.364464, 38.717472 ], [ -121.364464, 38.719392 ], [ -121.364534, 38.720901 ], [ -121.36456, 38.721472 ], [ -121.36456, 38.721493 ], [ -121.364574, 38.72274 ], [ -121.364576, 38.722912 ], [ -121.364587, 38.723509 ], [ -121.364592, 38.723808 ], [ -121.364603, 38.7251 ], [ -121.364608, 38.725632 ], [ -121.364594, 38.726497 ], [ -121.364584, 38.726496 ], [ -121.363978, 38.726455 ], [ -121.362162, 38.726334 ], [ -121.362114, 38.726331 ], [ -121.361663, 38.726301 ], [ -121.361557, 38.726292 ], [ -121.360763, 38.726226 ], [ -121.360463, 38.726201 ], [ -121.35838, 38.726068 ], [ -121.357646, 38.726022 ], [ -121.357586, 38.726018 ], [ -121.357399, 38.726006 ], [ -121.356841, 38.72597 ], [ -121.35682, 38.725969 ], [ -121.356655, 38.725959 ], [ -121.356484, 38.725948 ], [ -121.355971, 38.725915 ], [ -121.3558, 38.725904 ], [ -121.355685, 38.725897 ], [ -121.35566, 38.725895 ], [ -121.355356, 38.725875 ], [ -121.35524, 38.725868 ], [ -121.355101, 38.72586 ], [ -121.354686, 38.725833 ], [ -121.353444, 38.725754 ], [ -121.35303, 38.725728 ], [ -121.351724, 38.725646 ], [ -121.347808, 38.725401 ], [ -121.346503, 38.72532 ], [ -121.345659, 38.725265 ], [ -121.343128, 38.725101 ], [ -121.342285, 38.725047 ], [ -121.341205, 38.724978 ], [ -121.337966, 38.724771 ], [ -121.336887, 38.724703 ], [ -121.327534, 38.723916 ], [ -121.327504, 38.723914 ], [ -121.325421, 38.723795 ], [ -121.322156, 38.723611 ], [ -121.31859, 38.723406 ], [ -121.318178, 38.723382 ], [ -121.318048, 38.723375 ], [ -121.317866, 38.723364 ], [ -121.317322, 38.723333 ], [ -121.317141, 38.723323 ], [ -121.316975, 38.723313 ], [ -121.316762, 38.723302 ], [ -121.316703, 38.723302 ], [ -121.316456, 38.723301 ], [ -121.316283, 38.723301 ], [ -121.316025, 38.723301 ], [ -121.315962, 38.723301 ], [ -121.315731, 38.723269 ], [ -121.315485, 38.723234 ], [ -121.315262, 38.723201 ], [ -121.315089, 38.723167 ], [ -121.314936, 38.723137 ], [ -121.314848, 38.723118 ], [ -121.313084, 38.723093 ], [ -121.312896, 38.723076 ], [ -121.312374, 38.723029 ], [ -121.311451, 38.722948 ], [ -121.311391, 38.722943 ], [ -121.31121, 38.722928 ], [ -121.311151, 38.722923 ], [ -121.311093, 38.722911 ], [ -121.320432, 38.71456 ], [ -121.320448, 38.71456 ], [ -121.320464, 38.71456 ], [ -121.320624, 38.714432 ], [ -121.320784, 38.714304 ], [ -121.320944, 38.714208 ], [ -121.320944, 38.714176 ], [ -121.321104, 38.71408 ], [ -121.321104, 38.714048 ], [ -121.321248, 38.713952 ], [ -121.321248, 38.71392 ], [ -121.32184, 38.713408 ], [ -121.321984, 38.71328 ], [ -121.3244, 38.71104 ], [ -121.324544, 38.710912 ], [ -121.325712, 38.709856 ], [ -121.32592, 38.709664 ], [ -121.326112, 38.709472 ], [ -121.327616, 38.708064 ], [ -121.327632, 38.708064 ], [ -121.32768, 38.708 ], [ -121.327696, 38.707968 ], [ -121.32776, 38.707904 ], [ -121.327824, 38.70784 ], [ -121.327824, 38.707808 ], [ -121.327872, 38.707744 ], [ -121.327888, 38.707712 ], [ -121.32792, 38.707648 ], [ -121.327968, 38.707552 ], [ -121.328, 38.707456 ], [ -121.328016, 38.70736 ], [ -121.328032, 38.70736 ], [ -121.328032, 38.707264 ], [ -121.328048, 38.707264 ], [ -121.328048, 38.707168 ] ] ] ] } },
{ "type": "Feature", "properties": { }, "geometry": { "type": "MultiPolygon", "coordinates": [ [ [ [ -121.364594, 38.726497 ], [ -121.364592, 38.726624 ], [ -121.364585, 38.726624 ], [ -121.364464, 38.726624 ], [ -121.364432, 38.726624 ], [ -121.363888, 38.72656 ], [ -121.363728, 38.72656 ], [ -121.363552, 38.72656 ], [ -121.363392, 38.726528 ], [ -121.363248, 38.726528 ], [ -121.363104, 38.726528 ], [ -121.363088, 38.726528 ], [ -121.362928, 38.726496 ], [ -121.362768, 38.726496 ], [ -121.362608, 38.726496 ], [ -121.362464, 38.726464 ], [ -121.362288, 38.726464 ], [ -121.362144, 38.726464 ], [ -121.361984, 38.726464 ], [ -121.361824, 38.726432 ], [ -121.361664, 38.726432 ], [ -121.36152, 38.726432 ], [ -121.36136, 38.7264 ], [ -121.3612, 38.7264 ], [ -121.36104, 38.7264 ], [ -121.360864, 38.726368 ], [ -121.36072, 38.726368 ], [ -121.360576, 38.726368 ], [ -121.3604, 38.726336 ], [ -121.360256, 38.726336 ], [ -121.360032, 38.726304 ], [ -121.359648, 38.726304 ], [ -121.359536, 38.726272 ], [ -121.359104, 38.726272 ], [ -121.358944, 38.72624 ], [ -121.358784, 38.72624 ], [ -121.358624, 38.72624 ], [ -121.358464, 38.726208 ], [ -121.358192, 38.726208 ], [ -121.357856, 38.726176 ], [ -121.357472, 38.726144 ], [ -121.357248, 38.726144 ], [ -121.357072, 38.726112 ], [ -121.356928, 38.726112 ], [ -121.356768, 38.726112 ], [ -121.356608, 38.72608 ], [ -121.356448, 38.72608 ], [ -121.356288, 38.72608 ], [ -121.356128, 38.726048 ], [ -121.355984, 38.726048 ], [ -121.355808, 38.726048 ], [ -121.355728, 38.726048 ], [ -121.355664, 38.726016 ], [ -121.355504, 38.726016 ], [ -121.35536, 38.726016 ], [ -121.355358, 38.726016 ], [ -121.355344, 38.726016 ], [ -121.355344, 38.726112 ], [ -121.355344, 38.726208 ], [ -121.355344, 38.726304 ], [ -121.355344, 38.7264 ], [ -121.35536, 38.726432 ], [ -121.35536, 38.726496 ], [ -121.35536, 38.72656 ], [ -121.35536, 38.726656 ], [ -121.35536, 38.72672 ], [ -121.35536, 38.726816 ], [ -121.35536, 38.726944 ], [ -121.35536, 38.727008 ], [ -121.35536, 38.72704 ], [ -121.35536, 38.727136 ], [ -121.35536, 38.727232 ], [ -121.35536, 38.727296 ], [ -121.35536, 38.727392 ], [ -121.35536, 38.727488 ], [ -121.35536, 38.727552 ], [ -121.35536, 38.727584 ], [ -121.355375, 38.727676 ], [ -121.355376, 38.72768 ], [ -121.355376, 38.727747 ], [ -121.355376, 38.727808 ], [ -121.355376, 38.727904 ], [ -121.355376, 38.728384 ], [ -121.355376, 38.728672 ], [ -121.355376, 38.728704 ], [ -121.355376, 38.728797 ], [ -121.355376, 38.7288 ], [ -121.360016, 38.7288 ], [ -121.360989, 38.7288 ], [ -121.362032, 38.7288 ], [ -121.36232, 38.7288 ], [ -121.363952, 38.7288 ], [ -121.363968, 38.7288 ], [ -121.363986, 38.728799 ], [ -121.36462, 38.72877 ], [ -121.364656, 38.728768 ], [ -121.364656, 38.7288 ], [ -121.364656, 38.731104 ], [ -121.364642, 38.731391 ], [ -121.364626, 38.731702 ], [ -121.364576, 38.732704 ], [ -121.364544, 38.733504 ], [ -121.364528, 38.734784 ], [ -121.364528, 38.735488 ], [ -121.364538, 38.736872 ], [ -121.364544, 38.737632 ], [ -121.36456, 38.739392 ], [ -121.364569, 38.740352 ], [ -121.364576, 38.74112 ], [ -121.364624, 38.74256 ], [ -121.364704, 38.744256 ], [ -121.36472, 38.744544 ], [ -121.364707, 38.74477 ], [ -121.364704, 38.744832 ], [ -121.364624, 38.74512 ], [ -121.364448, 38.745504 ], [ -121.364227, 38.745781 ], [ -121.364192, 38.745824 ], [ -121.363982, 38.74606 ], [ -121.363936, 38.746112 ], [ -121.363772, 38.746255 ], [ -121.36368, 38.746336 ], [ -121.363312, 38.746592 ], [ -121.362826, 38.746805 ], [ -121.3628, 38.746816 ], [ -121.361664, 38.74736 ], [ -121.361565, 38.74741 ], [ -121.36096, 38.747712 ], [ -121.360304, 38.748032 ], [ -121.35984, 38.748256 ], [ -121.359504, 38.74848 ], [ -121.359248, 38.748736 ], [ -121.358976, 38.749056 ], [ -121.358768, 38.749376 ], [ -121.358688, 38.749568 ], [ -121.358608, 38.749792 ], [ -121.35856, 38.750048 ], [ -121.358544, 38.750336 ], [ -121.358528, 38.75104 ], [ -121.358544, 38.751744 ], [ -121.358545, 38.751778 ], [ -121.358576, 38.753632 ], [ -121.358592, 38.755006 ], [ -121.358592, 38.75504 ], [ -121.358592, 38.756928 ], [ -121.358604, 38.75805 ], [ -121.358608, 38.7584 ], [ -121.358592, 38.76016 ], [ -121.358602, 38.761518 ], [ -121.358608, 38.762336 ], [ -121.358608, 38.764352 ], [ -121.358624, 38.766208 ], [ -121.358625, 38.766237 ], [ -121.35864, 38.766784 ], [ -121.358576, 38.76848 ], [ -121.358576, 38.770784 ], [ -121.358576, 38.773088 ], [ -121.358576, 38.775328 ], [ -121.358576, 38.776736 ], [ -121.358576, 38.776881 ], [ -121.358576, 38.778944 ], [ -121.358592, 38.781088 ], [ -121.358592, 38.781472 ], [ -121.358569, 38.781471 ], [ -121.358156, 38.781459 ], [ -121.357641, 38.781445 ], [ -121.356715, 38.781418 ], [ -121.355264, 38.781376 ], [ -121.35524, 38.781376 ], [ -121.355232, 38.781376 ], [ -121.35523, 38.781373 ], [ -121.355216, 38.781344 ], [ -121.355136, 38.781344 ], [ -121.347856, 38.781152 ], [ -121.34712, 38.78112 ], [ -121.347104, 38.78112 ], [ -121.347088, 38.78112 ], [ -121.347776, 38.780544 ], [ -121.34752, 38.780352 ], [ -121.34712, 38.78048 ], [ -121.346848, 38.780288 ], [ -121.34556, 38.780297 ], [ -121.342272, 38.78032 ], [ -121.34208, 38.780096 ], [ -121.342026, 38.780042 ], [ -121.342016, 38.780032 ], [ -121.341038, 38.780528 ], [ -121.340909, 38.780593 ], [ -121.340816, 38.78064 ], [ -121.340704, 38.780512 ], [ -121.340608, 38.780416 ], [ -121.34056, 38.780288 ], [ -121.340512, 38.780128 ], [ -121.340493, 38.780128 ], [ -121.340432, 38.780128 ], [ -121.34008, 38.78016 ], [ -121.34008, 38.780803 ], [ -121.34008, 38.780896 ], [ -121.340073, 38.780896 ], [ -121.33996, 38.780896 ], [ -121.339488, 38.780896 ], [ -121.338896, 38.780896 ], [ -121.338688, 38.780896 ], [ -121.3384, 38.780896 ], [ -121.338128, 38.780896 ], [ -121.337904, 38.780896 ], [ -121.337696, 38.780896 ], [ -121.337472, 38.780896 ], [ -121.337264, 38.780896 ], [ -121.337056, 38.780896 ], [ -121.336848, 38.780896 ], [ -121.33664, 38.780896 ], [ -121.336432, 38.780896 ], [ -121.336224, 38.780896 ], [ -121.336, 38.780896 ], [ -121.335792, 38.780896 ], [ -121.335552, 38.780896 ], [ -121.33545, 38.780896 ], [ -121.33528, 38.780896 ], [ -121.334992, 38.780896 ], [ -121.334928, 38.780896 ], [ -121.334448, 38.780896 ], [ -121.334272, 38.780896 ], [ -121.334224, 38.780896 ], [ -121.334034, 38.780896 ], [ -121.334032, 38.780896 ], [ -121.333872, 38.780896 ], [ -121.333872, 38.781152 ], [ -121.333872, 38.781184 ], [ -121.333872, 38.781315 ], [ -121.333872, 38.78144 ], [ -121.333872, 38.781728 ], [ -121.333824, 38.781728 ], [ -121.333824, 38.781729 ], [ -121.333824, 38.78176 ], [ -121.333808, 38.78176 ], [ -121.33376, 38.78176 ], [ -121.333744, 38.78176 ], [ -121.333728, 38.78176 ], [ -121.333616, 38.781728 ], [ -121.33344, 38.781728 ], [ -121.33328, 38.781728 ], [ -121.33312, 38.781728 ], [ -121.33296, 38.781728 ], [ -121.3328, 38.781728 ], [ -121.33264, 38.781728 ], [ -121.33248, 38.781728 ], [ -121.332336, 38.781728 ], [ -121.332176, 38.781728 ], [ -121.332016, 38.781728 ], [ -121.331856, 38.781728 ], [ -121.331696, 38.781728 ], [ -121.33168, 38.781728 ], [ -121.331168, 38.781728 ], [ -121.331072, 38.781728 ], [ -121.330912, 38.781728 ], [ -121.330752, 38.781728 ], [ -121.330592, 38.781728 ], [ -121.330432, 38.781728 ], [ -121.330272, 38.781728 ], [ -121.330112, 38.781728 ], [ -121.329968, 38.781728 ], [ -121.329936, 38.781728 ], [ -121.32992, 38.781728 ], [ -121.32992, 38.781683 ], [ -121.32992, 38.781632 ], [ -121.32992, 38.781344 ], [ -121.32992, 38.781152 ], [ -121.32992, 38.78096 ], [ -121.32992, 38.780896 ], [ -121.32992, 38.780832 ], [ -121.32992, 38.7808 ], [ -121.32992, 38.78064 ], [ -121.32992, 38.780576 ], [ -121.329917, 38.780576 ], [ -121.329616, 38.780544 ], [ -121.329456, 38.780544 ], [ -121.32944, 38.780544 ], [ -121.329408, 38.780544 ], [ -121.326672, 38.780544 ], [ -121.326564, 38.780543 ], [ -121.322496, 38.780512 ], [ -121.321568, 38.780512 ], [ -121.321568, 38.780864 ], [ -121.321552, 38.780864 ], [ -121.31968, 38.780832 ], [ -121.319504, 38.780832 ], [ -121.319408, 38.78096 ], [ -121.318848, 38.781536 ], [ -121.318832, 38.781536 ], [ -121.318816, 38.781536 ], [ -121.317568, 38.781728 ], [ -121.317552, 38.781728 ], [ -121.31712, 38.781696 ], [ -121.317104, 38.781696 ], [ -121.317088, 38.781696 ], [ -121.316432, 38.78144 ], [ -121.3164, 38.78144 ], [ -121.315488, 38.78112 ], [ -121.315437, 38.7811 ], [ -121.315081, 38.780957 ], [ -121.314928, 38.780896 ], [ -121.314848, 38.780896 ], [ -121.314784, 38.780896 ], [ -121.31408, 38.780896 ], [ -121.314048, 38.780896 ], [ -121.314016, 38.780896 ], [ -121.313792, 38.780928 ], [ -121.313808, 38.778208 ], [ -121.3138, 38.778145 ], [ -121.31376, 38.777824 ], [ -121.313648, 38.777312 ], [ -121.313504, 38.776768 ], [ -121.313235, 38.776009 ], [ -121.313152, 38.775776 ], [ -121.312992, 38.775168 ], [ -121.312928, 38.774784 ], [ -121.3129, 38.774254 ], [ -121.31288, 38.773888 ], [ -121.312864, 38.77328 ], [ -121.312864, 38.772544 ], [ -121.312864, 38.772537 ], [ -121.31288, 38.770912 ], [ -121.312888, 38.769813 ], [ -121.312896, 38.768608 ], [ -121.312895, 38.768485 ], [ -121.31288, 38.7664 ], [ -121.312864, 38.765984 ], [ -121.312816, 38.7656 ], [ -121.31272, 38.765184 ], [ -121.312608, 38.764832 ], [ -121.312491, 38.764578 ], [ -121.312416, 38.764416 ], [ -121.312176, 38.763904 ], [ -121.311952, 38.763584 ], [ -121.311792, 38.763424 ], [ -121.311264, 38.762848 ], [ -121.31096, 38.762464 ], [ -121.310656, 38.762016 ], [ -121.310432, 38.761664 ], [ -121.31024, 38.761248 ], [ -121.31016, 38.76096 ], [ -121.310096, 38.760736 ], [ -121.310032, 38.76048 ], [ -121.309968, 38.76016 ], [ -121.309952, 38.759808 ], [ -121.309959, 38.75917 ], [ -121.309968, 38.758336 ], [ -121.310016, 38.755488 ], [ -121.309952, 38.754848 ], [ -121.309824, 38.754304 ], [ -121.309536, 38.753504 ], [ -121.309424, 38.75312 ], [ -121.309387, 38.752955 ], [ -121.30936, 38.752832 ], [ -121.309328, 38.752512 ], [ -121.309344, 38.751827 ], [ -121.309344, 38.751808 ], [ -121.309362, 38.750496 ], [ -121.309376, 38.74944 ], [ -121.309376, 38.749429 ], [ -121.309376, 38.74736 ], [ -121.309373, 38.747152 ], [ -121.30936, 38.746176 ], [ -121.309296, 38.745536 ], [ -121.309168, 38.744736 ], [ -121.309136, 38.744288 ], [ -121.309136, 38.743815 ], [ -121.309136, 38.743776 ], [ -121.309136, 38.74304 ], [ -121.30912, 38.742496 ], [ -121.30912, 38.742144 ], [ -121.309088, 38.74192 ], [ -121.309056, 38.741728 ], [ -121.309008, 38.741472 ], [ -121.308944, 38.741216 ], [ -121.308864, 38.74096 ], [ -121.308688, 38.740544 ], [ -121.308496, 38.74016 ], [ -121.308192, 38.739744 ], [ -121.308169, 38.739714 ], [ -121.307866, 38.739327 ], [ -121.307792, 38.739232 ], [ -121.30736, 38.738784 ], [ -121.307184, 38.738667 ], [ -121.306695, 38.738341 ], [ -121.30616, 38.737984 ], [ -121.306021, 38.737894 ], [ -121.305872, 38.737798 ], [ -121.305165, 38.73734 ], [ -121.305072, 38.73728 ], [ -121.303648, 38.736416 ], [ -121.303104, 38.736 ], [ -121.302704, 38.735584 ], [ -121.302464, 38.735232 ], [ -121.302271, 38.734943 ], [ -121.30227, 38.734941 ], [ -121.302246, 38.734904 ], [ -121.302208, 38.734848 ], [ -121.302016, 38.734464 ], [ -121.301926, 38.734194 ], [ -121.30192, 38.734176 ], [ -121.301872, 38.733856 ], [ -121.301869, 38.73383 ], [ -121.301824, 38.733376 ], [ -121.301872, 38.732704 ], [ -121.301952, 38.732352 ], [ -121.302016, 38.732192 ], [ -121.30208, 38.732 ], [ -121.302176, 38.73184 ], [ -121.302256, 38.731648 ], [ -121.302352, 38.731488 ], [ -121.302464, 38.731328 ], [ -121.302466, 38.731325 ], [ -121.302576, 38.731168 ], [ -121.302704, 38.730976 ], [ -121.302832, 38.730816 ], [ -121.30376, 38.729536 ], [ -121.303784, 38.729504 ], [ -121.30424, 38.728896 ], [ -121.304318, 38.728807 ], [ -121.304352, 38.728768 ], [ -121.304448, 38.728608 ], [ -121.304576, 38.728448 ], [ -121.304639, 38.728376 ], [ -121.304688, 38.72832 ], [ -121.304816, 38.72816 ], [ -121.304944, 38.728032 ], [ -121.305088, 38.727904 ], [ -121.305632, 38.727424 ], [ -121.305925, 38.727157 ], [ -121.306368, 38.726752 ], [ -121.306912, 38.72624 ], [ -121.311056, 38.722944 ], [ -121.311093, 38.722911 ], [ -121.311151, 38.722923 ], [ -121.31121, 38.722928 ], [ -121.311391, 38.722943 ], [ -121.311451, 38.722948 ], [ -121.312374, 38.723029 ], [ -121.312896, 38.723076 ], [ -121.313084, 38.723093 ], [ -121.314848, 38.723118 ], [ -121.314936, 38.723137 ], [ -121.315089, 38.723167 ], [ -121.315262, 38.723201 ], [ -121.315485, 38.723234 ], [ -121.315731, 38.723269 ], [ -121.315962, 38.723301 ], [ -121.316025, 38.723301 ], [ -121.316283, 38.723301 ], [ -121.316456, 38.723301 ], [ -121.316703, 38.723302 ], [ -121.316762, 38.723302 ], [ -121.316975, 38.723313 ], [ -121.317141, 38.723323 ], [ -121.317322, 38.723333 ], [ -121.317866, 38.723364 ], [ -121.318048, 38.723375 ], [ -121.318178, 38.723382 ], [ -121.31859, 38.723406 ], [ -121.322156, 38.723611 ], [ -121.325421, 38.723795 ], [ -121.327504, 38.723914 ], [ -121.327534, 38.723916 ], [ -121.336887, 38.724703 ], [ -121.337966, 38.724771 ], [ -121.341205, 38.724978 ], [ -121.342285, 38.725047 ], [ -121.343128, 38.725101 ], [ -121.345659, 38.725265 ], [ -121.346503, 38.72532 ], [ -121.347808, 38.725401 ], [ -121.351724, 38.725646 ], [ -121.35303, 38.725728 ], [ -121.353444, 38.725754 ], [ -121.354686, 38.725833 ], [ -121.355101, 38.72586 ], [ -121.35524, 38.725868 ], [ -121.355356, 38.725875 ], [ -121.35566, 38.725895 ], [ -121.355685, 38.725897 ], [ -121.3558, 38.725904 ], [ -121.355971, 38.725915 ], [ -121.356484, 38.725948 ], [ -121.356655, 38.725959 ], [ -121.35682, 38.725969 ], [ -121.356841, 38.72597 ], [ -121.357399, 38.726006 ], [ -121.357586, 38.726018 ], [ -121.357646, 38.726022 ], [ -121.35838, 38.726068 ], [ -121.360463, 38.726201 ], [ -121.360763, 38.726226 ], [ -121.361557, 38.726292 ], [ -121.361663, 38.726301 ], [ -121.362114, 38.726331 ], [ -121.362162, 38.726334 ], [ -121.363978, 38.726455 ], [ -121.364584, 38.726496 ], [ -121.364594, 38.726497 ] ] ] ] } }
]
}
